address_name,category_group_code,category_group_name,category_name,distance,id,phone,place_name,place_url,road_address_name,x,y
서울 강남구 개포동 656,CS2,편의점,"가정,생활 > 편의점 > GS25",,1936511303,,GS25 래미안포레스트점,http://place.map.kakao.com/1936511303,서울 강남구 개포로 264,127.05504691183405,37.477623050329576
서울 강남구 개포동 1282,CS2,편의점,"가정,생활 > 편의점 > GS25",,1352554072,,GS25 개포포레스트점,http://place.map.kakao.com/1352554072,서울 강남구 개포로 264,127.05277973840812,37.4802649428951
서울 강남구 개포동 1232,CS2,편의점,"가정,생활 > 편의점 > GS25",,15668185,02-578-0379,GS25 개포럭키점,http://place.map.kakao.com/15668185,서울 강남구 개포로20길 12,127.047243978585,37.477914750923
서울 강남구 개포동 186-15,CS2,편의점,"가정,생활 > 편의점 > GS25",,10992865,,GS25 개포소망점,http://place.map.kakao.com/10992865,서울 강남구 개포로 508,127.067843998326,37.4891997606836
서울 강남구 일원동 620-10,CS2,편의점,"가정,생활 > 편의점 > GS25",,420443356,080-999-5425,GS25 강남중동고점,http://place.map.kakao.com/420443356,서울 강남구 개포로116길 19,127.081850041134,37.4930255743981
서울 강남구 개포동 1255-6,CS2,편의점,"가정,생활 > 편의점 > GS25",,25757657,02-573-7318,GS25 포이그린점,http://place.map.kakao.com/25757657,서울 강남구 개포로25길 15,127.048050289355,37.4800227874403
서울 강남구 개포동 1212,CS2,편의점,"가정,생활 > 편의점 > GS25",,202418881,,GS25 개포미래점,http://place.map.kakao.com/202418881,서울 강남구 개포로 244,127.049297679811,37.478825733379
서울 강남구 개포동 1219-5,CS2,편의점,"가정,생활 > 편의점 > GS25",,12296532,02-578-8300,GS25 포이점,http://place.map.kakao.com/12296532,서울 강남구 개포로22길 40,127.049368535931,37.4765443478675
서울 강남구 개포동 1244-14,CS2,편의점,"가정,생활 > 편의점 > GS25",,42763246,02-572-0372,GS25 강남개포점,http://place.map.kakao.com/42763246,서울 강남구 개포로15길 10,127.045322802971,37.4792093528663
서울 강남구 일원동 739,CS2,편의점,"가정,생활 > 편의점 > GS25",,184687641,,GS25 서울로봇고점,http://place.map.kakao.com/184687641,서울 강남구 광평로10길 50,127.08338593471206,37.48106992807757
서울 강남구 수서동 559,CS2,편의점,"가정,생활 > 편의점 > GS25",,25973058,,GS25 세곡1단지점,http://place.map.kakao.com/25973058,서울 강남구 광평로34길 55,127.091873605426,37.4812150025661
서울 강남구 역삼동 727-14,CS2,편의점,"가정,생활 > 편의점 > GS25",,12296461,,GS25 역삼햇살점,http://place.map.kakao.com/12296461,서울 강남구 논현로 412,127.039095721365,37.4968893523548
서울 강남구 역삼동 642-5,CS2,편의점,"가정,생활 > 편의점 > GS25",,27214263,,GS25 지에스본점,http://place.map.kakao.com/27214263,서울 강남구 논현로93길 3,127.03588649872,37.5018819450189
서울 강남구 논현동 229-26,CS2,편의점,"가정,생활 > 편의점 > GS25",,12296490,02-2685-8715,GS25 논현한영점,http://place.map.kakao.com/12296490,서울 강남구 논현로114길 11,127.034297312715,37.5087805134374
서울 강남구 논현동 37-16,CS2,편의점,"가정,생활 > 편의점 > GS25",,12296481,02-541-6160,GS25 논현동국점,http://place.map.kakao.com/12296481,서울 강남구 논현로131길 6,127.029811707976,37.5146058225066
서울 강남구 논현동 66-35,CS2,편의점,"가정,생활 > 편의점 > GS25",,12296480,02-514-0505,GS25 논현학동점,http://place.map.kakao.com/12296480,서울 강남구 논현로146길 11,127.02998961443,37.5182350199015
서울 강남구 역삼동 644-3,CS2,편의점,"가정,생활 > 편의점 > GS25",,2052253330,080-999-5425,GS25 역삼코디점,http://place.map.kakao.com/2052253330,서울 강남구 논현로95길 29-13,127.034185215449,37.5010643362751
서울 강남구 논현동 193-39,CS2,편의점,"가정,생활 > 편의점 > GS25",,1729559034,080-999-5425,GS25 언주제일점,http://place.map.kakao.com/1729559034,서울 강남구 논현로111길 14,127.03236955308671,37.507652999386444
서울 강남구 역삼동 798-29,CS2,편의점,"가정,생활 > 편의점 > GS25",,8004388,,GS25 역삼대홍점,http://place.map.kakao.com/8004388,서울 강남구 논현로63길 19,127.039306005264,37.4924707448186
서울 강남구 논현동 57-9,CS2,편의점,"가정,생활 > 편의점 > GS25",,20037899,02-546-6196,GS25 논현하니점,http://place.map.kakao.com/20037899,서울 강남구 논현로131길 31,127.027788956431,37.5137557680028
서울 강남구 역삼동 736-37,CS2,편의점,"가정,생활 > 편의점 > GS25",,26926160,,GS25 역삼캐피탈점,http://place.map.kakao.com/26926160,서울 강남구 논현로87길 23,127.034935355229,37.4993774334937
서울 강남구 역삼동 769-8,CS2,편의점,"가정,생활 > 편의점 > GS25",,1271063018,02-554-1945,GS25 역삼싱아점,http://place.map.kakao.com/1271063018,서울 강남구 논현로72길 13,127.040637656528,37.4958869126473
서울 강남구 역삼동 788-38,CS2,편의점,"가정,생활 > 편의점 > GS25",,1320271004,080-999-5425,GS25 역삼아람점,http://place.map.kakao.com/1320271004,서울 강남구 논현로64길 14,127.041373715626,37.4936305359677
서울 강남구 논현동 133-32,CS2,편의점,"가정,생활 > 편의점 > GS25",,12296538,02-548-6625,GS25 논현사랑점,http://place.map.kakao.com/12296538,서울 강남구 논현로123길 40,127.028742469039,37.5107858299175
서울 강남구 신사동 565-19,CS2,편의점,"가정,생활 > 편의점 > GS25",,20038173,02-547-3080,GS25 압구정화인점,http://place.map.kakao.com/20038173,서울 강남구 논현로155길 8,127.027321389394,37.5219081555914
서울 강남구 신사동 555-13,CS2,편의점,"가정,생활 > 편의점 > GS25",,12296469,080-999-5425,GS25 신사초롱점,http://place.map.kakao.com/12296469,서울 강남구 논현로153길 46,127.024461184754,37.5204888020806
서울 강남구 도곡동 544,CS2,편의점,"가정,생활 > 편의점 > GS25",,12296550,,GS25 도곡신호점,http://place.map.kakao.com/12296550,서울 강남구 도곡로 184,127.039857459378,37.4917785864748
서울 강남구 도곡동 553-1,CS2,편의점,"가정,생활 > 편의점 > GS25",,35107203,,GS25 도곡대박점,http://place.map.kakao.com/35107203,서울 강남구 도곡로 132,127.034780735275,37.4902953298488
서울 강남구 역삼동 835-68,CS2,편의점,"가정,생활 > 편의점 > GS25",,25757570,02-538-3733,GS25 역삼하나점,http://place.map.kakao.com/25757570,서울 강남구 도곡로13길 19,127.035601750131,37.4928683623356
서울 강남구 역삼동 796-26,CS2,편의점,"가정,생활 > 편의점 > GS25",,13098944,080-999-5425,GS25 역삼블루점,http://place.map.kakao.com/13098944,서울 강남구 도곡로21길 18,127.03879529519024,37.49325118583355
서울 강남구 대치동 988-17,CS2,편의점,"가정,생활 > 편의점 > GS25",,12296484,,GS25 대치학원점,http://place.map.kakao.com/12296484,서울 강남구 도곡로 511,127.062262307949,37.4996256812263
서울 강남구 역삼동 765-26,CS2,편의점,"가정,생활 > 편의점 > GS25",,1706609319,,GS25 한티역점,http://place.map.kakao.com/1706609319,서울 강남구 도곡로 325,127.05151647564,37.4961709917069
서울 강남구 대치동 1023-19,CS2,편의점,"가정,생활 > 편의점 > GS25",,309247772,080-999-5425,GS25 한티단국점,http://place.map.kakao.com/309247772,서울 강남구 도곡로70길 5,127.056627354154,37.4969921724022
서울 강남구 대치동 1017,CS2,편의점,"가정,생활 > 편의점 > GS25",,392972648,,GS25 대치삼성타운점,http://place.map.kakao.com/392972648,서울 강남구 도곡로78길 22,127.060134405446,37.4973454358085
서울 강남구 삼성동 51-3,CS2,편의점,"가정,생활 > 편의점 > GS25",,2126264503,080-999-5425,GS25 삼성본점,http://place.map.kakao.com/2126264503,서울 강남구 삼성로111길 7,127.05255072642868,37.51325449778041
서울 강남구 대치동 942-4,CS2,편의점,"가정,생활 > 편의점 > GS25",,1119231969,02-567-1564,GS25 강남쥬비스점,http://place.map.kakao.com/1119231969,서울 강남구 삼성로 434,127.057612205935,37.5056683821046
서울 강남구 삼성동 26-17,CS2,편의점,"가정,생활 > 편의점 > GS25",,12296471,02-3443-5240,GS25 삼성한울점,http://place.map.kakao.com/12296471,서울 강남구 삼성로119길 37,127.04851178151266,37.515309613440266
서울 강남구 대치동 941-16,CS2,편의점,"가정,생활 > 편의점 > GS25",,27498660,02-552-0805,GS25 대치희망점,http://place.map.kakao.com/27498660,서울 강남구 삼성로 307,127.060294431968,37.4994681249411
서울 강남구 삼성동 123-4,CS2,편의점,"가정,생활 > 편의점 > GS25",,17056571,,GS25 삼성그린점,http://place.map.kakao.com/17056571,서울 강남구 삼성로107길 31,127.051558187758,37.5107852826981
서울 강남구 청담동 7-9,CS2,편의점,"가정,생활 > 편의점 > GS25",,16935361,02-517-3038,GS25 청담타운점,http://place.map.kakao.com/16935361,서울 강남구 삼성로145길 16,127.04694857871246,37.522555211466575
서울 강남구 청담동 15-5,CS2,편의점,"가정,생활 > 편의점 > GS25",,1544410970,080-999-5425,GS25 청담빌리지점,http://place.map.kakao.com/1544410970,서울 강남구 삼성로147길 34,127.046556091047,37.5208173325602
서울 강남구 대치동 916-11,CS2,편의점,"가정,생활 > 편의점 > GS25",,27498655,,GS25 대치에이스점,http://place.map.kakao.com/27498655,서울 강남구 삼성로71길 41,127.0555618275082,37.50121299116373
서울 강남구 대치동 976-7,CS2,편의점,"가정,생활 > 편의점 > GS25",,12296501,02-567-8751,GS25 대치은행점,http://place.map.kakao.com/12296501,서울 강남구 삼성로64길 35,127.063217632801,37.5006379045594
서울 강남구 삼성동 24-25,CS2,편의점,"가정,생활 > 편의점 > GS25",,932921847,,GS25 삼성센트럴점,http://place.map.kakao.com/932921847,서울 강남구 삼성로115길 16-1,127.05061748679341,37.5146383830448
서울 강남구 대치동 1029,CS2,편의점,"가정,생활 > 편의점 > GS25",,433589282,02-558-9890,GS25 대치SK타운점,http://place.map.kakao.com/433589282,서울 강남구 삼성로51길 25,127.05954951318456,37.49561940356368
서울 강남구 대치동 989-6,CS2,편의점,"가정,생활 > 편의점 > GS25",,898450359,080-999-5425,GS25 대치은마타운점,http://place.map.kakao.com/898450359,서울 강남구 삼성로58길 11,127.062229961115,37.4988039807008
서울 강남구 삼성동 121-23,CS2,편의점,"가정,생활 > 편의점 > GS25",,12296350,02-563-7212,GS25 삼성중앙점,http://place.map.kakao.com/12296350,서울 강남구 삼성로107길 9,127.053110411068,37.5113648417645
서울 강남구 개포동 189,CS2,편의점,"가정,생활 > 편의점",,1133921325,,GS25 개포자이점,http://place.map.kakao.com/1133921325,서울 강남구 삼성로 14,127.068450685202,37.4861549052345
서울 강남구 신사동 659-10,CS2,편의점,"가정,생활 > 편의점 > GS25",,17317628,080-999-5425,GS25 로데오점,http://place.map.kakao.com/17317628,서울 강남구 선릉로161길 31,127.0379396663455,37.52752657534465
서울 강남구 삼성동 35-20,CS2,편의점,"가정,생활 > 편의점 > GS25",,12296410,02-548-2664,GS25 삼성으뜸점,http://place.map.kakao.com/12296410,서울 강남구 선릉로116길 8,127.043827257764,37.5124750841594
서울 강남구 대치동 889-52,CS2,편의점,"가정,생활 > 편의점 > GS25",,12296487,,GS25 선릉로즈점,http://place.map.kakao.com/12296487,서울 강남구 선릉로90길 16,127.050635271899,37.5041290577786
서울 강남구 대치동 891-23,CS2,편의점,"가정,생활 > 편의점 > GS25",,12296494,,GS25 대치명문점,http://place.map.kakao.com/12296494,서울 강남구 선릉로90길 56,127.05388414677297,37.505189905742576
서울 강남구 대치동 936-28,CS2,편의점,"가정,생활 > 편의점 > GS25",,1984726358,,GS25 대치한티점,http://place.map.kakao.com/1984726358,서울 강남구 선릉로62길 7,127.05324976775445,37.49736495779092
서울 강남구 대치동 896-52,CS2,편의점,"가정,생활 > 편의점 > GS25",,10885536,,GS25 대치골드점,http://place.map.kakao.com/10885536,서울 강남구 선릉로86길 48,127.053670781264,37.5041529457677
서울 강남구 논현동 278-6,CS2,편의점,"가정,생활 > 편의점 > GS25",,1206372195,080-999-5425,GS25 논현성암점,http://place.map.kakao.com/1206372195,서울 강남구 선릉로 605,127.0433648444472,37.51086606119629
서울 강남구 논현동 254-22,CS2,편의점,"가정,생활 > 편의점 > GS25",,148516210,,GS25 논현보람점,http://place.map.kakao.com/148516210,서울 강남구 선릉로121길 15,127.041022824065,37.513672624832
서울 강남구 논현동 242-13,CS2,편의점,"가정,생활 > 편의점 > GS25",,248580013,080-999-5425,GS25 논현은선점,http://place.map.kakao.com/248580013,서울 강남구 선릉로127길 12,127.040693565653,37.5155576387417
서울 강남구 청담동 40-25,CS2,편의점,"가정,생활 > 편의점 > GS25",,1417201306,080-999-5425,GS25 청담영동점,http://place.map.kakao.com/1417201306,서울 강남구 선릉로 714,127.040974633807,37.518628161337
서울 강남구 청담동 21-9,CS2,편의점,"가정,생활 > 편의점 > GS25",,12296456,,GS25 청담중앙점,http://place.map.kakao.com/12296456,서울 강남구 선릉로148길 32,127.042181591302,37.5226317933828
서울 강남구 대치동 900-13,CS2,편의점,"가정,생활 > 편의점 > GS25",,1752984864,,GS25 대치타운점,http://place.map.kakao.com/1752984864,서울 강남구 선릉로76길 25,127.05254285406116,37.502023475717984
서울 강남구 청담동 83-9,CS2,편의점,"가정,생활 > 편의점 > GS25",,927744303,,GS25 청담센터점,http://place.map.kakao.com/927744303,서울 강남구 선릉로158길 9,127.04094338978,37.5256235569972
서울 강남구 대치동 920-8,CS2,편의점,"가정,생활 > 편의점 > GS25",,12296485,,GS25 대치제일점,http://place.map.kakao.com/12296485,서울 강남구 선릉로72길 20,127.052878719998,37.50039250528007
서울 강남구 대치동 897-33,CS2,편의점,"가정,생활 > 편의점 > GS25",,16083813,02-558-9373,GS25 대치선릉점,http://place.map.kakao.com/16083813,서울 강남구 선릉로86길 16,127.0509977039301,37.50323870846376
서울 강남구 역삼동 779,CS2,편의점,"가정,생활 > 편의점 > GS25",,12296460,,GS25 역삼타운점,http://place.map.kakao.com/12296460,서울 강남구 언주로69길 7,127.044745169808,37.4964296363216
서울 강남구 신사동 638-7,CS2,편의점,"가정,생활 > 편의점 > GS25",,12296468,,GS25 신사타운점,http://place.map.kakao.com/12296468,서울 강남구 언주로174길 17,127.03537198467937,37.528364402960726
서울 강남구 역삼동 711-6,CS2,편의점,"가정,생활 > 편의점 > GS25",,1929387960,080-999-5425,GS25 역삼자이점,http://place.map.kakao.com/1929387960,서울 강남구 언주로 408,127.044670071532,37.4994498380915
서울 강남구 논현동 275-5,CS2,편의점,"가정,생활 > 편의점 > GS25",,1520516558,02-517-3331,GS25 논현아크로점,http://place.map.kakao.com/1520516558,서울 강남구 언주로114길 9,127.038342517425,37.5100442801448
서울 강남구 논현동 63-19,CS2,편의점,"가정,생활 > 편의점 > GS25",,681929205,02-541-7654,GS25 강남나누리점,http://place.map.kakao.com/681929205,서울 강남구 언주로147길 10,127.033415583398,37.5199892545018
서울 강남구 역삼동 719-24,CS2,편의점,"가정,생활 > 편의점 > GS25",,1676801073,02-555-3953,GS25 역삼센트럴점,http://place.map.kakao.com/1676801073,서울 강남구 언주로85길 32,127.04057696434992,37.50075597167364
서울 강남구 논현동 246-3,CS2,편의점,"가정,생활 > 편의점 > GS25",,12296482,02-3446-9894,GS25 논현파라곤점,http://place.map.kakao.com/12296482,서울 강남구 언주로130길 18,127.03702729822676,37.51500652966133
서울 강남구 도곡동 91-5,CS2,편의점,"가정,생활 > 편의점 > GS25",,1143120202,,GS25 도곡래미안점,http://place.map.kakao.com/1143120202,서울 강남구 언주로 202,127.05064890703471,37.48915342210306
서울 강남구 역삼동 778-6,CS2,편의점,"가정,생활 > 편의점 > GS25",,1041565930,02-566-7670,GS25 역삼행복점,http://place.map.kakao.com/1041565930,서울 강남구 언주로67길 34,127.042935240687,37.4954139724428
서울 강남구 개포동 649,CS2,편의점,"가정,생활 > 편의점 > GS25",,12296528,02-529-3633,GS25 개포경남점,http://place.map.kakao.com/12296528,서울 강남구 언주로 110,127.053018081429,37.4831633815696
서울 강남구 신사동 629-12,CS2,편의점,"가정,생활 > 편의점 > GS25",,2112012194,,GS25 신사후레시점,http://place.map.kakao.com/2112012194,서울 강남구 언주로151길 11,127.032353109982,37.521963647626
서울 강남구 역삼동 706-20,CS2,편의점,"가정,생활 > 편의점 > GS25",,12296282,,GS25 역삼넥스빌점,http://place.map.kakao.com/12296282,서울 강남구 언주로86길 11,127.0443809361817,37.5019889818226
서울 강남구 역삼동 699-27,CS2,편의점,"가정,생활 > 편의점 > GS25",,2003505206,,GS25 강남상록회관점,http://place.map.kakao.com/2003505206,서울 강남구 언주로98길 25,127.04392119840107,37.504857054260896
서울 강남구 논현동 218-22,CS2,편의점,"가정,생활 > 편의점 > GS25",,12296507,,GS25 논현진실점,http://place.map.kakao.com/12296507,서울 강남구 언주로121길 8,127.03496710767995,37.5116896606473
서울 강남구 신사동 619-3,CS2,편의점,"가정,생활 > 편의점 > GS25",,1008002744,02-547-2599,GS25 강남신사점,http://place.map.kakao.com/1008002744,서울 강남구 언주로173길 13,127.032468875825,37.5280625001762
서울 강남구 대치동 968,CS2,편의점,"가정,생활 > 편의점 > GS25",,1641676425,,GS25 대치스카이점,http://place.map.kakao.com/1641676425,서울 강남구 역삼로 558,127.064257047432,37.504727909027
서울 강남구 역삼동 749-5,CS2,편의점,"가정,생활 > 편의점 > GS25",,283307143,080-999-5425,GS25 강남사랑점,http://place.map.kakao.com/283307143,서울 강남구 역삼로15길 20,127.03544386648818,37.49616429311888
서울 강남구 대치동 900,CS2,편의점,"가정,생활 > 편의점 > GS25",,17056611,080-999-5425,GS25 대치미래점,http://place.map.kakao.com/17056611,서울 강남구 역삼로63길 24,127.05195306305828,37.502821126584486
서울 강남구 역삼동 789-30,CS2,편의점,"가정,생활 > 편의점 > GS25",,12296275,02-564-9753,GS25 역삼2점,http://place.map.kakao.com/12296275,서울 강남구 역삼로14길 7,127.035520913678,37.4940937562932
서울 강남구 역삼동 732,CS2,편의점,"가정,생활 > 편의점 > GS25",,27498669,,GS25 역삼우리점,http://place.map.kakao.com/27498669,서울 강남구 역삼로33길 10,127.04177410986142,37.49785431454334
서울 강남구 역삼동 754-2,CS2,편의점,"가정,생활 > 편의점 > GS25",,12296276,080-999-5425,GS25 뉴역삼월드점,http://place.map.kakao.com/12296276,서울 강남구 역삼로52길 14,127.04811632182607,37.49836547521999
서울 강남구 역삼동 832-33,CS2,편의점,"가정,생활 > 편의점 > GS25",,20038194,02-2188-1224,GS25 역삼성우점,http://place.map.kakao.com/20038194,서울 강남구 역삼로4길 16,127.032023739935,37.4924116747248
서울 강남구 역삼동 752-23,CS2,편의점,"가정,생활 > 편의점 > GS25",,20038196,,GS25 역삼흑룡점,http://place.map.kakao.com/20038196,서울 강남구 역삼로11길 5,127.034254742398,37.4948221438079
서울 강남구 대치동 904-19,CS2,편의점,"가정,생활 > 편의점 > GS25",,12296478,,GS25 대치사랑점,http://place.map.kakao.com/12296478,서울 강남구 역삼로77길 7,127.05630729641,37.5029804113552
서울 강남구 역삼동 830-28,CS2,편의점,"가정,생활 > 편의점 > GS25",,1777752716,02-563-1104,GS25 역삼아워홈점,http://place.map.kakao.com/1777752716,서울 강남구 역삼로3길 10,127.031631006112,37.4942570430873
서울 강남구 역삼동 716-4,CS2,편의점,"가정,생활 > 편의점 > GS25",,1087365638,,GS25 개나리SK점,http://place.map.kakao.com/1087365638,서울 강남구 역삼로 315,127.050492652143,37.5005935725639
서울 강남구 역삼동 733-27,CS2,편의점,"가정,생활 > 편의점 > GS25",,25757567,,GS25 역삼대로점,http://place.map.kakao.com/25757567,서울 강남구 역삼로 213,127.04047067819,37.4966005672276
서울 강남구 역삼동 792-19,CS2,편의점,"가정,생활 > 편의점 > GS25",,17056567,02-538-5558,GS25 역삼명진점,http://place.map.kakao.com/17056567,서울 강남구 역삼로18길 22,127.03656998444,37.493441107121
서울 강남구 대치동 916-40,CS2,편의점,"가정,생활 > 편의점 > GS25",,12296502,,GS25 대치중앙점,http://place.map.kakao.com/12296502,서울 강남구 역삼로78길 26,127.057427494639,37.5007670020423
서울 강남구 일원동 663-7,CS2,편의점,"가정,생활 > 편의점 > GS25",,987837835,,GS25 일원대청점,http://place.map.kakao.com/987837835,서울 강남구 일원로3길 54,127.084234180752,37.4924040057551
서울 강남구 일원동 682,CS2,편의점,"가정,생활 > 편의점 > GS25",,12296457,,GS25 일원으뜸점,http://place.map.kakao.com/12296457,서울 강남구 일원로5길 6,127.08142576818601,37.49073370544435
서울 강남구 자곡동 596,CS2,편의점,"가정,생활 > 편의점 > GS25",,1712367747,080-999-5425,GS25 자곡라르고점,http://place.map.kakao.com/1712367747,서울 강남구 자곡로 201,127.10442437509973,37.47541198955466
서울 강남구 자곡동 611,CS2,편의점,"가정,생활 > 편의점 > GS25",,2060225701,,GS25 세곡래미안점,http://place.map.kakao.com/2060225701,서울 강남구 자곡로 101,127.09564563718216,37.472585745986734
서울 강남구 자곡동 651,CS2,편의점,"가정,생활 > 편의점 > GS25",,239698799,080-999-5425,GS25 강남유블레스점,http://place.map.kakao.com/239698799,서울 강남구 자곡로 180,127.10345762516106,37.47366217825435
서울 강남구 자곡동 649,CS2,편의점,"가정,생활 > 편의점 > GS25",,558960291,,GS25 강남에이스타워점,http://place.map.kakao.com/558960291,서울 강남구 자곡로 174-10,127.10334900590254,37.47277477861147
서울 강남구 논현동 141-7,CS2,편의점,"가정,생활 > 편의점 > GS25",,12296534,02-545-9328,GS25 논현영동점,http://place.map.kakao.com/12296534,서울 강남구 학동로2길 19,127.022942149026,37.509968986797
서울 강남구 논현동 77,CS2,편의점,"가정,생활 > 편의점 > GS25",,894075272,,GS25 논현77점,http://place.map.kakao.com/894075272,서울 강남구 학동로33길 46,127.032247219626,37.5177406752762
서울 강남구 논현동 88-5,CS2,편의점,"가정,생활 > 편의점 > GS25",,25662509,02-515-1347,GS25 학동제일점,http://place.map.kakao.com/25662509,서울 강남구 학동로33길 7,127.03254023143624,37.515228596969784
서울 강남구 논현동 215-3,CS2,편의점,"가정,생활 > 편의점 > GS25",,1282900508,,GS25 학동행복점,http://place.map.kakao.com/1282900508,서울 강남구 학동로30길 14,127.0319149786598,37.513182587672254
서울 강남구 논현동 159-11,CS2,편의점,"가정,생활 > 편의점 > GS25",,12296530,,GS25 논현우람점,http://place.map.kakao.com/12296530,서울 강남구 학동로6길 48,127.026163112811,37.509233097512
서울 강남구 삼성동 55,CS2,편의점,"가정,생활 > 편의점 > GS25",,12296286,02-541-3508,GS25 청담진흥점,http://place.map.kakao.com/12296286,서울 강남구 학동로88길 5,127.05283301055577,37.5189775464775
서울 강남구 청담동 133-6,CS2,편의점,"가정,생활 > 편의점 > GS25",,12296272,,GS25 청담삼익점,http://place.map.kakao.com/12296272,서울 강남구 학동로101길 7,127.05758777668,37.5209782534692
서울 강남구 논현동 220-18,CS2,편의점,"가정,생활 > 편의점 > GS25",,12296539,,GS25 논현동부점,http://place.map.kakao.com/12296539,서울 강남구 학동로30길 49,127.03322836985721,37.511059459526315
서울 강남구 청담동 77-76,CS2,편의점,"가정,생활 > 편의점 > GS25",,17056604,02-545-5638,GS25 S청담역점,http://place.map.kakao.com/17056604,서울 강남구 학동로 지하 508,127.05148356974766,37.51906463869022
서울 강남구 논현동 279-67,CS2,편의점,"가정,생활 > 편의점 > GS25",,17056632,02-511-6848,GS25 S학동역점,http://place.map.kakao.com/17056632,서울 강남구 학동로 지하 180,127.03177293127364,37.5142926628817
서울 강남구 논현동 279-67,CS2,편의점,"가정,생활 > 편의점 > GS25",,17056592,,GS25 S논현역점,http://place.map.kakao.com/17056592,서울 강남구 학동로 지하 102,127.02165763527358,37.511198199421855
서울 강남구 삼성동 111-44,CS2,편의점,"가정,생활 > 편의점 > GS25",,25757680,,GS25 S강남구청역점,http://place.map.kakao.com/25757680,서울 강남구 학동로 지하 346,127.04134035178977,37.51720805265924
서울 강남구 세곡동 579,CS2,편의점,"가정,생활 > 편의점 > GS25",,21570571,,GS25 보금자리점,http://place.map.kakao.com/21570571,서울 강남구 헌릉로571길 20,127.101898818587,37.4671113860529
서울 강남구 세곡동 615,CS2,편의점,"가정,생활 > 편의점 > GS25",,1586941757,02-2226-4857,GS25 강남드림하이점,http://place.map.kakao.com/1586941757,서울 강남구 헌릉로569길 21-30,127.10068936124122,37.46632133526589
서울 강남구 세곡동 525,CS2,편의점,"가정,생활 > 편의점 > GS25",,17077556,02-451-7964,GS25 세곡리엔점,http://place.map.kakao.com/17077556,서울 강남구 헌릉로590길 63,127.10224697170892,37.460463424059554
서울 강남구 율현동 101-13,CS2,편의점,"가정,생활 > 편의점 > GS25",,20038258,,GS25 율현은하점,http://place.map.kakao.com/20038258,서울 강남구 헌릉로745길 37,127.118759871885,37.46997347086971
서울 강남구 신사동 547-10,CS2,편의점,"가정,생활 > 편의점 > GS25",,265237576,080-999-5425,GS25 가로수길점,http://place.map.kakao.com/265237576,서울 강남구 가로수길 70-3,127.023009395055,37.5226965507019
서울 강남구 신사동 537,CS2,편의점,"가정,생활 > 편의점 > GS25",,12296346,02-549-9049,GS25 신사제일점,http://place.map.kakao.com/12296346,서울 강남구 강남대로152길 40,127.022501179647,37.5179663828746
서울 강남구 신사동 535-7,CS2,편의점,"가정,생활 > 편의점 > GS25",,27498658,02-548-3080,GS25 신사성원점,http://place.map.kakao.com/27498658,서울 강남구 도산대로11길 34,127.02248812992676,37.51971343061653
서울 강남구 신사동 555-13,CS2,편의점,"가정,생활 > 편의점 > GS25",,12296469,080-999-5425,GS25 신사초롱점,http://place.map.kakao.com/12296469,서울 강남구 논현로153길 46,127.024461184754,37.5204888020806
서울 강남구 신사동 511-10,CS2,편의점,"가정,생활 > 편의점 > GS25",,12296409,02-3444-3650,GS25 신사센터점,http://place.map.kakao.com/12296409,서울 강남구 압구정로2길 58,127.021293143244,37.5181432034904
서울 강남구 신사동 526-9,CS2,편의점,"가정,생활 > 편의점 > GS25",,12296285,,GS25 신사강남점,http://place.map.kakao.com/12296285,서울 강남구 압구정로2길 9,127.019597161287,37.5210987872679
서울 강남구 신사동 565-19,CS2,편의점,"가정,생활 > 편의점 > GS25",,20038173,02-547-3080,GS25 압구정화인점,http://place.map.kakao.com/20038173,서울 강남구 논현로155길 8,127.027321389394,37.5219081555914
서울 강남구 논현동 5-19,CS2,편의점,"가정,생활 > 편의점 > GS25",,23614691,02-540-1833,GS25 강남영동점,http://place.map.kakao.com/23614691,서울 강남구 논현로149길 50,127.024496357121,37.5173496996032
서울 강남구 신사동 502-10,CS2,편의점,"가정,생활 > 편의점 > GS25",,12296470,02-543-1447,GS25 신사현대점,http://place.map.kakao.com/12296470,서울 강남구 강남대로152길 5,127.020012401949,37.5171811557932
서울 강남구 논현동 1-5,CS2,편의점,"가정,생활 > 편의점 > GS25",,17056593,02-547-1777,GS25 논현행운점,http://place.map.kakao.com/17056593,서울 강남구 강남대로150길 11,127.020817463202,37.5160241280599
서울 강남구 역삼동 818-14,CS2,편의점,"가정,생활 > 편의점 > GS25",,479660772,,GS25 강남YBM점,http://place.map.kakao.com/479660772,서울 강남구 강남대로94길 9,127.028163627528,37.4994369063913
서울 강남구 논현동 56,CS2,편의점,"가정,생활 > 편의점 > GS25",,12296488,02-515-1843,GS25 논현금옥점,http://place.map.kakao.com/12296488,서울 강남구 강남대로132길 48,127.024997125836,37.5129563002221
서울 강남구 역삼동 644-19,CS2,편의점,"가정,생활 > 편의점 > GS25",,178935375,,GS25 역삼쏘도베점,http://place.map.kakao.com/178935375,서울 강남구 강남대로94길 95,127.035075282013,37.50114696789636
서울 강남구 논현동 201-5,CS2,편의점,"가정,생활 > 편의점 > GS25",,27491418,,GS25 논현미래점,http://place.map.kakao.com/27491418,서울 강남구 강남대로112길 20,127.026093971089,37.5055570125259
서울 강남구 신사동 537,CS2,편의점,"가정,생활 > 편의점 > GS25",,12296346,02-549-9049,GS25 신사제일점,http://place.map.kakao.com/12296346,서울 강남구 강남대로152길 40,127.022501179647,37.5179663828746
서울 강남구 논현동 51,CS2,편의점,"가정,생활 > 편의점 > GS25",,8583229,02-3442-7840,GS25 논현삼익점,http://place.map.kakao.com/8583229,서울 강남구 강남대로132길 10,127.02190222940504,37.51217033798519
서울 강남구 역삼동 618-3,CS2,편의점,"가정,생활 > 편의점 > GS25",,1284614872,,GS25 강남아트점,http://place.map.kakao.com/1284614872,서울 강남구 강남대로102길 40,127.0283664324138,37.50342020485653
서울 강남구 논현동 143-26,CS2,편의점,"가정,생활 > 편의점 > GS25",,1063485116,,GS25 논현대지본점,http://place.map.kakao.com/1063485116,서울 강남구 강남대로124길 5,127.023222315838,37.5088949344898
서울 강남구 논현동 147,CS2,편의점,"가정,생활 > 편의점 > GS25",,26540934,,GS25 논현목련점,http://place.map.kakao.com/26540934,서울 강남구 강남대로124길 60,127.02672681432396,37.51048356568698
서울 강남구 역삼동 620-9,CS2,편의점,"가정,생활 > 편의점 > GS25",,479356065,02-557-1869,GS25 강남시티힐점,http://place.map.kakao.com/479356065,서울 강남구 강남대로98길 17,127.027960632182,37.5009506448066
서울 강남구 신사동 502-10,CS2,편의점,"가정,생활 > 편의점 > GS25",,12296470,02-543-1447,GS25 신사현대점,http://place.map.kakao.com/12296470,서울 강남구 강남대로152길 5,127.020012401949,37.5171811557932
서울 강남구 역삼동 824-11,CS2,편의점,"가정,생활 > 편의점 > GS25",,25757572,02-538-1248,GS25 역삼효성점,http://place.map.kakao.com/25757572,서울 강남구 강남대로84길 23,127.030293318503,37.4972054877432
서울 강남구 도곡동 949-2,CS2,편의점,"가정,생활 > 편의점 > GS25",,12296548,02-574-6151,GS25 도곡푸른점,http://place.map.kakao.com/12296548,서울 강남구 강남대로 272,127.032903659618,37.4876469046843
서울 강남구 논현동 16-48,CS2,편의점,"가정,생활 > 편의점 > GS25",,8562286,,GS25 학동공원점,http://place.map.kakao.com/8562286,서울 강남구 강남대로146길 27,127.02243023796946,37.515262484662976
서울 강남구 논현동 13-16,CS2,편의점,"가정,생활 > 편의점 > GS25",,797625249,,GS25 논현스카이점,http://place.map.kakao.com/797625249,서울 강남구 도산대로8길 15,127.022396520931,37.5159877990544
서울 강남구 신사동 588,CS2,편의점,"가정,생활 > 편의점 > GS25",,20038172,,GS25 압구정신사점,http://place.map.kakao.com/20038172,서울 강남구 도산대로33길 8,127.030226098835,37.5212118737863
서울 강남구 청담동 93-3,CS2,편의점,"가정,생활 > 편의점 > GS25",,27498654,02-515-3276,GS25 청담미래점,http://place.map.kakao.com/27498654,서울 강남구 도산대로61길 10,127.043010753625,37.5245416195418
서울 강남구 청담동 125,CS2,편의점,"가정,생활 > 편의점 > GS25",,12296396,,GS25 청담칼릭스점,http://place.map.kakao.com/12296396,서울 강남구 도산대로89길 12,127.0507932344315,37.5252773508053
서울 강남구 신사동 666-20,CS2,편의점,"가정,생활 > 편의점 > GS25",,12296344,,GS25 신사진주점,http://place.map.kakao.com/12296344,서울 강남구 도산대로53길 10,127.038471707985,37.5237539072219
서울 강남구 청담동 98,CS2,편의점,"가정,생활 > 편의점 > GS25",,19661857,,GS25 청담여신점,http://place.map.kakao.com/19661857,서울 강남구 도산대로75길 8,127.046178447846,37.5247818920911
서울 강남구 신사동 535-7,CS2,편의점,"가정,생활 > 편의점 > GS25",,27498658,02-548-3080,GS25 신사성원점,http://place.map.kakao.com/27498658,서울 강남구 도산대로11길 34,127.02248812992676,37.51971343061653
서울 강남구 청담동 49-5,CS2,편의점,"가정,생활 > 편의점 > GS25",,21195102,,GS25 청담사거리점,http://place.map.kakao.com/21195102,서울 강남구 도산대로 510,127.04896657090327,37.524081591259005
서울 강남구 청담동 88-3,CS2,편의점,"가정,생활 > 편의점 > GS25",,812608825,080-999-5425,GS25 청담88점,http://place.map.kakao.com/812608825,서울 강남구 도산대로55길 22,127.04064437775614,37.52497223568791
서울 강남구 논현동 99-19,CS2,편의점,"가정,생활 > 편의점 > GS25",,10883273,02-516-0245,GS25 논현동현점,http://place.map.kakao.com/10883273,서울 강남구 도산대로50길 27,127.037714422705,37.5205609979483
서울 강남구 논현동 33,CS2,편의점,"가정,생활 > 편의점 > GS25",,27498641,02-545-6254,GS25 논현스타점,http://place.map.kakao.com/27498641,서울 강남구 도산대로26길 23,127.028215718145,37.5176516068111
서울 강남구 청담동 125-17,CS2,편의점,"가정,생활 > 편의점 > GS25",,497893982,,GS25 R서울강남4점,http://place.map.kakao.com/497893982,서울 강남구 도산대로 529,127.05129991829759,37.525089723356565
서울 강남구 수서동 713,CS2,편의점,"가정,생활 > 편의점 > GS25",,27603072,,GS25 수서벤처점,http://place.map.kakao.com/27603072,서울 강남구 밤고개로1길 10,127.102062655453,37.4878416642093
서울 강남구 자곡동 687,CS2,편의점,"가정,생활 > 편의점 > GS25",,27498674,,GS25 강남세곡점,http://place.map.kakao.com/27498674,서울 강남구 밤고개로21길 25,127.10920216763989,37.47476795380141
서울 강남구 삼성동 49-4,CS2,편의점,"가정,생활 > 편의점 > GS25",,25757500,02-518-6143,GS25 삼성봉은점,http://place.map.kakao.com/25757500,서울 강남구 봉은사로71길 6,127.050202180028,37.5126707676678
서울 강남구 삼성동 77-23,CS2,편의점,"가정,생활 > 편의점 > GS25",,27475427,,GS25 봉은사점,http://place.map.kakao.com/27475427,서울 강남구 봉은사로 535,127.05868878995132,37.51419495856575
서울 강남구 역삼동 666-15,CS2,편의점,"가정,생활 > 편의점 > GS25",,88127185,,GS25 역삼홍인점,http://place.map.kakao.com/88127185,서울 강남구 봉은사로30길 43,127.03619097465885,37.50475786191425
서울 강남구 논현동 199-24,CS2,편의점,"가정,생활 > 편의점 > GS25",,27498668,,GS25 논현드림점,http://place.map.kakao.com/27498668,서울 강남구 봉은사로1길 9,127.02487697331,37.5053662619724
서울 강남구 역삼동 812,CS2,편의점,"가정,생활 > 편의점 > GS25",,20037779,,GS25 강남태양점,http://place.map.kakao.com/20037779,서울 강남구 봉은사로4길 29,127.026862108996,37.5029655486786
서울 강남구 논현동 232-5,CS2,편의점,"가정,생활 > 편의점 > GS25",,12296497,,GS25 논현동우점,http://place.map.kakao.com/12296497,서울 강남구 봉은사로37길 13,127.036491721939,37.5092195461977
서울 강남구 삼성동 159,CS2,편의점,"가정,생활 > 편의점 > GS25",,1052414806,080-999-5425,GS25 코엑스호텔점,http://place.map.kakao.com/1052414806,서울 강남구 봉은사로 524,127.057251239187,37.5128324451279
서울 강남구 역삼동 608-12,CS2,편의점,"가정,생활 > 편의점 > GS25",,12006362,02-558-0717,GS25 역삼소망점,http://place.map.kakao.com/12006362,서울 강남구 봉은사로26길 26,127.033694121761,37.5054794047338
서울 강남구 역삼동 658,CS2,편의점,"가정,생활 > 편의점 > GS25",,12296465,02-566-9328,GS25 역삼영동점,http://place.map.kakao.com/12296465,서울 강남구 봉은사로30길 11,127.035486218019,37.5068015555161
서울 강남구 삼성동 145-29,CS2,편의점,"가정,생활 > 편의점 > GS25",,27498652,02-552-1319,GS25 삼성제일점,http://place.map.kakao.com/27498652,서울 강남구 봉은사로82길 16,127.05507332099943,37.51205591411848
서울 강남구 역삼동 605-17,CS2,편의점,"가정,생활 > 편의점 > GS25",,114695899,080-999-5425,GS25 강남헤븐리치점,http://place.map.kakao.com/114695899,서울 강남구 봉은사로 170,127.032663188949,37.506672625125
서울 강남구 역삼동 668-21,CS2,편의점,"가정,생활 > 편의점 > GS25",,12296464,,GS25 역삼지에스점,http://place.map.kakao.com/12296464,서울 강남구 봉은사로30길 78,127.03704485729,37.502472647214
서울 강남구 논현동 176-11,CS2,편의점,"가정,생활 > 편의점 > GS25",,696185412,02-518-9869,GS25 논현정노점,http://place.map.kakao.com/696185412,서울 강남구 봉은사로25길 37,127.031741510347,37.5095416758275
서울 강남구 논현동 188,CS2,편의점,"가정,생활 > 편의점 > GS25",,12296533,,GS25 논현마루점,http://place.map.kakao.com/12296533,서울 강남구 봉은사로11길 26,127.02855234225642,37.5075305460608
서울 강남구 논현동 195-1,CS2,편의점,"가정,생활 > 편의점 > GS25",,21417245,080-999-5425,GS25 논현이편한점,http://place.map.kakao.com/21417245,서울 강남구 봉은사로11길 12,127.0286991310271,37.50689710397848
서울 강남구 압구정동 426,CS2,편의점,"가정,생활 > 편의점 > GS25",,12296467,,GS25 신현대점,http://place.map.kakao.com/12296467,서울 강남구 압구정로 151,127.024118826247,37.5252353542319
서울 강남구 신사동 584-1,CS2,편의점,"가정,생활 > 편의점 > GS25",,334033862,,GS25 압구정유림점,http://place.map.kakao.com/334033862,서울 강남구 압구정로28길 49,127.027720143867,37.5234289551194
서울 강남구 신사동 511-10,CS2,편의점,"가정,생활 > 편의점 > GS25",,12296409,02-3444-3650,GS25 신사센터점,http://place.map.kakao.com/12296409,서울 강남구 압구정로2길 58,127.021293143244,37.5181432034904
서울 강남구 신사동 662-18,CS2,편의점,"가정,생활 > 편의점 > GS25",,1741992409,070-4007-3303,GS25 강남로데오점,http://place.map.kakao.com/1741992409,서울 강남구 압구정로54길 16,127.03932400789188,37.52679540996708
서울 강남구 신사동 636-10,CS2,편의점,"가정,생활 > 편의점 > GS25",,1076404588,080-999-5425,GS25 신사자생점,http://place.map.kakao.com/1076404588,서울 강남구 압구정로42길 24-10,127.03432170806855,37.527474523060405
서울 강남구 신사동 526-9,CS2,편의점,"가정,생활 > 편의점 > GS25",,12296285,,GS25 신사강남점,http://place.map.kakao.com/12296285,서울 강남구 압구정로2길 9,127.019597161287,37.5210987872679
서울 강남구 압구정동 481,CS2,편의점,"가정,생활 > 편의점 > GS25",,470894067,,GS25 압구정사랑점,http://place.map.kakao.com/470894067,서울 강남구 압구정로 309,127.03581437108,37.5308113898595
서울 강남구 압구정동 369-1,CS2,편의점,"가정,생활 > 편의점 > GS25",,12296406,,GS25 압구정현대점,http://place.map.kakao.com/12296406,서울 강남구 압구정로29길 71,127.029149147583,37.5327557817102
서울 강남구 신사동 601,CS2,편의점,"가정,생활 > 편의점 > GS25",,277089897,,GS25 압구정CGV점,http://place.map.kakao.com/277089897,서울 강남구 압구정로32길 49,127.0298879933734,37.52436907296955
서울 강남구 신사동 613-9,CS2,편의점,"가정,생활 > 편의점 > GS25",,1560070208,02-547-2056,GS25 압구정신구점,http://place.map.kakao.com/1560070208,서울 강남구 압구정로34길 24,127.030594815969,37.5266069814372
서울 강남구 신사동 579,CS2,편의점,"가정,생활 > 편의점 > GS25",,12296284,080-999-5425,GS25 압구정시티점,http://place.map.kakao.com/12296284,서울 강남구 압구정로 156,127.02674476314904,37.52591594643988
서울 강남구 신사동 577-12,CS2,편의점,"가정,생활 > 편의점 > GS25",,12296408,02-549-3196,GS25 압구정역점,http://place.map.kakao.com/12296408,서울 강남구 압구정로28길 18,127.027580615872,37.5254580451008
서울 강남구 신사동 597-2,CS2,편의점,"가정,생활 > 편의점 > GS25",,17056609,02-514-2550,GS25 신사증권점,http://place.map.kakao.com/17056609,서울 강남구 압구정로30길 65,127.029208722242,37.5230537793076
서울 강남구 압구정동 369-1,CS2,편의점,"가정,생활 > 편의점 > GS25",,16620883,02-514-3657,GS25 압구정타운점,http://place.map.kakao.com/16620883,서울 강남구 압구정로29길 71,127.02678886786572,37.53219952199615
서울 강남구 일원동 680-4,CS2,편의점,"가정,생활 > 편의점 > GS25",,12296334,,GS25 일원센타점,http://place.map.kakao.com/12296334,서울 강남구 양재대로33길 6,127.083263524227,37.4899647662783
서울 강남구 일원동 644-11,CS2,편의점,"가정,생활 > 편의점 > GS25",,12296273,,GS25 일원스타점,http://place.map.kakao.com/12296273,서울 강남구 양재대로55길 5,127.08782304018975,37.49123278618984
서울 강남구 삼성동 168,CS2,편의점,"가정,생활 > 편의점 > GS25",,9607014,,GS25 삼성역점,http://place.map.kakao.com/9607014,서울 강남구 영동대로 510,127.062791686791,37.5105744162765
서울 강남구 청담동 131-20,CS2,편의점,"가정,생활 > 편의점 > GS25",,16085019,,GS25 청담자이점,http://place.map.kakao.com/16085019,서울 강남구 영동대로138길 9,127.05643304655882,37.522796133220226
서울 강남구 일원동 743,CS2,편의점,"가정,생활 > 편의점 > GS25",,1936408567,080-999-5425,GS25 개포늘푸른점,http://place.map.kakao.com/1936408567,서울 강남구 영동대로 22,127.07559382212979,37.49010237074975
서울 강남구 대치동 950,CS2,편의점,"가정,생활 > 편의점 > GS25",,12296477,,GS25 대치대명점,http://place.map.kakao.com/12296477,서울 강남구 영동대로85길 17,127.06230344696935,37.50694452708561
서울 강남구 청담동 68,CS2,편의점,"가정,생활 > 편의점 > GS25",,55560569,,GS25 청담골프존점,http://place.map.kakao.com/55560569,서울 강남구 영동대로141길 5,127.054272639172,37.5231566457239
서울 강남구 대치동 992-4,CS2,편의점,"가정,생활 > 편의점 > GS25",,12296353,,GS25 대치은마점,http://place.map.kakao.com/12296353,서울 강남구 영동대로57길 16,127.066157442324,37.5000200067106
서울 강남구 대치동 994-12,CS2,편의점,"가정,생활 > 편의점 > GS25",,12296476,,GS25 대치학여울점,http://place.map.kakao.com/12296476,서울 강남구 영동대로 213,127.06865245395716,37.49782733620329
서울 강남구 일원동 743,CS2,편의점,"가정,생활 > 편의점 > GS25",,2092703872,080-999-5425,GS25 디에이치자이점,http://place.map.kakao.com/2092703872,서울 강남구 영동대로 22,127.0736581034462,37.49137581582988
서울 강남구 대치동 948,CS2,편의점,"가정,생활 > 편의점 > GS25",,1759377241,,GS25 대치오토웨이점,http://place.map.kakao.com/1759377241,서울 강남구 영동대로 417,127.06369288979,37.5062887554599
서울 강남구 대치동 1002,CS2,편의점,"가정,생활 > 편의점 > GS25",,16560690,02-3484-7736,GS25 KT&G타워점,http://place.map.kakao.com/16560690,서울 강남구 영동대로 416,127.065203911703,37.5063095551805
서울 강남구 삼성동 143-28,CS2,편의점,"가정,생활 > 편의점 > GS25",,8000742,,GS25 강남동원점,http://place.map.kakao.com/8000742,서울 강남구 테헤란로77길 7,127.054563985628,37.5069132164195
서울 강남구 역삼동 678-19,CS2,편의점,"가정,생활 > 편의점 > GS25",,26820270,02-561-8786,GS25 역삼본점,http://place.map.kakao.com/26820270,서울 강남구 테헤란로29길 10,127.038867839492,37.5023134844679
서울 강남구 역삼동 677-25,CS2,편의점,"가정,생활 > 편의점 > GS25",,1035363644,080-999-5425,GS25 DXLAB점,http://place.map.kakao.com/1035363644,서울 강남구 테헤란로 223,127.04069093763857,37.502382247994106
서울 강남구 역삼동 825-1,CS2,편의점,"가정,생활 > 편의점 > GS25",,27498643,02-555-3047,GS25 강남본점,http://place.map.kakao.com/27498643,서울 강남구 테헤란로2길 8,127.028764582323,37.4976707892101
서울 강남구 삼성동 159-8,CS2,편의점,"가정,생활 > 편의점 > GS25",,1228851575,,GS25 파르나스타워점,http://place.map.kakao.com/1228851575,서울 강남구 테헤란로 521,127.061148477529,37.5094508247885
서울 강남구 삼성동 140-35,CS2,편의점,"가정,생활 > 편의점 > GS25",,25757501,,GS25 삼성승리점,http://place.map.kakao.com/25757501,서울 강남구 테헤란로63길 17,127.05005773976524,37.50640344112629
서울 강남구 대치동 1000-10,CS2,편의점,"가정,생활 > 편의점 > GS25",,1974363597,010-3284-5493,GS25 삼성메디슨점,http://place.map.kakao.com/1974363597,서울 강남구 테헤란로104길 31,127.065810951602,37.5072534717131
서울 강남구 역삼동 723,CS2,편의점,"가정,생활 > 편의점 > GS25",,12296338,,GS25 역삼혜성점,http://place.map.kakao.com/12296338,서울 강남구 테헤란로34길 17,127.040640133035,37.5004568159828
서울 강남구 역삼동 696-10,CS2,편의점,"가정,생활 > 편의점 > GS25",,12296463,02-552-1066,GS25 역삼사랑점,http://place.map.kakao.com/12296463,서울 강남구 테헤란로55길 27,127.046583053396,37.5059579639464
서울 강남구 역삼동 826-37,CS2,편의점,"가정,생활 > 편의점 > GS25",,16905013,080-855-5525,GS25 역삼태극점,http://place.map.kakao.com/16905013,서울 강남구 테헤란로4길 46,127.03073693130702,37.495222257473024
서울 강남구 삼성동 157-10,CS2,편의점,"가정,생활 > 편의점 > GS25",,12296287,02-539-5155,GS25 삼성터미널점,http://place.map.kakao.com/12296287,서울 강남구 테헤란로81길 26,127.0567685463076,37.508724999212134
서울 강남구 역삼동 826-40,CS2,편의점,"가정,생활 > 편의점 > GS25",,12296335,02-554-8381,GS25 강남쌍용점,http://place.map.kakao.com/12296335,서울 강남구 테헤란로4길 46,127.02996136600882,37.495672960107285
서울 강남구 역삼동 640-13,CS2,편의점,"가정,생활 > 편의점 > GS25",,12296466,,GS25 역삼기쁨점,http://place.map.kakao.com/12296466,서울 강남구 테헤란로25길 39,127.03479570861724,37.503071598878776
서울 강남구 삼성동 159,CS2,편의점,"가정,생활 > 편의점 > GS25",,12296349,02-553-7793,GS25 오크우드점,http://place.map.kakao.com/12296349,서울 강남구 테헤란로87길 46,127.058159228976,37.5110200821345
서울 강남구 역삼동 718-16,CS2,편의점,"가정,생활 > 편의점 > GS25",,27603078,,GS25 지에스사랑점,http://place.map.kakao.com/27603078,서울 강남구 테헤란로28길 3-10,127.039486881649,37.5009689784835
서울 강남구 도곡동 411-16,CS2,편의점,"가정,생활 > 편의점 > GS25",,12296352,02-578-9424,GS25 도곡점,http://place.map.kakao.com/12296352,서울 강남구 남부순환로 2730,127.044698095656,37.4857509142431
서울 강남구 도곡동 954,CS2,편의점,"가정,생활 > 편의점 > GS25",,27498661,,GS25 도곡양재점,http://place.map.kakao.com/27498661,서울 강남구 남부순환로351길 14,127.03454796020712,37.48573089204608
서울 강남구 도곡동 895-11,CS2,편의점,"가정,생활 > 편의점 > GS25",,18319006,02-577-8083,GS25 도곡럭키본점,http://place.map.kakao.com/18319006,서울 강남구 남부순환로365길 56,127.040231356345,37.4889456920317
서울 강남구 대치동 622,CS2,편의점,"가정,생활 > 편의점 > GS25",,27603077,,GS25 대치래미안점,http://place.map.kakao.com/27603077,서울 강남구 남부순환로 2927,127.06036910803071,37.49389536158608
서울 강남구 도곡동 959-26,CS2,편의점,"가정,생활 > 편의점 > GS25",,2007289253,,GS25 도곡센터점,http://place.map.kakao.com/2007289253,서울 강남구 남부순환로359길 6,127.037050052842,37.4855192979748
서울 강남구 대치동 500,CS2,편의점,"가정,생활 > 편의점 > GS25",,1581314922,,GS25 도곡역점,http://place.map.kakao.com/1581314922,서울 강남구 남부순환로 2912,127.056302763269,37.4909177387812
서울 강남구 도곡동 467-12,CS2,편의점,"가정,생활 > 편의점 > GS25",,305269886,02-575-5023,GS25 도곡타워점,http://place.map.kakao.com/305269886,서울 강남구 남부순환로 2806,127.05302469831364,37.48932627419512
서울 강남구 수서동 713,CS2,편의점,"가정,생활 > 편의점 > GS25",,27603072,,GS25 수서벤처점,http://place.map.kakao.com/27603072,서울 강남구 밤고개로1길 10,127.102062655453,37.4878416642093
서울 강남구 논현동 199-24,CS2,편의점,"가정,생활 > 편의점 > GS25",,27498668,,GS25 논현드림점,http://place.map.kakao.com/27498668,서울 강남구 봉은사로1길 9,127.02487697331,37.5053662619724
서울 강남구 역삼동 823-8,CS2,편의점,"가정,생활 > 편의점 > GS25",,17056606,02-563-8887,GS25 강남태강점,http://place.map.kakao.com/17056606,서울 강남구 테헤란로10길 14,127.032379061242,37.4982428939028
서울 강남구 일원동 739,CS2,편의점,"가정,생활 > 편의점 > GS25",,184687641,,GS25 서울로봇고점,http://place.map.kakao.com/184687641,서울 강남구 광평로10길 50,127.08338593471206,37.48106992807757
서울 강남구 청담동 133-6,CS2,편의점,"가정,생활 > 편의점 > GS25",,12296272,,GS25 청담삼익점,http://place.map.kakao.com/12296272,서울 강남구 학동로101길 7,127.05758777668,37.5209782534692
서울 강남구 역삼동 618-3,CS2,편의점,"가정,생활 > 편의점 > GS25",,1284614872,,GS25 강남아트점,http://place.map.kakao.com/1284614872,서울 강남구 강남대로102길 40,127.0283664324138,37.50342020485653
서울 강남구 역삼동 660-33,CS2,편의점,"가정,생활 > 편의점 > GS25",,12296404,02-562-9698,GS25 역삼충현점,http://place.map.kakao.com/12296404,서울 강남구 논현로102길 33,127.037770315825,37.505770097414
서울 강남구 삼성동 169-25,CS2,편의점,"가정,생활 > 편의점 > GS25",,670798508,080-999-5425,GS25 뉴삼성아트점,http://place.map.kakao.com/670798508,서울 강남구 테헤란로103길 8-10,127.06513709871832,37.51011723797893
서울 강남구 대치동 1000-10,CS2,편의점,"가정,생활 > 편의점 > GS25",,1974363597,010-3284-5493,GS25 삼성메디슨점,http://place.map.kakao.com/1974363597,서울 강남구 테헤란로104길 31,127.065810951602,37.5072534717131
서울 강남구 삼성동 123-4,CS2,편의점,"가정,생활 > 편의점 > GS25",,17056571,,GS25 삼성그린점,http://place.map.kakao.com/17056571,서울 강남구 삼성로107길 31,127.051558187758,37.5107852826981
서울 강남구 삼성동 121-23,CS2,편의점,"가정,생활 > 편의점 > GS25",,12296350,02-563-7212,GS25 삼성중앙점,http://place.map.kakao.com/12296350,서울 강남구 삼성로107길 9,127.053110411068,37.5113648417645
서울 강남구 대치동 997-9,CS2,편의점,"가정,생활 > 편의점 > GS25",,12296500,02-557-9979,GS25 대치삼호점,http://place.map.kakao.com/12296500,서울 강남구 테헤란로108길 11,127.066151553807,37.5087273252286
서울 강남구 역삼동 688-1,CS2,편의점,"가정,생활 > 편의점 > GS25",,12296340,,GS25 역삼제일점,http://place.map.kakao.com/12296340,서울 강남구 언주로108길 6,127.040105784884,37.5078632632532
서울 강남구 신사동 535-7,CS2,편의점,"가정,생활 > 편의점 > GS25",,27498658,02-548-3080,GS25 신사성원점,http://place.map.kakao.com/27498658,서울 강남구 도산대로11길 34,127.02248812992676,37.51971343061653
서울 강남구 논현동 188,CS2,편의점,"가정,생활 > 편의점 > GS25",,12296533,,GS25 논현마루점,http://place.map.kakao.com/12296533,서울 강남구 봉은사로11길 26,127.02855234225642,37.5075305460608
서울 강남구 논현동 195-1,CS2,편의점,"가정,생활 > 편의점 > GS25",,21417245,080-999-5425,GS25 논현이편한점,http://place.map.kakao.com/21417245,서울 강남구 봉은사로11길 12,127.0286991310271,37.50689710397848
서울 강남구 역삼동 752-23,CS2,편의점,"가정,생활 > 편의점 > GS25",,20038196,,GS25 역삼흑룡점,http://place.map.kakao.com/20038196,서울 강남구 역삼로11길 5,127.034254742398,37.4948221438079
서울 강남구 자곡동 347-5,CS2,편의점,"가정,생활 > 편의점 > GS25",,1041128381,,GS25 수서디아크리온점,http://place.map.kakao.com/1041128381,서울 강남구 자곡로11길 11,127.107903082581,37.4770414929407
서울 강남구 논현동 193-39,CS2,편의점,"가정,생활 > 편의점 > GS25",,1729559034,080-999-5425,GS25 언주제일점,http://place.map.kakao.com/1729559034,서울 강남구 논현로111길 14,127.03236955308671,37.507652999386444
서울 강남구 삼성동 51-3,CS2,편의점,"가정,생활 > 편의점 > GS25",,2126264503,080-999-5425,GS25 삼성본점,http://place.map.kakao.com/2126264503,서울 강남구 삼성로111길 7,127.05255072642868,37.51325449778041
서울 강남구 논현동 201-5,CS2,편의점,"가정,생활 > 편의점 > GS25",,27491418,,GS25 논현미래점,http://place.map.kakao.com/27491418,서울 강남구 강남대로112길 20,127.026093971089,37.5055570125259
서울 강남구 논현동 229-26,CS2,편의점,"가정,생활 > 편의점 > GS25",,12296490,02-2685-8715,GS25 논현한영점,http://place.map.kakao.com/12296490,서울 강남구 논현로114길 11,127.034297312715,37.5087805134374
서울 강남구 논현동 275-5,CS2,편의점,"가정,생활 > 편의점 > GS25",,1520516558,02-517-3331,GS25 논현아크로점,http://place.map.kakao.com/1520516558,서울 강남구 언주로114길 9,127.038342517425,37.5100442801448
서울 강남구 논현동 170-2,CS2,편의점,"가정,생활 > 편의점 > GS25",,23251840,02-542-7402,GS25 논현평화점,http://place.map.kakao.com/23251840,서울 강남구 논현로115길 69,127.027501929448,37.5083353926526
서울 강남구 삼성동 24-25,CS2,편의점,"가정,생활 > 편의점 > GS25",,932921847,,GS25 삼성센트럴점,http://place.map.kakao.com/932921847,서울 강남구 삼성로115길 16-1,127.05061748679341,37.5146383830448
서울 강남구 일원동 620-10,CS2,편의점,"가정,생활 > 편의점 > GS25",,420443356,080-999-5425,GS25 강남중동고점,http://place.map.kakao.com/420443356,서울 강남구 개포로116길 19,127.081850041134,37.4930255743981
서울 강남구 삼성동 35-20,CS2,편의점,"가정,생활 > 편의점 > GS25",,12296410,02-548-2664,GS25 삼성으뜸점,http://place.map.kakao.com/12296410,서울 강남구 선릉로116길 8,127.043827257764,37.5124750841594
서울 강남구 삼성동 26-17,CS2,편의점,"가정,생활 > 편의점 > GS25",,12296471,02-3443-5240,GS25 삼성한울점,http://place.map.kakao.com/12296471,서울 강남구 삼성로119길 37,127.04851178151266,37.515309613440266
서울 강남구 개포동 1196-6,CS2,편의점,"가정,생활 > 편의점 > GS25",,365704250,,GS25 개포타운점,http://place.map.kakao.com/365704250,서울 강남구 논현로12길 13,127.049313081137,37.4747351434208
서울 강남구 논현동 181,CS2,편의점,"가정,생활 > 편의점 > GS25",,543034478,,GS25 논현초교점,http://place.map.kakao.com/543034478,서울 강남구 강남대로120길 30,127.0259815388241,37.50747798019238
서울 강남구 삼성동 34-10,CS2,편의점,"가정,생활 > 편의점 > GS25",,16081748,02-540-7847,GS25 삼성언주점,http://place.map.kakao.com/16081748,서울 강남구 선릉로120길 8,127.043352946658,37.5137618929837
서울 강남구 논현동 254-22,CS2,편의점,"가정,생활 > 편의점 > GS25",,148516210,,GS25 논현보람점,http://place.map.kakao.com/148516210,서울 강남구 선릉로121길 15,127.041022824065,37.513672624832
서울 강남구 논현동 218-22,CS2,편의점,"가정,생활 > 편의점 > GS25",,12296507,,GS25 논현진실점,http://place.map.kakao.com/12296507,서울 강남구 언주로121길 8,127.03496710767995,37.5116896606473
서울 강남구 논현동 166-4,CS2,편의점,"가정,생활 > 편의점 > GS25",,27491016,02-516-1248,GS25 논현영동시장점,http://place.map.kakao.com/27491016,서울 강남구 강남대로122길 20,127.02462792392645,37.50809545853024
서울 강남구 논현동 133-32,CS2,편의점,"가정,생활 > 편의점 > GS25",,12296538,02-548-6625,GS25 논현사랑점,http://place.map.kakao.com/12296538,서울 강남구 논현로123길 40,127.028742469039,37.5107858299175
서울 강남구 논현동 143-26,CS2,편의점,"가정,생활 > 편의점 > GS25",,1063485116,,GS25 논현대지본점,http://place.map.kakao.com/1063485116,서울 강남구 강남대로124길 5,127.023222315838,37.5088949344898
서울 강남구 논현동 147,CS2,편의점,"가정,생활 > 편의점 > GS25",,26540934,,GS25 논현목련점,http://place.map.kakao.com/26540934,서울 강남구 강남대로124길 60,127.02672681432396,37.51048356568698
서울 강남구 논현동 159,CS2,편의점,"가정,생활 > 편의점 > GS25",,17189462,,GS25 논현타운점,http://place.map.kakao.com/17189462,서울 강남구 강남대로124길 36,127.025556907338,37.5093197266752
서울 강남구 논현동 242-13,CS2,편의점,"가정,생활 > 편의점 > GS25",,248580013,080-999-5425,GS25 논현은선점,http://place.map.kakao.com/248580013,서울 강남구 선릉로127길 12,127.040693565653,37.5155576387417
서울 강남구 역삼동 637-19,CS2,편의점,"가정,생활 > 편의점 > GS25",,12296343,02-555-6526,GS25 역삼덕원점,http://place.map.kakao.com/12296343,서울 강남구 테헤란로13길 16,127.032348471191,37.5007332833276
서울 강남구 역삼동 835-68,CS2,편의점,"가정,생활 > 편의점 > GS25",,25757570,02-538-3733,GS25 역삼하나점,http://place.map.kakao.com/25757570,서울 강남구 도곡로13길 19,127.035601750131,37.4928683623356
서울 강남구 논현동 246-3,CS2,편의점,"가정,생활 > 편의점 > GS25",,12296482,02-3446-9894,GS25 논현파라곤점,http://place.map.kakao.com/12296482,서울 강남구 언주로130길 18,127.03702729822676,37.51500652966133
서울 강남구 논현동 37-16,CS2,편의점,"가정,생활 > 편의점 > GS25",,12296481,02-541-6160,GS25 논현동국점,http://place.map.kakao.com/12296481,서울 강남구 논현로131길 6,127.029811707976,37.5146058225066
서울 강남구 논현동 57-9,CS2,편의점,"가정,생활 > 편의점 > GS25",,20037899,02-546-6196,GS25 논현하니점,http://place.map.kakao.com/20037899,서울 강남구 논현로131길 31,127.027788956431,37.5137557680028
서울 강남구 논현동 118,CS2,편의점,"가정,생활 > 편의점 > GS25",,1934392331,1644-5425,GS25 논현강남점,http://place.map.kakao.com/1934392331,서울 강남구 선릉로131길 25,127.038903819294,37.5171638301445
서울 강남구 논현동 56,CS2,편의점,"가정,생활 > 편의점 > GS25",,12296488,02-515-1843,GS25 논현금옥점,http://place.map.kakao.com/12296488,서울 강남구 강남대로132길 48,127.024997125836,37.5129563002221
서울 강남구 논현동 51,CS2,편의점,"가정,생활 > 편의점 > GS25",,8583229,02-3442-7840,GS25 논현삼익점,http://place.map.kakao.com/8583229,서울 강남구 강남대로132길 10,127.02190222940504,37.51217033798519
서울 강남구 청담동 131-20,CS2,편의점,"가정,생활 > 편의점 > GS25",,16085019,,GS25 청담자이점,http://place.map.kakao.com/16085019,서울 강남구 영동대로138길 9,127.05643304655882,37.522796133220226
서울 강남구 역삼동 789-30,CS2,편의점,"가정,생활 > 편의점 > GS25",,12296275,02-564-9753,GS25 역삼2점,http://place.map.kakao.com/12296275,서울 강남구 역삼로14길 7,127.035520913678,37.4940937562932
서울 강남구 청담동 68,CS2,편의점,"가정,생활 > 편의점 > GS25",,55560569,,GS25 청담골프존점,http://place.map.kakao.com/55560569,서울 강남구 영동대로141길 5,127.054272639172,37.5231566457239
서울 강남구 청담동 7-9,CS2,편의점,"가정,생활 > 편의점 > GS25",,16935361,02-517-3038,GS25 청담타운점,http://place.map.kakao.com/16935361,서울 강남구 삼성로145길 16,127.04694857871246,37.522555211466575
서울 강남구 논현동 16-48,CS2,편의점,"가정,생활 > 편의점 > GS25",,8562286,,GS25 학동공원점,http://place.map.kakao.com/8562286,서울 강남구 강남대로146길 27,127.02243023796946,37.515262484662976
서울 강남구 논현동 66-35,CS2,편의점,"가정,생활 > 편의점 > GS25",,12296480,02-514-0505,GS25 논현학동점,http://place.map.kakao.com/12296480,서울 강남구 논현로146길 11,127.02998961443,37.5182350199015
서울 강남구 청담동 15-5,CS2,편의점,"가정,생활 > 편의점 > GS25",,1544410970,080-999-5425,GS25 청담빌리지점,http://place.map.kakao.com/1544410970,서울 강남구 삼성로147길 34,127.046556091047,37.5208173325602
서울 강남구 논현동 63-19,CS2,편의점,"가정,생활 > 편의점 > GS25",,681929205,02-541-7654,GS25 강남나누리점,http://place.map.kakao.com/681929205,서울 강남구 언주로147길 10,127.033415583398,37.5199892545018
서울 강남구 청담동 21-9,CS2,편의점,"가정,생활 > 편의점 > GS25",,12296456,,GS25 청담중앙점,http://place.map.kakao.com/12296456,서울 강남구 선릉로148길 32,127.042181591302,37.5226317933828
서울 강남구 논현동 5-19,CS2,편의점,"가정,생활 > 편의점 > GS25",,23614691,02-540-1833,GS25 강남영동점,http://place.map.kakao.com/23614691,서울 강남구 논현로149길 50,127.024496357121,37.5173496996032
서울 강남구 개포동 1244-14,CS2,편의점,"가정,생활 > 편의점 > GS25",,42763246,02-572-0372,GS25 강남개포점,http://place.map.kakao.com/42763246,서울 강남구 개포로15길 10,127.045322802971,37.4792093528663
서울 강남구 역삼동 749-5,CS2,편의점,"가정,생활 > 편의점 > GS25",,283307143,080-999-5425,GS25 강남사랑점,http://place.map.kakao.com/283307143,서울 강남구 역삼로15길 20,127.03544386648818,37.49616429311888
서울 강남구 논현동 1-5,CS2,편의점,"가정,생활 > 편의점 > GS25",,17056593,02-547-1777,GS25 논현행운점,http://place.map.kakao.com/17056593,서울 강남구 강남대로150길 11,127.020817463202,37.5160241280599
서울 강남구 신사동 629-12,CS2,편의점,"가정,생활 > 편의점 > GS25",,2112012194,,GS25 신사후레시점,http://place.map.kakao.com/2112012194,서울 강남구 언주로151길 11,127.032353109982,37.521963647626
서울 강남구 신사동 537,CS2,편의점,"가정,생활 > 편의점 > GS25",,12296346,02-549-9049,GS25 신사제일점,http://place.map.kakao.com/12296346,서울 강남구 강남대로152길 40,127.022501179647,37.5179663828746
서울 강남구 신사동 502-10,CS2,편의점,"가정,생활 > 편의점 > GS25",,12296470,02-543-1447,GS25 신사현대점,http://place.map.kakao.com/12296470,서울 강남구 강남대로152길 5,127.020012401949,37.5171811557932
서울 강남구 신사동 555-13,CS2,편의점,"가정,생활 > 편의점 > GS25",,12296469,080-999-5425,GS25 신사초롱점,http://place.map.kakao.com/12296469,서울 강남구 논현로153길 46,127.024461184754,37.5204888020806
서울 강남구 신사동 565-19,CS2,편의점,"가정,생활 > 편의점 > GS25",,20038173,02-547-3080,GS25 압구정화인점,http://place.map.kakao.com/20038173,서울 강남구 논현로155길 8,127.027321389394,37.5219081555914
서울 강남구 청담동 83-9,CS2,편의점,"가정,생활 > 편의점 > GS25",,927744303,,GS25 청담센터점,http://place.map.kakao.com/927744303,서울 강남구 선릉로158길 9,127.04094338978,37.5256235569972
서울 강남구 역삼동 735-24,CS2,편의점,"가정,생활 > 편의점 > GS25",,489244280,080-999-5425,GS25 역삼이담점,http://place.map.kakao.com/489244280,서울 강남구 테헤란로16길 15,127.034098128763,37.4985631684758
서울 강남구 개포동 1227-11,CS2,편의점,"가정,생활 > 편의점 > GS25",,1802957814,02-577-2967,GS25 개포빌리지점,http://place.map.kakao.com/1802957814,서울 강남구 논현로16길 6,127.04707096885963,37.47605874026963
서울 강남구 신사동 659-10,CS2,편의점,"가정,생활 > 편의점 > GS25",,17317628,080-999-5425,GS25 로데오점,http://place.map.kakao.com/17317628,서울 강남구 선릉로161길 31,127.0379396663455,37.52752657534465
서울 강남구 신사동 619-3,CS2,편의점,"가정,생활 > 편의점 > GS25",,1008002744,02-547-2599,GS25 강남신사점,http://place.map.kakao.com/1008002744,서울 강남구 언주로173길 13,127.032468875825,37.5280625001762
서울 강남구 신사동 638-7,CS2,편의점,"가정,생활 > 편의점 > GS25",,12296468,,GS25 신사타운점,http://place.map.kakao.com/12296468,서울 강남구 언주로174길 17,127.03537198467937,37.528364402960726
서울 강남구 역삼동 792-19,CS2,편의점,"가정,생활 > 편의점 > GS25",,17056567,02-538-5558,GS25 역삼명진점,http://place.map.kakao.com/17056567,서울 강남구 역삼로18길 22,127.03656998444,37.493441107121
서울 강남구 신사동 511-10,CS2,편의점,"가정,생활 > 편의점 > GS25",,12296409,02-3444-3650,GS25 신사센터점,http://place.map.kakao.com/12296409,서울 강남구 압구정로2길 58,127.021293143244,37.5181432034904
서울 강남구 신사동 526-9,CS2,편의점,"가정,생활 > 편의점 > GS25",,12296285,,GS25 신사강남점,http://place.map.kakao.com/12296285,서울 강남구 압구정로2길 9,127.019597161287,37.5210987872679
서울 강남구 역삼동 825-1,CS2,편의점,"가정,생활 > 편의점 > GS25",,27498643,02-555-3047,GS25 강남본점,http://place.map.kakao.com/27498643,서울 강남구 테헤란로2길 8,127.028764582323,37.4976707892101
서울 강남구 논현동 141-7,CS2,편의점,"가정,생활 > 편의점 > GS25",,12296534,02-545-9328,GS25 논현영동점,http://place.map.kakao.com/12296534,서울 강남구 학동로2길 19,127.022942149026,37.509968986797
서울 강남구 개포동 1232,CS2,편의점,"가정,생활 > 편의점 > GS25",,15668185,02-578-0379,GS25 개포럭키점,http://place.map.kakao.com/15668185,서울 강남구 개포로20길 12,127.047243978585,37.477914750923
서울 강남구 자곡동 687,CS2,편의점,"가정,생활 > 편의점 > GS25",,27498674,,GS25 강남세곡점,http://place.map.kakao.com/27498674,서울 강남구 밤고개로21길 25,127.10920216763989,37.47476795380141
서울 강남구 논현동 189-14,CS2,편의점,"가정,생활 > 편의점 > GS25",,12296529,,GS25 논현으뜸점,http://place.map.kakao.com/12296529,서울 강남구 봉은사로21길 21,127.030636998145,37.5080318835064
서울 강남구 역삼동 796-26,CS2,편의점,"가정,생활 > 편의점 > GS25",,13098944,080-999-5425,GS25 역삼블루점,http://place.map.kakao.com/13098944,서울 강남구 도곡로21길 18,127.03879529519024,37.49325118583355
서울 강남구 개포동 1219-5,CS2,편의점,"가정,생활 > 편의점 > GS25",,12296532,02-578-8300,GS25 포이점,http://place.map.kakao.com/12296532,서울 강남구 개포로22길 40,127.049368535931,37.4765443478675
서울 강남구 도곡동 450-5,CS2,편의점,"가정,생활 > 편의점 > GS25",,19896757,080-999-5425,GS25 도곡STX점,http://place.map.kakao.com/19896757,서울 강남구 논현로24길 17,127.044388258269,37.4818766943769
서울 강남구 논현동 176-11,CS2,편의점,"가정,생활 > 편의점 > GS25",,696185412,02-518-9869,GS25 논현정노점,http://place.map.kakao.com/696185412,서울 강남구 봉은사로25길 37,127.031741510347,37.5095416758275
서울 강남구 역삼동 640-13,CS2,편의점,"가정,생활 > 편의점 > GS25",,12296466,,GS25 역삼기쁨점,http://place.map.kakao.com/12296466,서울 강남구 테헤란로25길 39,127.03479570861724,37.503071598878776
서울 강남구 개포동 1255-6,CS2,편의점,"가정,생활 > 편의점 > GS25",,25757657,02-573-7318,GS25 포이그린점,http://place.map.kakao.com/25757657,서울 강남구 개포로25길 15,127.048050289355,37.4800227874403
서울 강남구 논현동 33,CS2,편의점,"가정,생활 > 편의점 > GS25",,27498641,02-545-6254,GS25 논현스타점,http://place.map.kakao.com/27498641,서울 강남구 도산대로26길 23,127.028215718145,37.5176516068111
서울 강남구 역삼동 608-12,CS2,편의점,"가정,생활 > 편의점 > GS25",,12006362,02-558-0717,GS25 역삼소망점,http://place.map.kakao.com/12006362,서울 강남구 봉은사로26길 26,127.033694121761,37.5054794047338
서울 강남구 역삼동 678-11,CS2,편의점,"가정,생활 > 편의점 > GS25",,195398813,,GS25 지에스타워점,http://place.map.kakao.com/195398813,서울 강남구 테헤란로27길 12,127.038030928725,37.5022705085933
서울 강남구 신사동 584-1,CS2,편의점,"가정,생활 > 편의점 > GS25",,334033862,,GS25 압구정유림점,http://place.map.kakao.com/334033862,서울 강남구 압구정로28길 49,127.027720143867,37.5234289551194
서울 강남구 신사동 577-12,CS2,편의점,"가정,생활 > 편의점 > GS25",,12296408,02-549-3196,GS25 압구정역점,http://place.map.kakao.com/12296408,서울 강남구 압구정로28길 18,127.027580615872,37.5254580451008
서울 강남구 역삼동 718-16,CS2,편의점,"가정,생활 > 편의점 > GS25",,27603078,,GS25 지에스사랑점,http://place.map.kakao.com/27603078,서울 강남구 테헤란로28길 3-10,127.039486881649,37.5009689784835
서울 강남구 압구정동 369-1,CS2,편의점,"가정,생활 > 편의점 > GS25",,12296406,,GS25 압구정현대점,http://place.map.kakao.com/12296406,서울 강남구 압구정로29길 71,127.029149147583,37.5327557817102
서울 강남구 압구정동 369-1,CS2,편의점,"가정,생활 > 편의점 > GS25",,16620883,02-514-3657,GS25 압구정타운점,http://place.map.kakao.com/16620883,서울 강남구 압구정로29길 71,127.02678886786572,37.53219952199615
서울 강남구 역삼동 678-19,CS2,편의점,"가정,생활 > 편의점 > GS25",,26820270,02-561-8786,GS25 역삼본점,http://place.map.kakao.com/26820270,서울 강남구 테헤란로29길 10,127.038867839492,37.5023134844679
서울 강남구 역삼동 830-28,CS2,편의점,"가정,생활 > 편의점 > GS25",,1777752716,02-563-1104,GS25 역삼아워홈점,http://place.map.kakao.com/1777752716,서울 강남구 역삼로3길 10,127.031631006112,37.4942570430873
서울 강남구 일원동 663-7,CS2,편의점,"가정,생활 > 편의점 > GS25",,987837835,,GS25 일원대청점,http://place.map.kakao.com/987837835,서울 강남구 일원로3길 54,127.084234180752,37.4924040057551
서울 강남구 역삼동 666-15,CS2,편의점,"가정,생활 > 편의점 > GS25",,88127185,,GS25 역삼홍인점,http://place.map.kakao.com/88127185,서울 강남구 봉은사로30길 43,127.03619097465885,37.50475786191425
서울 강남구 역삼동 658,CS2,편의점,"가정,생활 > 편의점 > GS25",,12296465,02-566-9328,GS25 역삼영동점,http://place.map.kakao.com/12296465,서울 강남구 봉은사로30길 11,127.035486218019,37.5068015555161
서울 강남구 역삼동 668-21,CS2,편의점,"가정,생활 > 편의점 > GS25",,12296464,,GS25 역삼지에스점,http://place.map.kakao.com/12296464,서울 강남구 봉은사로30길 78,127.03704485729,37.502472647214
서울 강남구 신사동 597-2,CS2,편의점,"가정,생활 > 편의점 > GS25",,17056609,02-514-2550,GS25 신사증권점,http://place.map.kakao.com/17056609,서울 강남구 압구정로30길 65,127.029208722242,37.5230537793076
서울 강남구 도곡동 515-5,CS2,편의점,"가정,생활 > 편의점 > GS25",,988748519,,GS25 도곡타운점,http://place.map.kakao.com/988748519,서울 강남구 논현로30길 7,127.043009619568,37.4831350124616
서울 강남구 도곡동 419-5,CS2,편의점,"가정,생활 > 편의점 > GS25",,12296475,02-576-6463,GS25 도곡매봉점,http://place.map.kakao.com/12296475,서울 강남구 논현로30길 51,127.045737972865,37.4851774749969
서울 강남구 도곡동 467-7,CS2,편의점,"가정,생활 > 편의점 > GS25",,1138614190,080-999-5425,GS25 도곡아카데미점,http://place.map.kakao.com/1138614190,서울 강남구 언주로30길 21,127.05197729888714,37.4888374924582
서울 강남구 논현동 215-3,CS2,편의점,"가정,생활 > 편의점 > GS25",,1282900508,,GS25 학동행복점,http://place.map.kakao.com/1282900508,서울 강남구 학동로30길 14,127.0319149786598,37.513182587672254
서울 강남구 논현동 220-18,CS2,편의점,"가정,생활 > 편의점 > GS25",,12296539,,GS25 논현동부점,http://place.map.kakao.com/12296539,서울 강남구 학동로30길 49,127.03322836985721,37.511059459526315
서울 강남구 신사동 601,CS2,편의점,"가정,생활 > 편의점 > GS25",,277089897,,GS25 압구정CGV점,http://place.map.kakao.com/277089897,서울 강남구 압구정로32길 49,127.0298879933734,37.52436907296955
서울 강남구 신사동 588,CS2,편의점,"가정,생활 > 편의점 > GS25",,20038172,,GS25 압구정신사점,http://place.map.kakao.com/20038172,서울 강남구 도산대로33길 8,127.030226098835,37.5212118737863
서울 강남구 일원동 680-4,CS2,편의점,"가정,생활 > 편의점 > GS25",,12296334,,GS25 일원센타점,http://place.map.kakao.com/12296334,서울 강남구 양재대로33길 6,127.083263524227,37.4899647662783
서울 강남구 역삼동 678-28,CS2,편의점,"가정,생활 > 편의점 > GS25",,20038195,,GS25 역삼테헤란점,http://place.map.kakao.com/20038195,서울 강남구 테헤란로33길 7,127.039306640659,37.5023133392762
서울 강남구 역삼동 732,CS2,편의점,"가정,생활 > 편의점 > GS25",,27498669,,GS25 역삼우리점,http://place.map.kakao.com/27498669,서울 강남구 역삼로33길 10,127.04177410986142,37.49785431454334
서울 강남구 논현동 77,CS2,편의점,"가정,생활 > 편의점 > GS25",,894075272,,GS25 논현77점,http://place.map.kakao.com/894075272,서울 강남구 학동로33길 46,127.032247219626,37.5177406752762
서울 강남구 논현동 88-5,CS2,편의점,"가정,생활 > 편의점 > GS25",,25662509,02-515-1347,GS25 학동제일점,http://place.map.kakao.com/25662509,서울 강남구 학동로33길 7,127.03254023143624,37.515228596969784
서울 강남구 신사동 613-9,CS2,편의점,"가정,생활 > 편의점 > GS25",,1560070208,02-547-2056,GS25 압구정신구점,http://place.map.kakao.com/1560070208,서울 강남구 압구정로34길 24,127.030594815969,37.5266069814372
서울 강남구 역삼동 723,CS2,편의점,"가정,생활 > 편의점 > GS25",,12296338,,GS25 역삼혜성점,http://place.map.kakao.com/12296338,서울 강남구 테헤란로34길 17,127.040640133035,37.5004568159828
서울 강남구 수서동 559,CS2,편의점,"가정,생활 > 편의점 > GS25",,25973058,,GS25 세곡1단지점,http://place.map.kakao.com/25973058,서울 강남구 광평로34길 55,127.091873605426,37.4812150025661
서울 강남구 도곡동 954,CS2,편의점,"가정,생활 > 편의점 > GS25",,27498661,,GS25 도곡양재점,http://place.map.kakao.com/27498661,서울 강남구 남부순환로351길 14,127.03454796020712,37.48573089204608
서울 강남구 도곡동 959-26,CS2,편의점,"가정,생활 > 편의점 > GS25",,2007289253,,GS25 도곡센터점,http://place.map.kakao.com/2007289253,서울 강남구 남부순환로359길 6,127.037050052842,37.4855192979748
서울 강남구 도곡동 895-11,CS2,편의점,"가정,생활 > 편의점 > GS25",,18319006,02-577-8083,GS25 도곡럭키본점,http://place.map.kakao.com/18319006,서울 강남구 남부순환로365길 56,127.040231356345,37.4889456920317
서울 강남구 논현동 232-5,CS2,편의점,"가정,생활 > 편의점 > GS25",,12296497,,GS25 논현동우점,http://place.map.kakao.com/12296497,서울 강남구 봉은사로37길 13,127.036491721939,37.5092195461977
서울 강남구 역삼동 719-21,CS2,편의점,"가정,생활 > 편의점 > GS25",,25757568,,GS25 역삼르네상스점,http://place.map.kakao.com/25757568,서울 강남구 테헤란로38길 6,127.041305755074,37.5016387048654
서울 강남구 역삼동 664-32,CS2,편의점,"가정,생활 > 편의점 > GS25",,12296280,080-999-5425,GS25 역삼미래점,http://place.map.kakao.com/12296280,서울 강남구 테헤란로39길 51,127.040260699699,37.505693590432394
서울 강남구 역삼동 812,CS2,편의점,"가정,생활 > 편의점 > GS25",,20037779,,GS25 강남태양점,http://place.map.kakao.com/20037779,서울 강남구 봉은사로4길 29,127.026862108996,37.5029655486786
서울 강남구 역삼동 826-37,CS2,편의점,"가정,생활 > 편의점 > GS25",,16905013,080-855-5525,GS25 역삼태극점,http://place.map.kakao.com/16905013,서울 강남구 테헤란로4길 46,127.03073693130702,37.495222257473024
서울 강남구 역삼동 826-40,CS2,편의점,"가정,생활 > 편의점 > GS25",,12296335,02-554-8381,GS25 강남쌍용점,http://place.map.kakao.com/12296335,서울 강남구 테헤란로4길 46,127.02996136600882,37.495672960107285
서울 강남구 개포동 1177-4,CS2,편의점,"가정,생활 > 편의점 > GS25",,20038413,02-578-6587,GS25 포이한라점,http://place.map.kakao.com/20038413,서울 강남구 논현로4길 43,127.053210708331,37.4741856384644
서울 강남구 개포동 1168,CS2,편의점,"가정,생활 > 편의점 > GS25",,1791400846,,GS25 뉴개포영광점,http://place.map.kakao.com/1791400846,서울 강남구 논현로4길 12,127.05125609510728,37.47257910048701
서울 강남구 역삼동 832-33,CS2,편의점,"가정,생활 > 편의점 > GS25",,20038194,02-2188-1224,GS25 역삼성우점,http://place.map.kakao.com/20038194,서울 강남구 역삼로4길 16,127.032023739935,37.4924116747248
서울 강남구 신사동 636-10,CS2,편의점,"가정,생활 > 편의점 > GS25",,1076404588,080-999-5425,GS25 신사자생점,http://place.map.kakao.com/1076404588,서울 강남구 압구정로42길 24-10,127.03432170806855,37.527474523060405
서울 강남구 역삼동 703-3,CS2,편의점,"가정,생활 > 편의점 > GS25",,12296462,,GS25 역삼상록점,http://place.map.kakao.com/12296462,서울 강남구 테헤란로43길 12,127.044012332456,37.5040488185192
서울 강남구 역삼동 690-29,CS2,편의점,"가정,생활 > 편의점 > GS25",,27498642,,GS25 강남역삼점,http://place.map.kakao.com/27498642,서울 강남구 봉은사로48길 32,127.042082545386,37.5074120731118
서울 강남구 일원동 682,CS2,편의점,"가정,생활 > 편의점 > GS25",,12296457,,GS25 일원으뜸점,http://place.map.kakao.com/12296457,서울 강남구 일원로5길 6,127.08142576818601,37.49073370544435
서울 강남구 논현동 99-19,CS2,편의점,"가정,생활 > 편의점 > GS25",,10883273,02-516-0245,GS25 논현동현점,http://place.map.kakao.com/10883273,서울 강남구 도산대로50길 27,127.037714422705,37.5205609979483
서울 강남구 대치동 1029,CS2,편의점,"가정,생활 > 편의점 > GS25",,433589282,02-558-9890,GS25 대치SK타운점,http://place.map.kakao.com/433589282,서울 강남구 삼성로51길 25,127.05954951318456,37.49561940356368
서울 강남구 역삼동 709-5,CS2,편의점,"가정,생활 > 편의점 > GS25",,25757569,,GS25 역삼성보점,http://place.map.kakao.com/25757569,서울 강남구 테헤란로52길 16,127.04721549647783,37.50271859849945
서울 강남구 역삼동 754-2,CS2,편의점,"가정,생활 > 편의점 > GS25",,12296276,080-999-5425,GS25 뉴역삼월드점,http://place.map.kakao.com/12296276,서울 강남구 역삼로52길 14,127.04811632182607,37.49836547521999
서울 강남구 신사동 666-20,CS2,편의점,"가정,생활 > 편의점 > GS25",,12296344,,GS25 신사진주점,http://place.map.kakao.com/12296344,서울 강남구 도산대로53길 10,127.038471707985,37.5237539072219
서울 강남구 역삼동 695,CS2,편의점,"가정,생활 > 편의점 > GS25",,1341138170,080-999-5425,GS25 역삼제스트점,http://place.map.kakao.com/1341138170,서울 강남구 테헤란로53길 48,127.04476495343634,37.50683804787593
서울 강남구 신사동 662-18,CS2,편의점,"가정,생활 > 편의점 > GS25",,1741992409,070-4007-3303,GS25 강남로데오점,http://place.map.kakao.com/1741992409,서울 강남구 압구정로54길 16,127.03932400789188,37.52679540996708
서울 강남구 청담동 88-3,CS2,편의점,"가정,생활 > 편의점 > GS25",,812608825,080-999-5425,GS25 청담88점,http://place.map.kakao.com/812608825,서울 강남구 도산대로55길 22,127.04064437775614,37.52497223568791
서울 강남구 일원동 644-11,CS2,편의점,"가정,생활 > 편의점 > GS25",,12296273,,GS25 일원스타점,http://place.map.kakao.com/12296273,서울 강남구 양재대로55길 5,127.08782304018975,37.49123278618984
서울 강남구 역삼동 696-10,CS2,편의점,"가정,생활 > 편의점 > GS25",,12296463,02-552-1066,GS25 역삼사랑점,http://place.map.kakao.com/12296463,서울 강남구 테헤란로55길 27,127.046583053396,37.5059579639464
서울 강남구 세곡동 615,CS2,편의점,"가정,생활 > 편의점 > GS25",,1586941757,02-2226-4857,GS25 강남드림하이점,http://place.map.kakao.com/1586941757,서울 강남구 헌릉로569길 21-30,127.10068936124122,37.46632133526589
서울 강남구 삼성동 10-21,CS2,편의점,"가정,생활 > 편의점 > GS25",,12296474,02-511-0672,GS25 삼성캐슬점,http://place.map.kakao.com/12296474,서울 강남구 봉은사로57길 67,127.043552827194,37.5151493653771
서울 강남구 대치동 992-4,CS2,편의점,"가정,생활 > 편의점 > GS25",,12296353,,GS25 대치은마점,http://place.map.kakao.com/12296353,서울 강남구 영동대로57길 16,127.066157442324,37.5000200067106
서울 강남구 세곡동 579,CS2,편의점,"가정,생활 > 편의점 > GS25",,21570571,,GS25 보금자리점,http://place.map.kakao.com/21570571,서울 강남구 헌릉로571길 20,127.101898818587,37.4671113860529
서울 강남구 대치동 989-6,CS2,편의점,"가정,생활 > 편의점 > GS25",,898450359,080-999-5425,GS25 대치은마타운점,http://place.map.kakao.com/898450359,서울 강남구 삼성로58길 11,127.062229961115,37.4988039807008
서울 강남구 세곡동 525,CS2,편의점,"가정,생활 > 편의점 > GS25",,17077556,02-451-7964,GS25 세곡리엔점,http://place.map.kakao.com/17077556,서울 강남구 헌릉로590길 63,127.10224697170892,37.460463424059554
서울 강남구 논현동 159-11,CS2,편의점,"가정,생활 > 편의점 > GS25",,12296530,,GS25 논현우람점,http://place.map.kakao.com/12296530,서울 강남구 학동로6길 48,127.026163112811,37.509233097512
서울 강남구 청담동 93-3,CS2,편의점,"가정,생활 > 편의점 > GS25",,27498654,02-515-3276,GS25 청담미래점,http://place.map.kakao.com/27498654,서울 강남구 도산대로61길 10,127.043010753625,37.5245416195418
서울 강남구 대치동 936-28,CS2,편의점,"가정,생활 > 편의점 > GS25",,1984726358,,GS25 대치한티점,http://place.map.kakao.com/1984726358,서울 강남구 선릉로62길 7,127.05324976775445,37.49736495779092
서울 강남구 삼성동 140-35,CS2,편의점,"가정,생활 > 편의점 > GS25",,25757501,,GS25 삼성승리점,http://place.map.kakao.com/25757501,서울 강남구 테헤란로63길 17,127.05005773976524,37.50640344112629
서울 강남구 역삼동 798-29,CS2,편의점,"가정,생활 > 편의점 > GS25",,8004388,,GS25 역삼대홍점,http://place.map.kakao.com/8004388,서울 강남구 논현로63길 19,127.039306005264,37.4924707448186
서울 강남구 대치동 900,CS2,편의점,"가정,생활 > 편의점 > GS25",,17056611,080-999-5425,GS25 대치미래점,http://place.map.kakao.com/17056611,서울 강남구 역삼로63길 24,127.05195306305828,37.502821126584486
서울 강남구 역삼동 788-38,CS2,편의점,"가정,생활 > 편의점 > GS25",,1320271004,080-999-5425,GS25 역삼아람점,http://place.map.kakao.com/1320271004,서울 강남구 논현로64길 14,127.041373715626,37.4936305359677
서울 강남구 대치동 976-7,CS2,편의점,"가정,생활 > 편의점 > GS25",,12296501,02-567-8751,GS25 대치은행점,http://place.map.kakao.com/12296501,서울 강남구 삼성로64길 35,127.063217632801,37.5006379045594
서울 강남구 역삼동 778-6,CS2,편의점,"가정,생활 > 편의점 > GS25",,1041565930,02-566-7670,GS25 역삼행복점,http://place.map.kakao.com/1041565930,서울 강남구 언주로67길 34,127.042935240687,37.4954139724428
서울 강남구 역삼동 779,CS2,편의점,"가정,생활 > 편의점 > GS25",,12296460,,GS25 역삼타운점,http://place.map.kakao.com/12296460,서울 강남구 언주로69길 7,127.044745169808,37.4964296363216
서울 강남구 대치동 1023-19,CS2,편의점,"가정,생활 > 편의점 > GS25",,309247772,080-999-5425,GS25 한티단국점,http://place.map.kakao.com/309247772,서울 강남구 도곡로70길 5,127.056627354154,37.4969921724022
서울 강남구 삼성동 49-4,CS2,편의점,"가정,생활 > 편의점 > GS25",,25757500,02-518-6143,GS25 삼성봉은점,http://place.map.kakao.com/25757500,서울 강남구 봉은사로71길 6,127.050202180028,37.5126707676678
서울 강남구 대치동 916-11,CS2,편의점,"가정,생활 > 편의점 > GS25",,27498655,,GS25 대치에이스점,http://place.map.kakao.com/27498655,서울 강남구 삼성로71길 41,127.0555618275082,37.50121299116373
서울 강남구 역삼동 769-8,CS2,편의점,"가정,생활 > 편의점 > GS25",,1271063018,02-554-1945,GS25 역삼싱아점,http://place.map.kakao.com/1271063018,서울 강남구 논현로72길 13,127.040637656528,37.4958869126473
서울 강남구 대치동 920-8,CS2,편의점,"가정,생활 > 편의점 > GS25",,12296485,,GS25 대치제일점,http://place.map.kakao.com/12296485,서울 강남구 선릉로72길 20,127.052878719998,37.50039250528007
서울 강남구 율현동 101-13,CS2,편의점,"가정,생활 > 편의점 > GS25",,20038258,,GS25 율현은하점,http://place.map.kakao.com/20038258,서울 강남구 헌릉로745길 37,127.118759871885,37.46997347086971
서울 강남구 청담동 98,CS2,편의점,"가정,생활 > 편의점 > GS25",,19661857,,GS25 청담여신점,http://place.map.kakao.com/19661857,서울 강남구 도산대로75길 8,127.046178447846,37.5247818920911
서울 강남구 대치동 900-13,CS2,편의점,"가정,생활 > 편의점 > GS25",,1752984864,,GS25 대치타운점,http://place.map.kakao.com/1752984864,서울 강남구 선릉로76길 25,127.05254285406116,37.502023475717984
서울 강남구 삼성동 143-28,CS2,편의점,"가정,생활 > 편의점 > GS25",,8000742,,GS25 강남동원점,http://place.map.kakao.com/8000742,서울 강남구 테헤란로77길 7,127.054563985628,37.5069132164195
서울 강남구 대치동 904-19,CS2,편의점,"가정,생활 > 편의점 > GS25",,12296478,,GS25 대치사랑점,http://place.map.kakao.com/12296478,서울 강남구 역삼로77길 7,127.05630729641,37.5029804113552
서울 강남구 대치동 1017,CS2,편의점,"가정,생활 > 편의점 > GS25",,392972648,,GS25 대치삼성타운점,http://place.map.kakao.com/392972648,서울 강남구 도곡로78길 22,127.060134405446,37.4973454358085
서울 강남구 대치동 916-40,CS2,편의점,"가정,생활 > 편의점 > GS25",,12296502,,GS25 대치중앙점,http://place.map.kakao.com/12296502,서울 강남구 역삼로78길 26,127.057427494639,37.5007670020423
서울 강남구 논현동 13-16,CS2,편의점,"가정,생활 > 편의점 > GS25",,797625249,,GS25 논현스카이점,http://place.map.kakao.com/797625249,서울 강남구 도산대로8길 15,127.022396520931,37.5159877990544
서울 강남구 개포동 1187-6,CS2,편의점,"가정,생활 > 편의점 > GS25",,645591906,,GS25 개포사랑점,http://place.map.kakao.com/645591906,서울 강남구 논현로8길 21,127.050511230561,37.4744427100966
서울 강남구 삼성동 157-10,CS2,편의점,"가정,생활 > 편의점 > GS25",,12296287,02-539-5155,GS25 삼성터미널점,http://place.map.kakao.com/12296287,서울 강남구 테헤란로81길 26,127.0567685463076,37.508724999212134
서울 강남구 삼성동 145-29,CS2,편의점,"가정,생활 > 편의점 > GS25",,27498652,02-552-1319,GS25 삼성제일점,http://place.map.kakao.com/27498652,서울 강남구 봉은사로82길 16,127.05507332099943,37.51205591411848
서울 강남구 역삼동 824-11,CS2,편의점,"가정,생활 > 편의점 > GS25",,25757572,02-538-1248,GS25 역삼효성점,http://place.map.kakao.com/25757572,서울 강남구 강남대로84길 23,127.030293318503,37.4972054877432
서울 강남구 대치동 950,CS2,편의점,"가정,생활 > 편의점 > GS25",,12296477,,GS25 대치대명점,http://place.map.kakao.com/12296477,서울 강남구 영동대로85길 17,127.06230344696935,37.50694452708561
서울 강남구 역삼동 738-7,CS2,편의점,"가정,생활 > 편의점 > GS25",,42784605,,GS25 역삼스타점,http://place.map.kakao.com/42784605,서울 강남구 논현로85길 5,127.03703413346449,37.4990785611254
서울 강남구 역삼동 828-23,CS2,편의점,"가정,생활 > 편의점 > GS25",,12296458,,GS25 역삼쌍마점,http://place.map.kakao.com/12296458,서울 강남구 논현로85길 57,127.03351763744612,37.49777405302553
서울 강남구 역삼동 719-24,CS2,편의점,"가정,생활 > 편의점 > GS25",,1676801073,02-555-3953,GS25 역삼센트럴점,http://place.map.kakao.com/1676801073,서울 강남구 언주로85길 32,127.04057696434992,37.50075597167364
서울 강남구 대치동 896-52,CS2,편의점,"가정,생활 > 편의점 > GS25",,10885536,,GS25 대치골드점,http://place.map.kakao.com/10885536,서울 강남구 선릉로86길 48,127.053670781264,37.5041529457677
서울 강남구 대치동 897-33,CS2,편의점,"가정,생활 > 편의점 > GS25",,16083813,02-558-9373,GS25 대치선릉점,http://place.map.kakao.com/16083813,서울 강남구 선릉로86길 16,127.0509977039301,37.50323870846376
서울 강남구 역삼동 706-20,CS2,편의점,"가정,생활 > 편의점 > GS25",,12296282,,GS25 역삼넥스빌점,http://place.map.kakao.com/12296282,서울 강남구 언주로86길 11,127.0443809361817,37.5019889818226
서울 강남구 삼성동 159,CS2,편의점,"가정,생활 > 편의점 > GS25",,12296349,02-553-7793,GS25 오크우드점,http://place.map.kakao.com/12296349,서울 강남구 테헤란로87길 46,127.058159228976,37.5110200821345
서울 강남구 삼성동 153-63,CS2,편의점,"가정,생활 > 편의점 > GS25",,27498653,02-3288-4401,GS25 삼성영진점,http://place.map.kakao.com/27498653,서울 강남구 테헤란로87길 37,127.057760478657,37.5102201859031
서울 강남구 삼성동 154-13,CS2,편의점,"가정,생활 > 편의점 > GS25",,12296412,02-564-4401,GS25 무역센타점,http://place.map.kakao.com/12296412,서울 강남구 테헤란로87길 25,127.058253033805,37.5094703082778
서울 강남구 역삼동 736-37,CS2,편의점,"가정,생활 > 편의점 > GS25",,26926160,,GS25 역삼캐피탈점,http://place.map.kakao.com/26926160,서울 강남구 논현로87길 23,127.034935355229,37.4993774334937
서울 강남구 삼성동 55,CS2,편의점,"가정,생활 > 편의점 > GS25",,12296286,02-541-3508,GS25 청담진흥점,http://place.map.kakao.com/12296286,서울 강남구 학동로88길 5,127.05283301055577,37.5189775464775
서울 강남구 청담동 125,CS2,편의점,"가정,생활 > 편의점 > GS25",,12296396,,GS25 청담칼릭스점,http://place.map.kakao.com/12296396,서울 강남구 도산대로89길 12,127.0507932344315,37.5252773508053
서울 강남구 대치동 889-52,CS2,편의점,"가정,생활 > 편의점 > GS25",,12296487,,GS25 선릉로즈점,http://place.map.kakao.com/12296487,서울 강남구 선릉로90길 16,127.050635271899,37.5041290577786
서울 강남구 대치동 891-23,CS2,편의점,"가정,생활 > 편의점 > GS25",,12296494,,GS25 대치명문점,http://place.map.kakao.com/12296494,서울 강남구 선릉로90길 56,127.05388414677297,37.505189905742576
서울 강남구 대치동 890-47,CS2,편의점,"가정,생활 > 편의점 > GS25",,27498656,,GS25 대치타워점,http://place.map.kakao.com/27498656,서울 강남구 선릉로90길 36,127.052161307258,37.50466449197868
서울 강남구 역삼동 642-5,CS2,편의점,"가정,생활 > 편의점 > GS25",,27214263,,GS25 지에스본점,http://place.map.kakao.com/27214263,서울 강남구 논현로93길 3,127.03588649872,37.5018819450189
서울 강남구 역삼동 818-14,CS2,편의점,"가정,생활 > 편의점 > GS25",,479660772,,GS25 강남YBM점,http://place.map.kakao.com/479660772,서울 강남구 강남대로94길 9,127.028163627528,37.4994369063913
서울 강남구 역삼동 644-19,CS2,편의점,"가정,생활 > 편의점 > GS25",,178935375,,GS25 역삼쏘도베점,http://place.map.kakao.com/178935375,서울 강남구 강남대로94길 95,127.035075282013,37.50114696789636
서울 강남구 역삼동 678-5,CS2,편의점,"가정,생활 > 편의점 > GS25",,819301454,,GS25 역삼프리미엄점,http://place.map.kakao.com/819301454,서울 강남구 논현로94길 32,127.03901291743,37.5029261205005
서울 강남구 역삼동 644-3,CS2,편의점,"가정,생활 > 편의점 > GS25",,2052253330,080-999-5425,GS25 역삼코디점,http://place.map.kakao.com/2052253330,서울 강남구 논현로95길 29-13,127.034185215449,37.5010643362751
서울 강남구 역삼동 673-6,CS2,편의점,"가정,생활 > 편의점 > GS25",,1142079617,080-999-5425,GS25 뉴역삼프라임점,http://place.map.kakao.com/1142079617,서울 강남구 언주로97길 25,127.039314775076,37.5048857073289
서울 강남구 역삼동 620-9,CS2,편의점,"가정,생활 > 편의점 > GS25",,479356065,02-557-1869,GS25 강남시티힐점,http://place.map.kakao.com/479356065,서울 강남구 강남대로98길 17,127.027960632182,37.5009506448066
서울 강남구 대치동 945-10,CS2,편의점,"가정,생활 > 편의점 > GS25",,17056630,02-2104-4530,GS25 대치삼성점,http://place.map.kakao.com/17056630,서울 강남구 테헤란로98길 8,127.061861803552,37.507644839985
서울 강남구 역삼동 699-27,CS2,편의점,"가정,생활 > 편의점 > GS25",,2003505206,,GS25 강남상록회관점,http://place.map.kakao.com/2003505206,서울 강남구 언주로98길 25,127.04392119840107,37.504857054260896
서울 강남구 역삼동 699-2,CS2,편의점,"가정,생활 > 편의점 > GS25",,1610637749,02-508-3774,GS25 역삼띵동점,http://place.map.kakao.com/1610637749,서울 강남구 언주로98길 7,127.04245224446,37.505166636118
