address_name,category_group_code,category_group_name,category_name,distance,id,phone,place_name,place_url,road_address_name,x,y
서울 강남구 개포동 655-4,CS2,편의점,"가정,생활 > 편의점 > 세븐일레븐",,10395443,1577-0711,세븐일레븐 개포현대점,http://place.map.kakao.com/10395443,서울 강남구 개포로 265,127.05302319838873,37.48080453828181
서울 강남구 개포동 12-4,CS2,편의점,"가정,생활 > 편의점 > 세븐일레븐",,1159815483,1577-0711,세븐일레븐 일원석탑점,http://place.map.kakao.com/1159815483,서울 강남구 개포로 615,127.075586221184,37.492658533156
서울 강남구 개포동 12,CS2,편의점,"가정,생활 > 편의점 > 세븐일레븐",,12149670,,세븐일레븐 강남대청점,http://place.map.kakao.com/12149670,서울 강남구 개포로109길 9,127.07580298686561,37.49343596329679
서울 강남구 개포동 186-17,CS2,편의점,"가정,생활 > 편의점 > 세븐일레븐",,8442423,02-2226-5564,세븐일레븐 개포2호점,http://place.map.kakao.com/8442423,서울 강남구 개포로 512,127.068897963549,37.4893324998717
서울 강남구 개포동 13-3,CS2,편의점,"가정,생활 > 편의점 > 세븐일레븐",,474574192,1577-0711,세븐일레븐 뉴대청역점,http://place.map.kakao.com/474574192,서울 강남구 개포로 623,127.079647527511,37.4943416488277
서울 강남구 개포동 1218,CS2,편의점,"가정,생활 > 편의점 > 세븐일레븐",,8371717,02-3462-0956,세븐일레븐 포이5호점,http://place.map.kakao.com/8371717,서울 강남구 개포로24길 6,127.048076423843,37.4784622288465
서울 강남구 개포동 1214-5,CS2,편의점,"가정,생활 > 편의점 > 세븐일레븐",,1604638557,02-529-4571,세븐일레븐 개포본점,http://place.map.kakao.com/1604638557,서울 강남구 개포로28길 15,127.049957439914,37.4780794205425
서울 강남구 개포동 1235-11,CS2,편의점,"가정,생활 > 편의점 > 세븐일레븐",,10559656,02-529-6516,세븐일레븐 포이4호점,http://place.map.kakao.com/10559656,서울 강남구 개포로20길 24-16,127.046980959232,37.4767507515067
서울 강남구 일원동 625-21,CS2,편의점,"가정,생활 > 편의점 > 세븐일레븐",,1472605341,1577-0711,세븐일레븐 일원엘림점,http://place.map.kakao.com/1472605341,서울 강남구 개포로128길 22,127.08368259422,37.4936279651744
서울 강남구 수서동 724,CS2,편의점,"가정,생활 > 편의점 > 세븐일레븐",,18116817,,세븐일레븐 수서역점,http://place.map.kakao.com/18116817,서울 강남구 광평로 280,127.10283203241984,37.48737607712065
서울 강남구 수서동 791,CS2,편의점,"가정,생활 > 편의점 > 세븐일레븐",,1725466785,,세븐일레븐 강남포레스트점,http://place.map.kakao.com/1725466785,서울 강남구 광평로34길 30,127.09412356604687,37.48214937956245
서울 강남구 수서동 715,CS2,편의점,"가정,생활 > 편의점 > 세븐일레븐",,19429471,,세븐일레븐 수서효성점,http://place.map.kakao.com/19429471,서울 강남구 광평로 281,127.10281030737848,37.48802482151145
서울 강남구 일원동 716,CS2,편의점,"가정,생활 > 편의점 > 세븐일레븐",,777133268,1577-0711,세븐일레븐 강남목련타운점,http://place.map.kakao.com/777133268,서울 강남구 광평로19길 15,127.085319896302,37.4845959956042
서울 강남구 수서동 728,CS2,편의점,"가정,생활 > 편의점 > 세븐일레븐",,1667596049,,세븐일레븐 수서역사5호점,http://place.map.kakao.com/1667596049,서울 강남구 광평로 지하 270,127.10185851088313,37.48738773253322
서울 강남구 논현동 86-4,CS2,편의점,"가정,생활 > 편의점 > 세븐일레븐",,1262850215,1577-0711,세븐일레븐 논현보람점,http://place.map.kakao.com/1262850215,서울 강남구 논현로132길 15,127.03187287181711,37.515239590975895
서울 강남구 논현동 60-12,CS2,편의점,"가정,생활 > 편의점 > 세븐일레븐",,12332981,1577-0711,세븐일레븐 논현본점,http://place.map.kakao.com/12332981,서울 강남구 논현로150길 15,127.02972880251939,37.519466757225395
서울 강남구 역삼동 739,CS2,편의점,"가정,생활 > 편의점 > 세븐일레븐",,18116894,02-569-4836,세븐일레븐 역삼창조점,http://place.map.kakao.com/18116894,서울 강남구 논현로85길 13,127.036256103578,37.49911394172
서울 강남구 논현동 175-1,CS2,편의점,"가정,생활 > 편의점 > 세븐일레븐",,567987869,1577-0711,세븐일레븐 논현힐탑점,http://place.map.kakao.com/567987869,서울 강남구 논현로 639,127.03204619999,37.5105705407568
서울 강남구 역삼동 614-20,CS2,편의점,"가정,생활 > 편의점 > 세븐일레븐",,10477480,,세븐일레븐 역삼14호점,http://place.map.kakao.com/10477480,서울 강남구 논현로105길 53,127.029984371826,37.5051308145897
서울 강남구 논현동 10-5,CS2,편의점,"가정,생활 > 편의점 > 세븐일레븐",,16531630,,세븐일레븐 논현14호점,http://place.map.kakao.com/16531630,서울 강남구 논현로149길 35,127.025677362505,37.5175728976141
서울 강남구 신사동 590-22,CS2,편의점,"가정,생활 > 편의점 > 세븐일레븐",,1810689260,1577-0711,세븐일레븐 신사제일점,http://place.map.kakao.com/1810689260,서울 강남구 논현로 808,127.028418300279,37.5209086846255
서울 강남구 역삼동 782-28,CS2,편의점,"가정,생활 > 편의점 > 세븐일레븐",,826691281,,세븐일레븐 역삼세브란스점,http://place.map.kakao.com/826691281,서울 강남구 논현로64길 33,127.043228474575,37.494058751185
서울 강남구 역삼동 738-28,CS2,편의점,"가정,생활 > 편의점 > 세븐일레븐",,18116890,1577-0711,세븐일레븐 역삼명랑점,http://place.map.kakao.com/18116890,서울 강남구 논현로 425,127.03799371276303,37.49801326697141
서울 강남구 역삼동 606-18,CS2,편의점,"가정,생활 > 편의점 > 세븐일레븐",,723278274,1577-0711,세븐일레븐 역삼휴먼터치빌점,http://place.map.kakao.com/723278274,서울 강남구 논현로 565,127.033790709376,37.5064876019292
서울 강남구 도곡동 422-4,CS2,편의점,"가정,생활 > 편의점 > 세븐일레븐",,13119473,02-3461-7694,세븐일레븐 매봉점,http://place.map.kakao.com/13119473,서울 강남구 논현로28길 56,127.046388899218,37.484625804102
서울 강남구 신사동 567-23,CS2,편의점,"가정,생활 > 편의점 > 세븐일레븐",,8446796,02-3446-2991,세븐일레븐 신사한나래점,http://place.map.kakao.com/8446796,서울 강남구 논현로159길 10,127.027326333604,37.523057833843
서울 강남구 도곡동 414-16,CS2,편의점,"가정,생활 > 편의점 > 세븐일레븐",,941797048,,세븐일레븐 도곡본점,http://place.map.kakao.com/941797048,서울 강남구 논현로34길 34,127.044697472984,37.4847057448361
서울 강남구 신사동 566-4,CS2,편의점,"가정,생활 > 편의점 > 세븐일레븐",,110574416,,세븐일레븐 신사압구정본점,http://place.map.kakao.com/110574416,서울 강남구 논현로157길 22,127.026262751345,37.5224507993661
서울 강남구 도곡동 545-19,CS2,편의점,"가정,생활 > 편의점 > 세븐일레븐",,1321004767,1577-0711,세븐일레븐 강남도곡로점,http://place.map.kakao.com/1321004767,서울 강남구 논현로57길 24,127.039101838789,37.4912706708271
서울 강남구 도곡동 942-11,CS2,편의점,"가정,생활 > 편의점 > 세븐일레븐",,2048323631,1577-0711,세븐일레븐 도곡공원점,http://place.map.kakao.com/2048323631,서울 강남구 도곡로4길 5,127.033397510693,37.4895821309265
서울 강남구 역삼동 784-13,CS2,편의점,"가정,생활 > 편의점 > 세븐일레븐",,7956485,02-3453-6170,세븐일레븐 역삼18호점,http://place.map.kakao.com/7956485,서울 강남구 도곡로37길 16,127.045133231654,37.4948545289579
서울 강남구 대치동 986-4,CS2,편의점,"가정,생활 > 편의점 > 세븐일레븐",,18117863,,세븐일레븐 대치우성점,http://place.map.kakao.com/18117863,서울 강남구 도곡로93길 9,127.0645081637516,37.50083272516317
서울 강남구 대치동 934-26,CS2,편의점,"가정,생활 > 편의점 > 세븐일레븐",,332214276,1577-0711,세븐일레븐 대치한티점,http://place.map.kakao.com/332214276,서울 강남구 도곡로69길 14,127.055987105095,37.4982556885044
서울 강남구 대치동 894-3,CS2,편의점,"가정,생활 > 편의점 > 세븐일레븐",,7954772,02-3453-4752,세븐일레븐 대치6호점,http://place.map.kakao.com/7954772,서울 강남구 삼성로85길 19,127.055752221631,37.5047934975366
서울 강남구 삼성동 156-13,CS2,편의점,"가정,생활 > 편의점 > 세븐일레븐",,218359203,,세븐일레븐 삼성예술점,http://place.map.kakao.com/218359203,서울 강남구 삼성로100길 8,127.05609958164807,37.509531717939275
서울 강남구 개포동 1281,CS2,편의점,"가정,생활 > 편의점 > 세븐일레븐",,2029082076,,세븐일레븐 DH아너힐즈점,http://place.map.kakao.com/2029082076,서울 강남구 삼성로 11,127.06706955533126,37.485527694681025
서울 강남구 개포동 189,CS2,편의점,"가정,생활 > 편의점 > 세븐일레븐",,1176032166,,세븐일레븐 개포자이점,http://place.map.kakao.com/1176032166,서울 강남구 삼성로 14,127.073637462495,37.4876276373538
서울 강남구 대치동 891-26,CS2,편의점,"가정,생활 > 편의점 > 세븐일레븐",,2057434883,1577-0711,세븐일레븐 대치멤버스점,http://place.map.kakao.com/2057434883,서울 강남구 삼성로85길 42,127.053801125959,37.5045493288314
서울 강남구 대치동 960-15,CS2,편의점,"가정,생활 > 편의점 > 세븐일레븐",,18117755,,세븐일레븐 대치으뜸점,http://place.map.kakao.com/18117755,서울 강남구 삼성로76길 16,127.05967270440682,37.50405906480965
서울 강남구 대치동 957-6,CS2,편의점,"가정,생활 > 편의점 > 세븐일레븐",,18117744,,세븐일레븐 대치7호점,http://place.map.kakao.com/18117744,서울 강남구 삼성로86길 16,127.058811110952,37.5057506837674
서울 강남구 개포동 186-1,CS2,편의점,"가정,생활 > 편의점 > 세븐일레븐",,16055393,1577-0711,세븐일레븐 개포주공점,http://place.map.kakao.com/16055393,서울 강남구 삼성로 38,127.06698978187808,37.48862540523141
서울 강남구 대치동 511,CS2,편의점,"가정,생활 > 편의점 > 세븐일레븐",,10565313,1577-0711,세븐일레븐 대치점,http://place.map.kakao.com/10565313,서울 강남구 삼성로 150,127.066546570906,37.4950354210473
서울 강남구 대치동 989,CS2,편의점,"가정,생활 > 편의점 > 세븐일레븐",,12149480,,세븐일레븐 대치은마사거리점,http://place.map.kakao.com/12149480,서울 강남구 삼성로 238,127.06133080368728,37.498670201003215
서울 강남구 삼성동 152,CS2,편의점,"가정,생활 > 편의점 > 세븐일레븐",,728052431,1577-0711,세븐일레븐 삼성베스트점,http://place.map.kakao.com/728052431,서울 강남구 삼성로104길 12,127.055738633216,37.5108554643646
서울 강남구 대치동 506,CS2,편의점,"가정,생활 > 편의점 > 세븐일레븐",,7950663,,세븐일레븐 대치3호점,http://place.map.kakao.com/7950663,서울 강남구 삼성로 151,127.0609768628213,37.49313550057345
서울 강남구 대치동 932,CS2,편의점,"가정,생활 > 편의점 > 세븐일레븐",,7950664,,세븐일레븐 대치공원점,http://place.map.kakao.com/7950664,서울 강남구 삼성로63길 21,127.058376463447,37.4994907124351
서울 강남구 대치동 507-2,CS2,편의점,"가정,생활 > 편의점 > 세븐일레븐",,18115698,1577-0711,세븐일레븐 대치역점,http://place.map.kakao.com/18115698,서울 강남구 삼성로 155,127.0627856954433,37.49396618254961
서울 강남구 청담동 5-29,CS2,편의점,"가정,생활 > 편의점 > 세븐일레븐",,19429396,1577-0711,세븐일레븐 청담황해점,http://place.map.kakao.com/19429396,서울 강남구 삼성로149길 32,127.04484826407784,37.52320925452216
서울 강남구 삼성동 141-19,CS2,편의점,"가정,생활 > 편의점 > 세븐일레븐",,13119469,02-557-7778,세븐일레븐 선릉오성점,http://place.map.kakao.com/13119469,서울 강남구 선릉로 510,127.048898813725,37.5051929756289
서울 강남구 청담동 40-24,CS2,편의점,"가정,생활 > 편의점 > 세븐일레븐",,1526103744,1577-0711,세븐일레븐 청담2점,http://place.map.kakao.com/1526103744,서울 강남구 선릉로132길 7,127.041731136316,37.5181701868236
서울 강남구 신사동 656-1,CS2,편의점,"가정,생활 > 편의점 > 세븐일레븐",,1940296580,1577-0711,세븐일레븐 모두스테이명동1호점,http://place.map.kakao.com/1940296580,서울 강남구 선릉로155길 27,127.037305188387,37.5256319702318
서울 강남구 역삼동 708-34,CS2,편의점,"가정,생활 > 편의점 > 세븐일레븐",,18116725,02-555-2850,세븐일레븐 역삼진선점,http://place.map.kakao.com/18116725,서울 강남구 선릉로85길 8,127.048865650144,37.5028972275379
서울 강남구 대치동 888-1,CS2,편의점,"가정,생활 > 편의점 > 세븐일레븐",,18117492,1577-0711,세븐일레븐 대치아이파크점,http://place.map.kakao.com/18117492,서울 강남구 선릉로 224,127.053601104662,37.4952798696652
서울 강남구 신사동 655-15,CS2,편의점,"가정,생활 > 편의점 > 세븐일레븐",,683933059,1577-0711,세븐일레븐 압구정가은점,http://place.map.kakao.com/683933059,서울 강남구 선릉로153길 18,127.037988100329,37.5248767126957
서울 강남구 논현동 111-29,CS2,편의점,"가정,생활 > 편의점 > 세븐일레븐",,7957121,,세븐일레븐 논현11호점,http://place.map.kakao.com/7957121,서울 강남구 선릉로131길 4,127.04058173089285,37.51791830640749
서울 강남구 논현동 242-28,CS2,편의점,"가정,생활 > 편의점 > 세븐일레븐",,2021898879,1577-0711,세븐일레븐 논현행운점,http://place.map.kakao.com/2021898879,서울 강남구 선릉로129길 5,127.041041196772,37.5162404792181
서울 강남구 대치동 670,CS2,편의점,"가정,생활 > 편의점 > 세븐일레븐",,1904289187,1577-0711,세븐일레븐 도곡센트레빌점,http://place.map.kakao.com/1904289187,서울 강남구 선릉로 206,127.055651803874,37.4914000861538
서울 강남구 논현동 240-12,CS2,편의점,"가정,생활 > 편의점 > 세븐일레븐",,10555131,,세븐일레븐 논현중앙점,http://place.map.kakao.com/10555131,서울 강남구 선릉로129길 20,127.039874916611,37.5161021241513
서울 강남구 논현동 254-29,CS2,편의점,"가정,생활 > 편의점 > 세븐일레븐",,7957122,02-540-3234,세븐일레븐 논현제일점,http://place.map.kakao.com/7957122,서울 강남구 선릉로 641,127.042416352152,37.5136901527131
서울 강남구 대치동 923-22,CS2,편의점,"가정,생활 > 편의점 > 세븐일레븐",,18118156,1577-0711,세븐일레븐 강남롯데점,http://place.map.kakao.com/18118156,서울 강남구 선릉로64길 15,127.053440305019,37.4981415392406
서울 강남구 삼성동 7-3,CS2,편의점,"가정,생활 > 편의점 > 세븐일레븐",,7950381,,세븐일레븐 삼성동래미안점,http://place.map.kakao.com/7950381,서울 강남구 선릉로130길 20,127.04263064249996,37.51657869357773
서울 강남구 대치동 890-59,CS2,편의점,"가정,생활 > 편의점 > 세븐일레븐",,12149643,1577-0711,세븐일레븐 골드로즈점,http://place.map.kakao.com/12149643,서울 강남구 선릉로86길 31,127.052182403045,37.504100453307444
서울 강남구 역삼동 756-11,CS2,편의점,"가정,생활 > 편의점 > 세븐일레븐",,56545361,1577-0711,세븐일레븐 강남SLI점,http://place.map.kakao.com/56545361,서울 강남구 선릉로69길 7,127.05120591958068,37.49844887101222
서울 강남구 도곡동 467-19,CS2,편의점,"가정,생활 > 편의점 > 세븐일레븐",,314911397,1577-0711,세븐일레븐 도곡비전점,http://place.map.kakao.com/314911397,서울 강남구 언주로30길 10,127.05154885305375,37.48733750210083
서울 강남구 역삼동 704-29,CS2,편의점,"가정,생활 > 편의점 > 세븐일레븐",,1276618019,010-9143-0800,세븐일레븐 강남선릉점,http://place.map.kakao.com/1276618019,서울 강남구 언주로98길 37,127.044808922471,37.5047116590021
서울 강남구 역삼동 656-34,CS2,편의점,"가정,생활 > 편의점 > 세븐일레븐",,1303610074,,세븐일레븐 역삼칼리도점,http://place.map.kakao.com/1303610074,서울 강남구 언주로103길 10,127.039273911893,37.5067616137066
서울 강남구 역삼동 719-33,CS2,편의점,"가정,생활 > 편의점 > 세븐일레븐",,1249350686,,세븐일레븐 역삼언주로점,http://place.map.kakao.com/1249350686,서울 강남구 언주로85길 24,127.0412736965,37.5009251194227
서울 강남구 신사동 637-18,CS2,편의점,"가정,생활 > 편의점 > 세븐일레븐",,1335234610,1577-0711,세븐일레븐 신사로데오점,http://place.map.kakao.com/1335234610,서울 강남구 언주로172길 15,127.035181542935,37.5277977297211
서울 강남구 역삼동 720-25,CS2,편의점,"가정,생활 > 편의점 > 세븐일레븐",,406042830,,세븐일레븐 역삼디오빌점,http://place.map.kakao.com/406042830,서울 강남구 언주로 427,127.042573376408,37.5013904782239
서울 강남구 논현동 115-1,CS2,편의점,"가정,생활 > 편의점 > 세븐일레븐",,1495181738,1577-0711,세븐일레븐 세관사거리점,http://place.map.kakao.com/1495181738,서울 강남구 언주로 708,127.035721434633,37.5162295938164
서울 강남구 역삼동 675-3,CS2,편의점,"가정,생활 > 편의점 > 세븐일레븐",,26428518,1577-0711,세븐일레븐 KT강남점,http://place.map.kakao.com/26428518,서울 강남구 언주로 517,127.041384195338,37.5044245867297
서울 강남구 역삼동 673-24,CS2,편의점,"가정,생활 > 편의점 > 세븐일레븐",,16528465,,세븐일레븐 역삼코넬점,http://place.map.kakao.com/16528465,서울 강남구 언주로93길 28-8,127.0396184855088,37.50390080695179
서울 강남구 역삼동 729,CS2,편의점,"가정,생활 > 편의점 > 세븐일레븐",,1442983680,,세븐일레븐 역삼은석점,http://place.map.kakao.com/1442983680,서울 강남구 언주로79길 33,127.041412671381,37.4986473273717
서울 강남구 논현동 68,CS2,편의점,"가정,생활 > 편의점 > 세븐일레븐",,13056387,1577-0711,세븐일레븐 논현타운점,http://place.map.kakao.com/13056387,서울 강남구 언주로147길 37,127.03122974828698,37.519123087695625
서울 강남구 역삼동 655,CS2,편의점,"가정,생활 > 편의점 > 세븐일레븐",,10477482,1577-0711,세븐일레븐 역삼해피점,http://place.map.kakao.com/10477482,서울 강남구 언주로107길 29,127.0368979153338,37.50723000136555
서울 강남구 논현동 93-15,CS2,편의점,"가정,생활 > 편의점 > 세븐일레븐",,18829169,,세븐일레븐 강남학동점,http://place.map.kakao.com/18829169,서울 강남구 언주로150길 51,127.038348726381,37.5221789947406
서울 강남구 역삼동 773,CS2,편의점,"가정,생활 > 편의점 > 세븐일레븐",,8370889,1577-0711,세븐일레븐 역삼22호점,http://place.map.kakao.com/8370889,서울 강남구 언주로71길 9,127.044275279967,37.4973452359974
서울 강남구 논현동 225-6,CS2,편의점,"가정,생활 > 편의점 > 세븐일레븐",,1316063603,1577-0711,세븐일레븐 논현아이파크점,http://place.map.kakao.com/1316063603,서울 강남구 언주로 615,127.03606724610373,37.51086851487592
서울 강남구 대치동 967,CS2,편의점,"가정,생활 > 편의점 > 세븐일레븐",,7956831,,세븐일레븐 대치덕일점,http://place.map.kakao.com/7956831,서울 강남구 역삼로 546,127.062881444146,37.5043141868602
서울 강남구 역삼동 790-20,CS2,편의점,"가정,생활 > 편의점 > 세븐일레븐",,1966921543,1577-0711,세븐일레븐 역삼화랑점,http://place.map.kakao.com/1966921543,서울 강남구 역삼로20길 9,127.037672020699,37.4947147847182
서울 강남구 대치동 900-8,CS2,편의점,"가정,생활 > 편의점 > 세븐일레븐",,8444599,02-563-4952,세븐일레븐 대치16호점,http://place.map.kakao.com/8444599,서울 강남구 역삼로63길 16,127.052289652247,37.5022037892082
서울 강남구 대치동 910,CS2,편의점,"가정,생활 > 편의점 > 세븐일레븐",,1913141356,1577-0711,세븐일레븐 대치역삼로점,http://place.map.kakao.com/1913141356,서울 강남구 역삼로 428,127.053927707328,37.5012840269065
서울 강남구 역삼동 754,CS2,편의점,"가정,생활 > 편의점 > 세븐일레븐",,16905222,1577-0711,세븐일레븐 역삼개나리점,http://place.map.kakao.com/16905222,서울 강남구 역삼로 306,127.04764984855635,37.499272977555385
서울 강남구 대치동 919-16,CS2,편의점,"가정,생활 > 편의점 > 세븐일레븐",,7949520,02-501-9386,세븐일레븐 대치10호점,http://place.map.kakao.com/7949520,서울 강남구 역삼로64길 25,127.053576979886,37.4995001946887
서울 강남구 일원동 662-1,CS2,편의점,"가정,생활 > 편의점 > 세븐일레븐",,2009650145,,세븐일레븐 일원미래점,http://place.map.kakao.com/2009650145,서울 강남구 일원로5길 58,127.084939477568,37.4921295946324
서울 강남구 일원동 717,CS2,편의점,"가정,생활 > 편의점 > 세븐일레븐",,558000924,1577-0711,세븐일레븐 S3일원역점,http://place.map.kakao.com/558000924,서울 강남구 일원로 115,127.08432984838508,37.483957891530416
서울 강남구 자곡동 662,CS2,편의점,"가정,생활 > 편의점 > 세븐일레븐",,1754066575,1577-0711,세븐일레븐 자곡신영점,http://place.map.kakao.com/1754066575,서울 강남구 자곡로 204-5,127.105205260248,37.4743859479763
서울 강남구 논현동 113-16,CS2,편의점,"가정,생활 > 편의점 > 세븐일레븐",,7956194,,세븐일레븐 논현13호점,http://place.map.kakao.com/7956194,서울 강남구 학동로43길 14,127.03750787850706,37.51697326895568
서울 강남구 청담동 71-25,CS2,편의점,"가정,생활 > 편의점 > 세븐일레븐",,347593720,1577-0711,세븐일레븐 청담튼튼병원점,http://place.map.kakao.com/347593720,서울 강남구 학동로97길 20,127.05543285406843,37.52102883965089
서울 강남구 논현동 149-36,CS2,편의점,"가정,생활 > 편의점 > 세븐일레븐",,16298489,02-511-5802,세븐일레븐 논현한어울림점,http://place.map.kakao.com/16298489,서울 강남구 학동로12길 47,127.027923275029,37.5099607062792
서울 강남구 청담동 72-3,CS2,편의점,"가정,생활 > 편의점 > 세븐일레븐",,20103562,,세븐일레븐 청담루나점,http://place.map.kakao.com/20103562,서울 강남구 학동로 523,127.05611087678396,37.520086971487736
서울 강남구 삼성동 64,CS2,편의점,"가정,생활 > 편의점 > 세븐일레븐",,14680277,,세븐일레븐 강남청담점,http://place.map.kakao.com/14680277,서울 강남구 학동로82길 21,127.051965594724,37.5176363374894
서울 강남구 논현동 83-20,CS2,편의점,"가정,생활 > 편의점 > 세븐일레븐",,1090064088,1577-0711,세븐일레븐 논현건설회관점,http://place.map.kakao.com/1090064088,서울 강남구 학동로37길 23,127.03434735368069,37.51678682157844
서울 강남구 신사동 541-19,CS2,편의점,"가정,생활 > 편의점 > 세븐일레븐",,7948209,02-3446-1913,세븐일레븐 신사4호점,http://place.map.kakao.com/7948209,서울 강남구 도산대로15길 7,127.023818094242,37.5187085513743
서울 강남구 신사동 524-13,CS2,편의점,"가정,생활 > 편의점 > 세븐일레븐",,7955984,02-515-9732,세븐일레븐 신사5호점,http://place.map.kakao.com/7955984,서울 강남구 강남대로162길 45,127.022049641751,37.5211235829628
서울 강남구 신사동 559-28,CS2,편의점,"가정,생활 > 편의점 > 세븐일레븐",,921754409,1577-0711,세븐일레븐 신사무지개점,http://place.map.kakao.com/921754409,서울 강남구 도산대로19길 16,127.02531163806,37.5198579207737
서울 강남구 신사동 561-31,CS2,편의점,"가정,생활 > 편의점 > 세븐일레븐",,860481713,,세븐일레븐 신사대로점,http://place.map.kakao.com/860481713,서울 강남구 도산대로 157,127.025740636336,37.5190121465208
서울 강남구 신사동 566-4,CS2,편의점,"가정,생활 > 편의점 > 세븐일레븐",,110574416,,세븐일레븐 신사압구정본점,http://place.map.kakao.com/110574416,서울 강남구 논현로157길 22,127.026262751345,37.5224507993661
서울 강남구 신사동 514-21,CS2,편의점,"가정,생활 > 편의점 > 세븐일레븐",,1149454476,1577-0711,세븐일레븐 신사만남점,http://place.map.kakao.com/1149454476,서울 강남구 강남대로152길 26,127.021559928248,37.5175484928627
서울 강남구 신사동 509-7,CS2,편의점,"가정,생활 > 편의점 > 세븐일레븐",,514416019,1577-0711,세븐일레븐 신강남신사점,http://place.map.kakao.com/514416019,서울 강남구 도산대로1길 28,127.019856673514,37.5185813413244
서울 강남구 논현동 10-5,CS2,편의점,"가정,생활 > 편의점 > 세븐일레븐",,16531630,,세븐일레븐 논현14호점,http://place.map.kakao.com/16531630,서울 강남구 논현로149길 35,127.025677362505,37.5175728976141
서울 강남구 신사동 573-2,CS2,편의점,"가정,생활 > 편의점 > 세븐일레븐",,78014378,,세븐일레븐 압구정 11호점,http://place.map.kakao.com/78014378,서울 강남구 압구정로18길 5,127.024385594101,37.5245793697815
서울 강남구 신사동 567-23,CS2,편의점,"가정,생활 > 편의점 > 세븐일레븐",,8446796,02-3446-2991,세븐일레븐 신사한나래점,http://place.map.kakao.com/8446796,서울 강남구 논현로159길 10,127.027326333604,37.523057833843
서울 강남구 신사동 590-22,CS2,편의점,"가정,생활 > 편의점 > 세븐일레븐",,1810689260,1577-0711,세븐일레븐 신사제일점,http://place.map.kakao.com/1810689260,서울 강남구 논현로 808,127.028418300279,37.5209086846255
서울 강남구 역삼동 826-27,CS2,편의점,"가정,생활 > 편의점 > 세븐일레븐",,143879654,1577-0711,세븐일레븐 역삼타워점,http://place.map.kakao.com/143879654,서울 강남구 강남대로84길 16,127.03012011185031,37.49674241466143
서울 강남구 역삼동 817-11,CS2,편의점,"가정,생활 > 편의점 > 세븐일레븐",,1093931949,1577-0711,세븐일레븐 뉴강남센터점,http://place.map.kakao.com/1093931949,서울 강남구 강남대로96길 9,127.027736307654,37.4998577773668
서울 강남구 신사동 514-21,CS2,편의점,"가정,생활 > 편의점 > 세븐일레븐",,1149454476,1577-0711,세븐일레븐 신사만남점,http://place.map.kakao.com/1149454476,서울 강남구 강남대로152길 26,127.021559928248,37.5175484928627
서울 강남구 역삼동 831-3,CS2,편의점,"가정,생활 > 편의점 > 세븐일레븐",,1649155687,1577-0711,세븐일레븐 역삼태극점,http://place.map.kakao.com/1649155687,서울 강남구 강남대로78길 8,127.030080842338,37.4946962383426
서울 강남구 역삼동 838-7,CS2,편의점,"가정,생활 > 편의점 > 세븐일레븐",,8370888,1577-0711,세븐일레븐 역삼15호점,http://place.map.kakao.com/8370888,서울 강남구 강남대로62길 18,127.03308807412475,37.4904570963859
서울 강남구 논현동 183-11,CS2,편의점,"가정,생활 > 편의점 > 세븐일레븐",,775130883,1577-0711,세븐일레븐 논현한바위점,http://place.map.kakao.com/775130883,서울 강남구 강남대로118길 30,127.025778871349,37.5068473210905
서울 강남구 논현동 125-8,CS2,편의점,"가정,생활 > 편의점 > 세븐일레븐",,16877580,,세븐일레븐 논현흥산점,http://place.map.kakao.com/16877580,서울 강남구 강남대로128길 69,127.027059985708,37.5122602704311
서울 강남구 역삼동 813-18,CS2,편의점,"가정,생활 > 편의점 > 세븐일레븐",,7949987,,세븐일레븐 역삼8호점,http://place.map.kakao.com/7949987,서울 강남구 강남대로102길 11,127.026735079946,37.5019456390158
서울 강남구 역삼동 827-44,CS2,편의점,"가정,생활 > 편의점 > 세븐일레븐",,18117245,,세븐일레븐 역삼타운점,http://place.map.kakao.com/18117245,서울 강남구 강남대로84길 28,127.030967215163,37.4969818633943
서울 강남구 역삼동 832-10,CS2,편의점,"가정,생활 > 편의점 > 세븐일레븐",,10557066,,세븐일레븐 역삼발렌타인점,http://place.map.kakao.com/10557066,서울 강남구 강남대로66길 7,127.03137896598936,37.491865837313604
서울 강남구 논현동 139-32,CS2,편의점,"가정,생활 > 편의점 > 세븐일레븐",,1495557148,,세븐일레븐 논현영동점,http://place.map.kakao.com/1495557148,서울 강남구 강남대로128길 34,127.02484134688859,37.51048397725559
서울 강남구 신사동 524-13,CS2,편의점,"가정,생활 > 편의점 > 세븐일레븐",,7955984,02-515-9732,세븐일레븐 신사5호점,http://place.map.kakao.com/7955984,서울 강남구 강남대로162길 45,127.022049641751,37.5211235829628
서울 강남구 논현동 139,CS2,편의점,"가정,생활 > 편의점 > 세븐일레븐",,7956193,,세븐일레븐 논현12호점,http://place.map.kakao.com/7956193,서울 강남구 강남대로128길 48,127.025638984225,37.5111974023366
서울 강남구 논현동 147-20,CS2,편의점,"가정,생활 > 편의점 > 세븐일레븐",,15225874,,세븐일레븐 논현스타우스점,http://place.map.kakao.com/15225874,서울 강남구 강남대로124길 46,127.025968753269,37.509748515061
서울 강남구 논현동 20-15,CS2,편의점,"가정,생활 > 편의점 > 세븐일레븐",,16330125,1577-0711,세븐일레븐 논현학나래점,http://place.map.kakao.com/16330125,서울 강남구 강남대로136길 7,127.021404838648,37.5131660387766
서울 강남구 신사동 657-28,CS2,편의점,"가정,생활 > 편의점 > 세븐일레븐",,35345399,1577-0711,세븐일레븐 압구정로데오본점,http://place.map.kakao.com/35345399,서울 강남구 도산대로51길 44,127.03839366665729,37.525991121252105
서울 강남구 신사동 561-31,CS2,편의점,"가정,생활 > 편의점 > 세븐일레븐",,860481713,,세븐일레븐 신사대로점,http://place.map.kakao.com/860481713,서울 강남구 도산대로 157,127.025740636336,37.5190121465208
서울 강남구 청담동 58-12,CS2,편의점,"가정,생활 > 편의점 > 세븐일레븐",,8377919,,세븐일레븐 청담7호점,http://place.map.kakao.com/8377919,서울 강남구 도산대로96길 13,127.050974322996,37.5237383608833
서울 강남구 신사동 509-7,CS2,편의점,"가정,생활 > 편의점 > 세븐일레븐",,514416019,1577-0711,세븐일레븐 신강남신사점,http://place.map.kakao.com/514416019,서울 강남구 도산대로1길 28,127.019856673514,37.5185813413244
서울 강남구 신사동 666-15,CS2,편의점,"가정,생활 > 편의점 > 세븐일레븐",,2083689318,02-511-7453,세븐일레븐 학동사거리점,http://place.map.kakao.com/2083689318,서울 강남구 도산대로 335,127.038534865451,37.5233790696053
서울 강남구 청담동 87-10,CS2,편의점,"가정,생활 > 편의점 > 세븐일레븐",,1446587623,1577-0711,세븐일레븐 청담누리점,http://place.map.kakao.com/1446587623,서울 강남구 도산대로57길 7,127.041111100478,37.5240737748414
서울 강남구 논현동 96,CS2,편의점,"가정,생활 > 편의점 > 세븐일레븐",,7950318,02-512-9702,세븐일레븐 논현6호점,http://place.map.kakao.com/7950318,서울 강남구 도산대로46길 11,127.036538361898,37.52136866620037
서울 강남구 신사동 559-28,CS2,편의점,"가정,생활 > 편의점 > 세븐일레븐",,921754409,1577-0711,세븐일레븐 신사무지개점,http://place.map.kakao.com/921754409,서울 강남구 도산대로19길 16,127.02531163806,37.5198579207737
서울 강남구 신사동 626,CS2,편의점,"가정,생활 > 편의점 > 세븐일레븐",,7950831,,세븐일레븐 리갈펠리스점,http://place.map.kakao.com/7950831,서울 강남구 도산대로35길 46,127.030715822853,37.5237453669077
서울 강남구 청담동 100-21,CS2,편의점,"가정,생활 > 편의점 > 세븐일레븐",,18111822,02-549-3378,세븐일레븐 청담그린점,http://place.map.kakao.com/18111822,서울 강남구 도산대로81길 39,127.046659309366,37.526713451624
서울 강남구 신사동 541-19,CS2,편의점,"가정,생활 > 편의점 > 세븐일레븐",,7948209,02-3446-1913,세븐일레븐 신사4호점,http://place.map.kakao.com/7948209,서울 강남구 도산대로15길 7,127.023818094242,37.5187085513743
서울 강남구 청담동 21-17,CS2,편의점,"가정,생활 > 편의점 > 세븐일레븐",,809508071,1577-0711,세븐일레븐 청담유시어터점,http://place.map.kakao.com/809508071,서울 강남구 도산대로58길 17,127.041514988426,37.5220833189639
서울 강남구 청담동 109-14,CS2,편의점,"가정,생활 > 편의점 > 세븐일레븐",,868074680,,세븐일레븐 청담대우점,http://place.map.kakao.com/868074680,서울 강남구 도산대로99길 26,127.051243110756,37.5263871910357
서울 강남구 수서동 214-16,CS2,편의점,"가정,생활 > 편의점 > 세븐일레븐",,727897025,02-3411-1020,세븐일레븐 수서역사1호점,http://place.map.kakao.com/727897025,서울 강남구 밤고개로 99,127.10460223766691,37.48541032607959
서울 강남구 수서동 713,CS2,편의점,"가정,생활 > 편의점 > 세븐일레븐",,2125578806,1577-0711,세븐일레븐 수서벤처점,http://place.map.kakao.com/2125578806,서울 강남구 밤고개로1길 10,127.102052508469,37.4878632971571
서울 강남구 삼성동 36-25,CS2,편의점,"가정,생활 > 편의점 > 세븐일레븐",,1397501365,1577-0711,세븐일레븐 삼성플러스원점,http://place.map.kakao.com/1397501365,서울 강남구 봉은사로57길 13,127.044944250165,37.5116097003826
서울 강남구 역삼동 601-15,CS2,편의점,"가정,생활 > 편의점 > 세븐일레븐",,18118076,,세븐일레븐 역삼보브점,http://place.map.kakao.com/18118076,서울 강남구 봉은사로 114,127.026107251683,37.5047208766586
서울 강남구 역삼동 603-7,CS2,편의점,"가정,생활 > 편의점 > 세븐일레븐",,584362052,,세븐일레븐 신논현강남점,http://place.map.kakao.com/584362052,서울 강남구 봉은사로 140,127.030087610057,37.5059272769787
서울 강남구 삼성동 147-2,CS2,편의점,"가정,생활 > 편의점 > 세븐일레븐",,558134189,1577-0711,세븐일레븐 삼성봉은사점,http://place.map.kakao.com/558134189,서울 강남구 봉은사로 516,127.055993770161,37.5132375987249
서울 강남구 삼성동 162-13,CS2,편의점,"가정,생활 > 편의점 > 세븐일레븐",,19429643,,세븐일레븐 삼성대웅점,http://place.map.kakao.com/19429643,서울 강남구 봉은사로 638,127.06509824906,37.5148727588421
서울 강남구 삼성동 41-21,CS2,편의점,"가정,생활 > 편의점 > 세븐일레븐",,8381647,1577-0711,세븐일레븐 삼성8호점,http://place.map.kakao.com/8381647,서울 강남구 봉은사로63길 11,127.046912631732,37.5121171014076
서울 강남구 논현동 194,CS2,편의점,"가정,생활 > 편의점 > 세븐일레븐",,560794743,02-514-4531,세븐일레븐 논현혜인점,http://place.map.kakao.com/560794743,서울 강남구 봉은사로13길 10,127.029600506801,37.5068175931016
서울 강남구 역삼동 659-20,CS2,편의점,"가정,생활 > 편의점 > 세븐일레븐",,1393705855,1577-0711,세븐일레븐 역삼화인점,http://place.map.kakao.com/1393705855,서울 강남구 봉은사로30길 28,127.035448368061,37.5056870235398
서울 강남구 논현동 203-1,CS2,편의점,"가정,생활 > 편의점 > 세븐일레븐",,7886420,02-3443-5612,세븐일레븐 거평타운점,http://place.map.kakao.com/7886420,서울 강남구 봉은사로 129,127.0281581085644,37.50582053305919
서울 강남구 논현동 231,CS2,편의점,"가정,생활 > 편의점 > 세븐일레븐",,1492226242,,세븐일레븐 강남YMCA점,http://place.map.kakao.com/1492226242,서울 강남구 봉은사로37길 28,127.03593114229199,37.51008288045113
서울 강남구 역삼동 690-2,CS2,편의점,"가정,생활 > 편의점 > 세븐일레븐",,16418012,,세븐일레븐 역삼우일점,http://place.map.kakao.com/16418012,서울 강남구 봉은사로44길 39,127.04137308530295,37.50683568054612
서울 강남구 역삼동 683,CS2,편의점,"가정,생활 > 편의점 > 세븐일레븐",,18118078,,세븐일레븐 선릉스타점,http://place.map.kakao.com/18118078,서울 강남구 봉은사로50길 19,127.043481336336,37.5089036304697
서울 강남구 삼성동 110,CS2,편의점,"가정,생활 > 편의점 > 세븐일레븐",,2090778622,1577-0711,세븐일레븐 삼성국순당점,http://place.map.kakao.com/2090778622,서울 강남구 봉은사로111길 8,127.06541919751909,37.51583665539814
서울 강남구 역삼동 684,CS2,편의점,"가정,생활 > 편의점 > 세븐일레븐",,1937670139,,세븐일레븐 역삼선릉로점,http://place.map.kakao.com/1937670139,서울 강남구 봉은사로48길 13,127.041689662211,37.5086844312492
서울 강남구 논현동 278-4,CS2,편의점,"가정,생활 > 편의점 > 세븐일레븐",,949811023,,세븐일레븐 선정릉점,http://place.map.kakao.com/949811023,서울 강남구 봉은사로 333,127.043060400434,37.5105373059578
서울 강남구 신사동 658,CS2,편의점,"가정,생활 > 편의점 > 세븐일레븐",,2050052359,1577-0711,세븐일레븐 압구정로데오현대점,http://place.map.kakao.com/2050052359,서울 강남구 압구정로50길 28,127.0373011692965,37.526648301845896
서울 강남구 신사동 576-7,CS2,편의점,"가정,생활 > 편의점 > 세븐일레븐",,7879070,02-517-8617,세븐일레븐 압구정2점,http://place.map.kakao.com/7879070,서울 강남구 압구정로28길 28,127.02754640580662,37.524719231229916
서울 강남구 신사동 610-4,CS2,편의점,"가정,생활 > 편의점 > 세븐일레븐",,1972092517,,세븐일레븐 신사증권점,http://place.map.kakao.com/1972092517,서울 강남구 압구정로30길 18,127.028998440311,37.5263109545155
서울 강남구 신사동 664,CS2,편의점,"가정,생활 > 편의점 > 세븐일레븐",,7949812,1577-0711,세븐일레븐 압구정로데오점,http://place.map.kakao.com/7949812,서울 강남구 압구정로 344,127.03982681490542,37.52775390750074
서울 강남구 신사동 620,CS2,편의점,"가정,생활 > 편의점 > 세븐일레븐",,721886504,,세븐일레븐 압구정스퀘어점,http://place.map.kakao.com/721886504,서울 강남구 압구정로34길 11,127.03092216151883,37.52757727528323
서울 강남구 신사동 573-2,CS2,편의점,"가정,생활 > 편의점 > 세븐일레븐",,78014378,,세븐일레븐 압구정 11호점,http://place.map.kakao.com/78014378,서울 강남구 압구정로18길 5,127.024385594101,37.5245793697815
서울 강남구 일원동 644-2,CS2,편의점,"가정,생활 > 편의점 > 세븐일레븐",,995266109,1577-0711,세븐일레븐 일원본점,http://place.map.kakao.com/995266109,서울 강남구 양재대로55길 13,127.087589508892,37.4916924732078
서울 강남구 삼성동 159,CS2,편의점,"가정,생활 > 편의점 > 세븐일레븐",,1596490975,1577-0711,세븐일레븐 코엑스아셈타워점,http://place.map.kakao.com/1596490975,서울 강남구 영동대로 517,127.05960303087595,37.51315474226055
서울 강남구 대치동 1001-6,CS2,편의점,"가정,생활 > 편의점 > 세븐일레븐",,10404141,1577-0711,세븐일레븐 대치코스모점,http://place.map.kakao.com/10404141,서울 강남구 영동대로86길 10,127.064951881254,37.507823382251
서울 강남구 삼성동 166-8,CS2,편의점,"가정,생활 > 편의점 > 세븐일레븐",,1494700896,1577-0711,세븐일레븐 삼성중앙점,http://place.map.kakao.com/1494700896,서울 강남구 영동대로96길 37,127.065529804053,37.5116757582215
서울 강남구 역삼동 819-10,CS2,편의점,"가정,생활 > 편의점 > 세븐일레븐",,37304029,1577-0711,세븐일레븐 강남스퀘어점,http://place.map.kakao.com/37304029,서울 강남구 테헤란로1길 10,127.028226778159,37.498961160035
서울 강남구 대치동 999-2,CS2,편의점,"가정,생활 > 편의점 > 세븐일레븐",,13119458,,세븐일레븐 대치삼화점,http://place.map.kakao.com/13119458,서울 강남구 테헤란로114길 20,127.06669073550525,37.5083693231949
서울 강남구 역삼동 677-6,CS2,편의점,"가정,생활 > 편의점 > 세븐일레븐",,11132387,,세븐일레븐 르네상스점,http://place.map.kakao.com/11132387,서울 강남구 테헤란로37길 15,127.04041990985162,37.50311666064315
서울 강남구 대치동 946,CS2,편의점,"가정,생활 > 편의점 > 세븐일레븐",,76222588,1577-0711,세븐일레븐 삼성역점,http://place.map.kakao.com/76222588,서울 강남구 테헤란로 532,127.06225472000149,37.50819334546962
서울 강남구 대치동 995-23,CS2,편의점,"가정,생활 > 편의점 > 세븐일레븐",,21656683,,세븐일레븐 대치11호점,http://place.map.kakao.com/21656683,서울 강남구 테헤란로104길 12,127.065006573064,37.5082882706126
서울 강남구 역삼동 637-9,CS2,편의점,"가정,생활 > 편의점 > 세븐일레븐",,1288267276,,세븐일레븐 역삼피에스따점,http://place.map.kakao.com/1288267276,서울 강남구 테헤란로19길 29,127.03281265014253,37.50189184887806
서울 강남구 역삼동 735-10,CS2,편의점,"가정,생활 > 편의점 > 세븐일레븐",,7886457,1577-0711,세븐일레븐 역삼은탑점,http://place.map.kakao.com/7886457,서울 강남구 테헤란로14길 5,127.033198153814,37.4990175319758
서울 강남구 역삼동 718-10,CS2,편의점,"가정,생활 > 편의점 > 세븐일레븐",,2138553328,1577-0711,세븐일레븐 뉴역삼한은점,http://place.map.kakao.com/2138553328,서울 강남구 테헤란로28길 7,127.038939350622,37.5006411940679
서울 강남구 역삼동 642-3,CS2,편의점,"가정,생활 > 편의점 > 세븐일레븐",,1328866196,,세븐일레븐 역삼하이츠점,http://place.map.kakao.com/1328866196,서울 강남구 테헤란로25길 6-9,127.035967648667,37.5013052766039
서울 강남구 대치동 891-6,CS2,편의점,"가정,생활 > 편의점 > 세븐일레븐",,332346046,1577-0711,세븐일레븐 테헤란로점,http://place.map.kakao.com/332346046,서울 강남구 테헤란로 428,127.054183086608,37.5056916288918
서울 강남구 역삼동 827-70,CS2,편의점,"가정,생활 > 편의점 > 세븐일레븐",,1932269123,1577-0711,세븐일레븐 역삼만남점,http://place.map.kakao.com/1932269123,서울 강남구 테헤란로6길 47,127.031822684823,37.4956048978804
서울 강남구 역삼동 705-19,CS2,편의점,"가정,생활 > 편의점 > 세븐일레븐",,20279702,1577-0711,세븐일레븐 역삼MG스타점,http://place.map.kakao.com/20279702,서울 강남구 테헤란로 335,127.04824475235948,37.50463642329059
서울 강남구 역삼동 702-13,CS2,편의점,"가정,생활 > 편의점 > 세븐일레븐",,384940326,1577-0711,세븐일레븐 역삼성지점,http://place.map.kakao.com/384940326,서울 강남구 테헤란로 313,127.045260759879,37.5038014712886
서울 강남구 대치동 943-24,CS2,편의점,"가정,생활 > 편의점 > 세븐일레븐",,381806652,1577-0711,세븐일레븐 메트로칸점,http://place.map.kakao.com/381806652,서울 강남구 테헤란로88길 10,127.059436311827,37.5068838351787
서울 강남구 역삼동 707-34,CS2,편의점,"가정,생활 > 편의점 > 세븐일레븐",,8372402,,세븐일레븐 한신점,http://place.map.kakao.com/8372402,서울 강남구 테헤란로 322,127.046676514696,37.5034819644172
서울 강남구 도곡동 951,CS2,편의점,"가정,생활 > 편의점 > 세븐일레븐",,13056293,02-529-6225,세븐일레븐 도곡중앙점,http://place.map.kakao.com/13056293,서울 강남구 남부순환로351길 30,127.034033954097,37.4867311603196
서울 강남구 도곡동 900-2,CS2,편의점,"가정,생활 > 편의점 > 세븐일레븐",,8444600,,세븐일레븐 도곡2호점,http://place.map.kakao.com/8444600,서울 강남구 남부순환로365길 38,127.039914109759,37.4877384491159
서울 강남구 도곡동 174-40,CS2,편의점,"가정,생활 > 편의점 > 세븐일레븐",,1578372513,1577-0711,세븐일레븐 도곡시네마점,http://place.map.kakao.com/1578372513,서울 강남구 남부순환로 2747,127.04663356569822,37.48715754084108
서울 강남구 도곡동 920-2,CS2,편의점,"가정,생활 > 편의점 > 세븐일레븐",,19429620,,세븐일레븐 강남도곡점,http://place.map.kakao.com/19429620,서울 강남구 남부순환로361길 6,127.03767310916744,37.48562451891747
서울 강남구 신사동 509-7,CS2,편의점,"가정,생활 > 편의점 > 세븐일레븐",,514416019,1577-0711,세븐일레븐 신강남신사점,http://place.map.kakao.com/514416019,서울 강남구 도산대로1길 28,127.019856673514,37.5185813413244
서울 강남구 수서동 713,CS2,편의점,"가정,생활 > 편의점 > 세븐일레븐",,2125578806,1577-0711,세븐일레븐 수서벤처점,http://place.map.kakao.com/2125578806,서울 강남구 밤고개로1길 10,127.102052508469,37.4878632971571
서울 강남구 역삼동 819-10,CS2,편의점,"가정,생활 > 편의점 > 세븐일레븐",,37304029,1577-0711,세븐일레븐 강남스퀘어점,http://place.map.kakao.com/37304029,서울 강남구 테헤란로1길 10,127.028226778159,37.498961160035
서울 강남구 삼성동 156-13,CS2,편의점,"가정,생활 > 편의점 > 세븐일레븐",,218359203,,세븐일레븐 삼성예술점,http://place.map.kakao.com/218359203,서울 강남구 삼성로100길 8,127.05609958164807,37.509531717939275
서울 강남구 역삼동 813-18,CS2,편의점,"가정,생활 > 편의점 > 세븐일레븐",,7949987,,세븐일레븐 역삼8호점,http://place.map.kakao.com/7949987,서울 강남구 강남대로102길 11,127.026735079946,37.5019456390158
서울 강남구 역삼동 656-34,CS2,편의점,"가정,생활 > 편의점 > 세븐일레븐",,1303610074,,세븐일레븐 역삼칼리도점,http://place.map.kakao.com/1303610074,서울 강남구 언주로103길 10,127.039273911893,37.5067616137066
서울 강남구 대치동 995-23,CS2,편의점,"가정,생활 > 편의점 > 세븐일레븐",,21656683,,세븐일레븐 대치11호점,http://place.map.kakao.com/21656683,서울 강남구 테헤란로104길 12,127.065006573064,37.5082882706126
서울 강남구 삼성동 152,CS2,편의점,"가정,생활 > 편의점 > 세븐일레븐",,728052431,1577-0711,세븐일레븐 삼성베스트점,http://place.map.kakao.com/728052431,서울 강남구 삼성로104길 12,127.055738633216,37.5108554643646
서울 강남구 역삼동 614-20,CS2,편의점,"가정,생활 > 편의점 > 세븐일레븐",,10477480,,세븐일레븐 역삼14호점,http://place.map.kakao.com/10477480,서울 강남구 논현로105길 53,127.029984371826,37.5051308145897
서울 강남구 역삼동 655,CS2,편의점,"가정,생활 > 편의점 > 세븐일레븐",,10477482,1577-0711,세븐일레븐 역삼해피점,http://place.map.kakao.com/10477482,서울 강남구 언주로107길 29,127.0368979153338,37.50723000136555
서울 강남구 개포동 12,CS2,편의점,"가정,생활 > 편의점 > 세븐일레븐",,12149670,,세븐일레븐 강남대청점,http://place.map.kakao.com/12149670,서울 강남구 개포로109길 9,127.07580298686561,37.49343596329679
서울 강남구 삼성동 110,CS2,편의점,"가정,생활 > 편의점 > 세븐일레븐",,2090778622,1577-0711,세븐일레븐 삼성국순당점,http://place.map.kakao.com/2090778622,서울 강남구 봉은사로111길 8,127.06541919751909,37.51583665539814
서울 강남구 대치동 999-2,CS2,편의점,"가정,생활 > 편의점 > 세븐일레븐",,13119458,,세븐일레븐 대치삼화점,http://place.map.kakao.com/13119458,서울 강남구 테헤란로114길 20,127.06669073550525,37.5083693231949
서울 강남구 삼성동 27-17,CS2,편의점,"가정,생활 > 편의점 > 세븐일레븐",,10556655,02-548-3684,세븐일레븐 삼성10호점,http://place.map.kakao.com/10556655,서울 강남구 삼성로115길 46,127.048524512652,37.5140085587237
서울 강남구 논현동 183-11,CS2,편의점,"가정,생활 > 편의점 > 세븐일레븐",,775130883,1577-0711,세븐일레븐 논현한바위점,http://place.map.kakao.com/775130883,서울 강남구 강남대로118길 30,127.025778871349,37.5068473210905
서울 강남구 개포동 1196,CS2,편의점,"가정,생활 > 편의점 > 세븐일레븐",,18112313,02-571-4934,세븐일레븐 세븐포이3호점,http://place.map.kakao.com/18112313,서울 강남구 논현로12길 19-9,127.048657795992,37.4753733300577
서울 강남구 논현동 149-36,CS2,편의점,"가정,생활 > 편의점 > 세븐일레븐",,16298489,02-511-5802,세븐일레븐 논현한어울림점,http://place.map.kakao.com/16298489,서울 강남구 학동로12길 47,127.027923275029,37.5099607062792
서울 강남구 논현동 147-20,CS2,편의점,"가정,생활 > 편의점 > 세븐일레븐",,15225874,,세븐일레븐 논현스타우스점,http://place.map.kakao.com/15225874,서울 강남구 강남대로124길 46,127.025968753269,37.509748515061
서울 강남구 논현동 125-8,CS2,편의점,"가정,생활 > 편의점 > 세븐일레븐",,16877580,,세븐일레븐 논현흥산점,http://place.map.kakao.com/16877580,서울 강남구 강남대로128길 69,127.027059985708,37.5122602704311
서울 강남구 논현동 139-32,CS2,편의점,"가정,생활 > 편의점 > 세븐일레븐",,1495557148,,세븐일레븐 논현영동점,http://place.map.kakao.com/1495557148,서울 강남구 강남대로128길 34,127.02484134688859,37.51048397725559
서울 강남구 논현동 139,CS2,편의점,"가정,생활 > 편의점 > 세븐일레븐",,7956193,,세븐일레븐 논현12호점,http://place.map.kakao.com/7956193,서울 강남구 강남대로128길 48,127.025638984225,37.5111974023366
서울 강남구 일원동 625-21,CS2,편의점,"가정,생활 > 편의점 > 세븐일레븐",,1472605341,1577-0711,세븐일레븐 일원엘림점,http://place.map.kakao.com/1472605341,서울 강남구 개포로128길 22,127.08368259422,37.4936279651744
서울 강남구 논현동 242-28,CS2,편의점,"가정,생활 > 편의점 > 세븐일레븐",,2021898879,1577-0711,세븐일레븐 논현행운점,http://place.map.kakao.com/2021898879,서울 강남구 선릉로129길 5,127.041041196772,37.5162404792181
서울 강남구 논현동 240-12,CS2,편의점,"가정,생활 > 편의점 > 세븐일레븐",,10555131,,세븐일레븐 논현중앙점,http://place.map.kakao.com/10555131,서울 강남구 선릉로129길 20,127.039874916611,37.5161021241513
서울 강남구 논현동 194,CS2,편의점,"가정,생활 > 편의점 > 세븐일레븐",,560794743,02-514-4531,세븐일레븐 논현혜인점,http://place.map.kakao.com/560794743,서울 강남구 봉은사로13길 10,127.029600506801,37.5068175931016
서울 강남구 삼성동 7-3,CS2,편의점,"가정,생활 > 편의점 > 세븐일레븐",,7950381,,세븐일레븐 삼성동래미안점,http://place.map.kakao.com/7950381,서울 강남구 선릉로130길 20,127.04263064249996,37.51657869357773
서울 강남구 논현동 111-29,CS2,편의점,"가정,생활 > 편의점 > 세븐일레븐",,7957121,,세븐일레븐 논현11호점,http://place.map.kakao.com/7957121,서울 강남구 선릉로131길 4,127.04058173089285,37.51791830640749
서울 강남구 논현동 86-4,CS2,편의점,"가정,생활 > 편의점 > 세븐일레븐",,1262850215,1577-0711,세븐일레븐 논현보람점,http://place.map.kakao.com/1262850215,서울 강남구 논현로132길 15,127.03187287181711,37.515239590975895
서울 강남구 청담동 40-24,CS2,편의점,"가정,생활 > 편의점 > 세븐일레븐",,1526103744,1577-0711,세븐일레븐 청담2점,http://place.map.kakao.com/1526103744,서울 강남구 선릉로132길 7,127.041731136316,37.5181701868236
서울 강남구 논현동 20-15,CS2,편의점,"가정,생활 > 편의점 > 세븐일레븐",,16330125,1577-0711,세븐일레븐 논현학나래점,http://place.map.kakao.com/16330125,서울 강남구 강남대로136길 7,127.021404838648,37.5131660387766
서울 강남구 역삼동 735-10,CS2,편의점,"가정,생활 > 편의점 > 세븐일레븐",,7886457,1577-0711,세븐일레븐 역삼은탑점,http://place.map.kakao.com/7886457,서울 강남구 테헤란로14길 5,127.033198153814,37.4990175319758
서울 강남구 논현동 68,CS2,편의점,"가정,생활 > 편의점 > 세븐일레븐",,13056387,1577-0711,세븐일레븐 논현타운점,http://place.map.kakao.com/13056387,서울 강남구 언주로147길 37,127.03122974828698,37.519123087695625
서울 강남구 논현동 10-5,CS2,편의점,"가정,생활 > 편의점 > 세븐일레븐",,16531630,,세븐일레븐 논현14호점,http://place.map.kakao.com/16531630,서울 강남구 논현로149길 35,127.025677362505,37.5175728976141
서울 강남구 청담동 5-29,CS2,편의점,"가정,생활 > 편의점 > 세븐일레븐",,19429396,1577-0711,세븐일레븐 청담황해점,http://place.map.kakao.com/19429396,서울 강남구 삼성로149길 32,127.04484826407784,37.52320925452216
서울 강남구 신사동 541-19,CS2,편의점,"가정,생활 > 편의점 > 세븐일레븐",,7948209,02-3446-1913,세븐일레븐 신사4호점,http://place.map.kakao.com/7948209,서울 강남구 도산대로15길 7,127.023818094242,37.5187085513743
서울 강남구 논현동 60-12,CS2,편의점,"가정,생활 > 편의점 > 세븐일레븐",,12332981,1577-0711,세븐일레븐 논현본점,http://place.map.kakao.com/12332981,서울 강남구 논현로150길 15,127.02972880251939,37.519466757225395
서울 강남구 논현동 93-15,CS2,편의점,"가정,생활 > 편의점 > 세븐일레븐",,18829169,,세븐일레븐 강남학동점,http://place.map.kakao.com/18829169,서울 강남구 언주로150길 51,127.038348726381,37.5221789947406
서울 강남구 신사동 514-21,CS2,편의점,"가정,생활 > 편의점 > 세븐일레븐",,1149454476,1577-0711,세븐일레븐 신사만남점,http://place.map.kakao.com/1149454476,서울 강남구 강남대로152길 26,127.021559928248,37.5175484928627
서울 강남구 신사동 655-15,CS2,편의점,"가정,생활 > 편의점 > 세븐일레븐",,683933059,1577-0711,세븐일레븐 압구정가은점,http://place.map.kakao.com/683933059,서울 강남구 선릉로153길 18,127.037988100329,37.5248767126957
서울 강남구 신사동 656-1,CS2,편의점,"가정,생활 > 편의점 > 세븐일레븐",,1940296580,1577-0711,세븐일레븐 모두스테이명동1호점,http://place.map.kakao.com/1940296580,서울 강남구 선릉로155길 27,127.037305188387,37.5256319702318
서울 강남구 신사동 566-4,CS2,편의점,"가정,생활 > 편의점 > 세븐일레븐",,110574416,,세븐일레븐 신사압구정본점,http://place.map.kakao.com/110574416,서울 강남구 논현로157길 22,127.026262751345,37.5224507993661
서울 강남구 신사동 567-23,CS2,편의점,"가정,생활 > 편의점 > 세븐일레븐",,8446796,02-3446-2991,세븐일레븐 신사한나래점,http://place.map.kakao.com/8446796,서울 강남구 논현로159길 10,127.027326333604,37.523057833843
서울 강남구 신사동 524-13,CS2,편의점,"가정,생활 > 편의점 > 세븐일레븐",,7955984,02-515-9732,세븐일레븐 신사5호점,http://place.map.kakao.com/7955984,서울 강남구 강남대로162길 45,127.022049641751,37.5211235829628
서울 강남구 신사동 594-33,CS2,편의점,"가정,생활 > 편의점 > 세븐일레븐",,7956319,02-540-6377,세븐일레븐 압구정칼릭스점,http://place.map.kakao.com/7956319,서울 강남구 논현로164길 38,127.031222166736,37.5226460110351
서울 강남구 신사동 637-18,CS2,편의점,"가정,생활 > 편의점 > 세븐일레븐",,1335234610,1577-0711,세븐일레븐 신사로데오점,http://place.map.kakao.com/1335234610,서울 강남구 언주로172길 15,127.035181542935,37.5277977297211
서울 강남구 신사동 573-2,CS2,편의점,"가정,생활 > 편의점 > 세븐일레븐",,78014378,,세븐일레븐 압구정 11호점,http://place.map.kakao.com/78014378,서울 강남구 압구정로18길 5,127.024385594101,37.5245793697815
서울 강남구 개포동 1235,CS2,편의점,"가정,생활 > 편의점 > 세븐일레븐",,13056288,,세븐일레븐 포이중앙점,http://place.map.kakao.com/13056288,서울 강남구 논현로18길 14,127.046135916115,37.4777349868883
서울 강남구 신사동 559-28,CS2,편의점,"가정,생활 > 편의점 > 세븐일레븐",,921754409,1577-0711,세븐일레븐 신사무지개점,http://place.map.kakao.com/921754409,서울 강남구 도산대로19길 16,127.02531163806,37.5198579207737
서울 강남구 역삼동 637-9,CS2,편의점,"가정,생활 > 편의점 > 세븐일레븐",,1288267276,,세븐일레븐 역삼피에스따점,http://place.map.kakao.com/1288267276,서울 강남구 테헤란로19길 29,127.03281265014253,37.50189184887806
서울 강남구 역삼동 645-21,CS2,편의점,"가정,생활 > 편의점 > 세븐일레븐",,8421046,,세븐일레븐 역삼10호점,http://place.map.kakao.com/8421046,서울 강남구 테헤란로19길 10,127.033714619909,37.5007617335222
서울 강남구 일원동 716,CS2,편의점,"가정,생활 > 편의점 > 세븐일레븐",,777133268,1577-0711,세븐일레븐 강남목련타운점,http://place.map.kakao.com/777133268,서울 강남구 광평로19길 15,127.085319896302,37.4845959956042
서울 강남구 개포동 1235-11,CS2,편의점,"가정,생활 > 편의점 > 세븐일레븐",,10559656,02-529-6516,세븐일레븐 포이4호점,http://place.map.kakao.com/10559656,서울 강남구 개포로20길 24-16,127.046980959232,37.4767507515067
서울 강남구 역삼동 790-20,CS2,편의점,"가정,생활 > 편의점 > 세븐일레븐",,1966921543,1577-0711,세븐일레븐 역삼화랑점,http://place.map.kakao.com/1966921543,서울 강남구 역삼로20길 9,127.037672020699,37.4947147847182
서울 강남구 개포동 1218,CS2,편의점,"가정,생활 > 편의점 > 세븐일레븐",,8371717,02-3462-0956,세븐일레븐 포이5호점,http://place.map.kakao.com/8371717,서울 강남구 개포로24길 6,127.048076423843,37.4784622288465
서울 강남구 역삼동 642-3,CS2,편의점,"가정,생활 > 편의점 > 세븐일레븐",,1328866196,,세븐일레븐 역삼하이츠점,http://place.map.kakao.com/1328866196,서울 강남구 테헤란로25길 6-9,127.035967648667,37.5013052766039
서울 강남구 신사동 576-7,CS2,편의점,"가정,생활 > 편의점 > 세븐일레븐",,7879070,02-517-8617,세븐일레븐 압구정2점,http://place.map.kakao.com/7879070,서울 강남구 압구정로28길 28,127.02754640580662,37.524719231229916
서울 강남구 역삼동 718-10,CS2,편의점,"가정,생활 > 편의점 > 세븐일레븐",,2138553328,1577-0711,세븐일레븐 뉴역삼한은점,http://place.map.kakao.com/2138553328,서울 강남구 테헤란로28길 7,127.038939350622,37.5006411940679
서울 강남구 개포동 1214-5,CS2,편의점,"가정,생활 > 편의점 > 세븐일레븐",,1604638557,02-529-4571,세븐일레븐 개포본점,http://place.map.kakao.com/1604638557,서울 강남구 개포로28길 15,127.049957439914,37.4780794205425
서울 강남구 도곡동 422-4,CS2,편의점,"가정,생활 > 편의점 > 세븐일레븐",,13119473,02-3461-7694,세븐일레븐 매봉점,http://place.map.kakao.com/13119473,서울 강남구 논현로28길 56,127.046388899218,37.484625804102
서울 강남구 역삼동 659-20,CS2,편의점,"가정,생활 > 편의점 > 세븐일레븐",,1393705855,1577-0711,세븐일레븐 역삼화인점,http://place.map.kakao.com/1393705855,서울 강남구 봉은사로30길 28,127.035448368061,37.5056870235398
서울 강남구 신사동 610-4,CS2,편의점,"가정,생활 > 편의점 > 세븐일레븐",,1972092517,,세븐일레븐 신사증권점,http://place.map.kakao.com/1972092517,서울 강남구 압구정로30길 18,127.028998440311,37.5263109545155
서울 강남구 도곡동 467-19,CS2,편의점,"가정,생활 > 편의점 > 세븐일레븐",,314911397,1577-0711,세븐일레븐 도곡비전점,http://place.map.kakao.com/314911397,서울 강남구 언주로30길 10,127.05154885305375,37.48733750210083
서울 강남구 신사동 620,CS2,편의점,"가정,생활 > 편의점 > 세븐일레븐",,721886504,,세븐일레븐 압구정스퀘어점,http://place.map.kakao.com/721886504,서울 강남구 압구정로34길 11,127.03092216151883,37.52757727528323
서울 강남구 역삼동 719-9,CS2,편의점,"가정,생활 > 편의점 > 세븐일레븐",,616448319,1577-0711,세븐일레븐 역삼태광점,http://place.map.kakao.com/616448319,서울 강남구 테헤란로34길 7,127.040286517219,37.5011209784882
서울 강남구 수서동 791,CS2,편의점,"가정,생활 > 편의점 > 세븐일레븐",,1725466785,,세븐일레븐 강남포레스트점,http://place.map.kakao.com/1725466785,서울 강남구 광평로34길 30,127.09412356604687,37.48214937956245
서울 강남구 도곡동 414-16,CS2,편의점,"가정,생활 > 편의점 > 세븐일레븐",,941797048,,세븐일레븐 도곡본점,http://place.map.kakao.com/941797048,서울 강남구 논현로34길 34,127.044697472984,37.4847057448361
서울 강남구 신사동 626,CS2,편의점,"가정,생활 > 편의점 > 세븐일레븐",,7950831,,세븐일레븐 리갈펠리스점,http://place.map.kakao.com/7950831,서울 강남구 도산대로35길 46,127.030715822853,37.5237453669077
서울 강남구 도곡동 951,CS2,편의점,"가정,생활 > 편의점 > 세븐일레븐",,13056293,02-529-6225,세븐일레븐 도곡중앙점,http://place.map.kakao.com/13056293,서울 강남구 남부순환로351길 30,127.034033954097,37.4867311603196
서울 강남구 도곡동 920-2,CS2,편의점,"가정,생활 > 편의점 > 세븐일레븐",,19429620,,세븐일레븐 강남도곡점,http://place.map.kakao.com/19429620,서울 강남구 남부순환로361길 6,127.03767310916744,37.48562451891747
서울 강남구 도곡동 900-2,CS2,편의점,"가정,생활 > 편의점 > 세븐일레븐",,8444600,,세븐일레븐 도곡2호점,http://place.map.kakao.com/8444600,서울 강남구 남부순환로365길 38,127.039914109759,37.4877384491159
서울 강남구 논현동 231,CS2,편의점,"가정,생활 > 편의점 > 세븐일레븐",,1492226242,,세븐일레븐 강남YMCA점,http://place.map.kakao.com/1492226242,서울 강남구 봉은사로37길 28,127.03593114229199,37.51008288045113
서울 강남구 역삼동 677-6,CS2,편의점,"가정,생활 > 편의점 > 세븐일레븐",,11132387,,세븐일레븐 르네상스점,http://place.map.kakao.com/11132387,서울 강남구 테헤란로37길 15,127.04041990985162,37.50311666064315
서울 강남구 역삼동 784-13,CS2,편의점,"가정,생활 > 편의점 > 세븐일레븐",,7956485,02-3453-6170,세븐일레븐 역삼18호점,http://place.map.kakao.com/7956485,서울 강남구 도곡로37길 16,127.045133231654,37.4948545289579
서울 강남구 논현동 83-20,CS2,편의점,"가정,생활 > 편의점 > 세븐일레븐",,1090064088,1577-0711,세븐일레븐 논현건설회관점,http://place.map.kakao.com/1090064088,서울 강남구 학동로37길 23,127.03434735368069,37.51678682157844
서울 강남구 역삼동 720-21,CS2,편의점,"가정,생활 > 편의점 > 세븐일레븐",,10404144,,세븐일레븐 역삼한서점,http://place.map.kakao.com/10404144,서울 강남구 테헤란로38길 11,127.04178055096,37.5012961556751
서울 강남구 도곡동 942-11,CS2,편의점,"가정,생활 > 편의점 > 세븐일레븐",,2048323631,1577-0711,세븐일레븐 도곡공원점,http://place.map.kakao.com/2048323631,서울 강남구 도곡로4길 5,127.033397510693,37.4895821309265
서울 강남구 논현동 113-16,CS2,편의점,"가정,생활 > 편의점 > 세븐일레븐",,7956194,,세븐일레븐 논현13호점,http://place.map.kakao.com/7956194,서울 강남구 학동로43길 14,127.03750787850706,37.51697326895568
서울 강남구 역삼동 690-2,CS2,편의점,"가정,생활 > 편의점 > 세븐일레븐",,16418012,,세븐일레븐 역삼우일점,http://place.map.kakao.com/16418012,서울 강남구 봉은사로44길 39,127.04137308530295,37.50683568054612
서울 강남구 논현동 96,CS2,편의점,"가정,생활 > 편의점 > 세븐일레븐",,7950318,02-512-9702,세븐일레븐 논현6호점,http://place.map.kakao.com/7950318,서울 강남구 도산대로46길 11,127.036538361898,37.52136866620037
서울 강남구 역삼동 684,CS2,편의점,"가정,생활 > 편의점 > 세븐일레븐",,1937670139,,세븐일레븐 역삼선릉로점,http://place.map.kakao.com/1937670139,서울 강남구 봉은사로48길 13,127.041689662211,37.5086844312492
서울 강남구 일원동 662-1,CS2,편의점,"가정,생활 > 편의점 > 세븐일레븐",,2009650145,,세븐일레븐 일원미래점,http://place.map.kakao.com/2009650145,서울 강남구 일원로5길 58,127.084939477568,37.4921295946324
서울 강남구 역삼동 683,CS2,편의점,"가정,생활 > 편의점 > 세븐일레븐",,18118078,,세븐일레븐 선릉스타점,http://place.map.kakao.com/18118078,서울 강남구 봉은사로50길 19,127.043481336336,37.5089036304697
서울 강남구 신사동 658,CS2,편의점,"가정,생활 > 편의점 > 세븐일레븐",,2050052359,1577-0711,세븐일레븐 압구정로데오현대점,http://place.map.kakao.com/2050052359,서울 강남구 압구정로50길 28,127.0373011692965,37.526648301845896
서울 강남구 신사동 657-28,CS2,편의점,"가정,생활 > 편의점 > 세븐일레븐",,35345399,1577-0711,세븐일레븐 압구정로데오본점,http://place.map.kakao.com/35345399,서울 강남구 도산대로51길 44,127.03839366665729,37.525991121252105
서울 강남구 역삼동 693-5,CS2,편의점,"가정,생활 > 편의점 > 세븐일레븐",,346771592,1577-0711,세븐일레븐 강남언주로점,http://place.map.kakao.com/346771592,서울 강남구 테헤란로53길 62,127.043828823375,37.5074150421029
서울 강남구 일원동 644-2,CS2,편의점,"가정,생활 > 편의점 > 세븐일레븐",,995266109,1577-0711,세븐일레븐 일원본점,http://place.map.kakao.com/995266109,서울 강남구 양재대로55길 13,127.087589508892,37.4916924732078
서울 강남구 청담동 87-10,CS2,편의점,"가정,생활 > 편의점 > 세븐일레븐",,1446587623,1577-0711,세븐일레븐 청담누리점,http://place.map.kakao.com/1446587623,서울 강남구 도산대로57길 7,127.041111100478,37.5240737748414
서울 강남구 삼성동 36-25,CS2,편의점,"가정,생활 > 편의점 > 세븐일레븐",,1397501365,1577-0711,세븐일레븐 삼성플러스원점,http://place.map.kakao.com/1397501365,서울 강남구 봉은사로57길 13,127.044944250165,37.5116097003826
서울 강남구 도곡동 545-19,CS2,편의점,"가정,생활 > 편의점 > 세븐일레븐",,1321004767,1577-0711,세븐일레븐 강남도곡로점,http://place.map.kakao.com/1321004767,서울 강남구 논현로57길 24,127.039101838789,37.4912706708271
서울 강남구 청담동 21-17,CS2,편의점,"가정,생활 > 편의점 > 세븐일레븐",,809508071,1577-0711,세븐일레븐 청담유시어터점,http://place.map.kakao.com/809508071,서울 강남구 도산대로58길 17,127.041514988426,37.5220833189639
서울 강남구 역삼동 827-70,CS2,편의점,"가정,생활 > 편의점 > 세븐일레븐",,1932269123,1577-0711,세븐일레븐 역삼만남점,http://place.map.kakao.com/1932269123,서울 강남구 테헤란로6길 47,127.031822684823,37.4956048978804
서울 강남구 역삼동 838-7,CS2,편의점,"가정,생활 > 편의점 > 세븐일레븐",,8370888,1577-0711,세븐일레븐 역삼15호점,http://place.map.kakao.com/8370888,서울 강남구 강남대로62길 18,127.03308807412475,37.4904570963859
서울 강남구 삼성동 41-21,CS2,편의점,"가정,생활 > 편의점 > 세븐일레븐",,8381647,1577-0711,세븐일레븐 삼성8호점,http://place.map.kakao.com/8381647,서울 강남구 봉은사로63길 11,127.046912631732,37.5121171014076
서울 강남구 대치동 932,CS2,편의점,"가정,생활 > 편의점 > 세븐일레븐",,7950664,,세븐일레븐 대치공원점,http://place.map.kakao.com/7950664,서울 강남구 삼성로63길 21,127.058376463447,37.4994907124351
서울 강남구 대치동 900-8,CS2,편의점,"가정,생활 > 편의점 > 세븐일레븐",,8444599,02-563-4952,세븐일레븐 대치16호점,http://place.map.kakao.com/8444599,서울 강남구 역삼로63길 16,127.052289652247,37.5022037892082
서울 강남구 대치동 889-56,CS2,편의점,"가정,생활 > 편의점 > 세븐일레븐",,16084301,,세븐일레븐 대치나인점,http://place.map.kakao.com/16084301,서울 강남구 테헤란로64길 14,127.051137314028,37.5039774726039
서울 강남구 역삼동 782-28,CS2,편의점,"가정,생활 > 편의점 > 세븐일레븐",,826691281,,세븐일레븐 역삼세브란스점,http://place.map.kakao.com/826691281,서울 강남구 논현로64길 33,127.043228474575,37.494058751185
서울 강남구 대치동 923-22,CS2,편의점,"가정,생활 > 편의점 > 세븐일레븐",,18118156,1577-0711,세븐일레븐 강남롯데점,http://place.map.kakao.com/18118156,서울 강남구 선릉로64길 15,127.053440305019,37.4981415392406
서울 강남구 대치동 919-16,CS2,편의점,"가정,생활 > 편의점 > 세븐일레븐",,7949520,02-501-9386,세븐일레븐 대치10호점,http://place.map.kakao.com/7949520,서울 강남구 역삼로64길 25,127.053576979886,37.4995001946887
서울 강남구 역삼동 832-10,CS2,편의점,"가정,생활 > 편의점 > 세븐일레븐",,10557066,,세븐일레븐 역삼발렌타인점,http://place.map.kakao.com/10557066,서울 강남구 강남대로66길 7,127.03137896598936,37.491865837313604
서울 강남구 대치동 900-52,CS2,편의점,"가정,생활 > 편의점 > 세븐일레븐",,1269536714,02-501-9035,세븐일레븐 대치선릉로점,http://place.map.kakao.com/1269536714,서울 강남구 테헤란로68길 33,127.053109151946,37.5032017378368
서울 강남구 대치동 934-26,CS2,편의점,"가정,생활 > 편의점 > 세븐일레븐",,332214276,1577-0711,세븐일레븐 대치한티점,http://place.map.kakao.com/332214276,서울 강남구 도곡로69길 14,127.055987105095,37.4982556885044
서울 강남구 역삼동 756-11,CS2,편의점,"가정,생활 > 편의점 > 세븐일레븐",,56545361,1577-0711,세븐일레븐 강남SLI점,http://place.map.kakao.com/56545361,서울 강남구 선릉로69길 7,127.05120591958068,37.49844887101222
서울 강남구 역삼동 635-2,CS2,편의점,"가정,생활 > 편의점 > 세븐일레븐",,249993495,1577-0711,세븐일레븐 과학기술회관점,http://place.map.kakao.com/249993495,서울 강남구 테헤란로7길 22,127.030738055042,37.5007229012645
서울 강남구 대치동 914-5,CS2,편의점,"가정,생활 > 편의점 > 세븐일레븐",,18117591,,세븐일레븐 대치마루점,http://place.map.kakao.com/18117591,서울 강남구 삼성로71길 13,127.057921533436,37.5020137528595
서울 강남구 역삼동 773,CS2,편의점,"가정,생활 > 편의점 > 세븐일레븐",,8370889,1577-0711,세븐일레븐 역삼22호점,http://place.map.kakao.com/8370889,서울 강남구 언주로71길 9,127.044275279967,37.4973452359974
서울 강남구 대치동 960-15,CS2,편의점,"가정,생활 > 편의점 > 세븐일레븐",,18117755,,세븐일레븐 대치으뜸점,http://place.map.kakao.com/18117755,서울 강남구 삼성로76길 16,127.05967270440682,37.50405906480965
서울 강남구 역삼동 831-3,CS2,편의점,"가정,생활 > 편의점 > 세븐일레븐",,1649155687,1577-0711,세븐일레븐 역삼태극점,http://place.map.kakao.com/1649155687,서울 강남구 강남대로78길 8,127.030080842338,37.4946962383426
서울 강남구 역삼동 744,CS2,편의점,"가정,생활 > 편의점 > 세븐일레븐",,1362861518,,세븐일레븐 역삼스타공원점,http://place.map.kakao.com/1362861518,서울 강남구 논현로79길 25,127.036112769741,37.4973642312948
서울 강남구 역삼동 729,CS2,편의점,"가정,생활 > 편의점 > 세븐일레븐",,1442983680,,세븐일레븐 역삼은석점,http://place.map.kakao.com/1442983680,서울 강남구 언주로79길 33,127.041412671381,37.4986473273717
서울 강남구 역삼동 827-67,CS2,편의점,"가정,생활 > 편의점 > 세븐일레븐",,13122320,,세븐일레븐 역삼특허점,http://place.map.kakao.com/13122320,서울 강남구 테헤란로8길 46,127.032319237123,37.4958786691295
서울 강남구 청담동 100-21,CS2,편의점,"가정,생활 > 편의점 > 세븐일레븐",,18111822,02-549-3378,세븐일레븐 청담그린점,http://place.map.kakao.com/18111822,서울 강남구 도산대로81길 39,127.046659309366,37.526713451624
서울 강남구 삼성동 64,CS2,편의점,"가정,생활 > 편의점 > 세븐일레븐",,14680277,,세븐일레븐 강남청담점,http://place.map.kakao.com/14680277,서울 강남구 학동로82길 21,127.051965594724,37.5176363374894
서울 강남구 역삼동 826-27,CS2,편의점,"가정,생활 > 편의점 > 세븐일레븐",,143879654,1577-0711,세븐일레븐 역삼타워점,http://place.map.kakao.com/143879654,서울 강남구 강남대로84길 16,127.03012011185031,37.49674241466143
서울 강남구 역삼동 827-44,CS2,편의점,"가정,생활 > 편의점 > 세븐일레븐",,18117245,,세븐일레븐 역삼타운점,http://place.map.kakao.com/18117245,서울 강남구 강남대로84길 28,127.030967215163,37.4969818633943
서울 강남구 역삼동 739,CS2,편의점,"가정,생활 > 편의점 > 세븐일레븐",,18116894,02-569-4836,세븐일레븐 역삼창조점,http://place.map.kakao.com/18116894,서울 강남구 논현로85길 13,127.036256103578,37.49911394172
서울 강남구 대치동 894-3,CS2,편의점,"가정,생활 > 편의점 > 세븐일레븐",,7954772,02-3453-4752,세븐일레븐 대치6호점,http://place.map.kakao.com/7954772,서울 강남구 삼성로85길 19,127.055752221631,37.5047934975366
서울 강남구 대치동 891-26,CS2,편의점,"가정,생활 > 편의점 > 세븐일레븐",,2057434883,1577-0711,세븐일레븐 대치멤버스점,http://place.map.kakao.com/2057434883,서울 강남구 삼성로85길 42,127.053801125959,37.5045493288314
서울 강남구 역삼동 708-34,CS2,편의점,"가정,생활 > 편의점 > 세븐일레븐",,18116725,02-555-2850,세븐일레븐 역삼진선점,http://place.map.kakao.com/18116725,서울 강남구 선릉로85길 8,127.048865650144,37.5028972275379
서울 강남구 역삼동 719-33,CS2,편의점,"가정,생활 > 편의점 > 세븐일레븐",,1249350686,,세븐일레븐 역삼언주로점,http://place.map.kakao.com/1249350686,서울 강남구 언주로85길 24,127.0412736965,37.5009251194227
서울 강남구 대치동 1001-6,CS2,편의점,"가정,생활 > 편의점 > 세븐일레븐",,10404141,1577-0711,세븐일레븐 대치코스모점,http://place.map.kakao.com/10404141,서울 강남구 영동대로86길 10,127.064951881254,37.507823382251
서울 강남구 대치동 957-6,CS2,편의점,"가정,생활 > 편의점 > 세븐일레븐",,18117744,,세븐일레븐 대치7호점,http://place.map.kakao.com/18117744,서울 강남구 삼성로86길 16,127.058811110952,37.5057506837674
서울 강남구 대치동 890-59,CS2,편의점,"가정,생활 > 편의점 > 세븐일레븐",,12149643,1577-0711,세븐일레븐 골드로즈점,http://place.map.kakao.com/12149643,서울 강남구 선릉로86길 31,127.052182403045,37.504100453307444
서울 강남구 삼성동 158-13,CS2,편의점,"가정,생활 > 편의점 > 세븐일레븐",,32751781,1577-0711,세븐일레븐 삼성페이토점,http://place.map.kakao.com/32751781,서울 강남구 테헤란로87길 9,127.05875666833094,37.50843840852106
서울 강남구 삼성동 159,CS2,편의점,"가정,생활 > 편의점 > 세븐일레븐",,26916386,1577-0711,세븐일레븐 공항타워점,http://place.map.kakao.com/26916386,서울 강남구 테헤란로87길 36,127.05879548392289,37.510340409853335
서울 강남구 대치동 943-24,CS2,편의점,"가정,생활 > 편의점 > 세븐일레븐",,381806652,1577-0711,세븐일레븐 메트로칸점,http://place.map.kakao.com/381806652,서울 강남구 테헤란로88길 10,127.059436311827,37.5068838351787
서울 강남구 대치동 986-4,CS2,편의점,"가정,생활 > 편의점 > 세븐일레븐",,18117863,,세븐일레븐 대치우성점,http://place.map.kakao.com/18117863,서울 강남구 도곡로93길 9,127.0645081637516,37.50083272516317
서울 강남구 역삼동 673-24,CS2,편의점,"가정,생활 > 편의점 > 세븐일레븐",,16528465,,세븐일레븐 역삼코넬점,http://place.map.kakao.com/16528465,서울 강남구 언주로93길 28-8,127.0396184855088,37.50390080695179
서울 강남구 역삼동 817-11,CS2,편의점,"가정,생활 > 편의점 > 세븐일레븐",,1093931949,1577-0711,세븐일레븐 뉴강남센터점,http://place.map.kakao.com/1093931949,서울 강남구 강남대로96길 9,127.027736307654,37.4998577773668
서울 강남구 청담동 58-12,CS2,편의점,"가정,생활 > 편의점 > 세븐일레븐",,8377919,,세븐일레븐 청담7호점,http://place.map.kakao.com/8377919,서울 강남구 도산대로96길 13,127.050974322996,37.5237383608833
서울 강남구 삼성동 166-8,CS2,편의점,"가정,생활 > 편의점 > 세븐일레븐",,1494700896,1577-0711,세븐일레븐 삼성중앙점,http://place.map.kakao.com/1494700896,서울 강남구 영동대로96길 37,127.065529804053,37.5116757582215
서울 강남구 청담동 71-25,CS2,편의점,"가정,생활 > 편의점 > 세븐일레븐",,347593720,1577-0711,세븐일레븐 청담튼튼병원점,http://place.map.kakao.com/347593720,서울 강남구 학동로97길 20,127.05543285406843,37.52102883965089
서울 강남구 역삼동 704-29,CS2,편의점,"가정,생활 > 편의점 > 세븐일레븐",,1276618019,010-9143-0800,세븐일레븐 강남선릉점,http://place.map.kakao.com/1276618019,서울 강남구 언주로98길 37,127.044808922471,37.5047116590021
서울 강남구 청담동 109-14,CS2,편의점,"가정,생활 > 편의점 > 세븐일레븐",,868074680,,세븐일레븐 청담대우점,http://place.map.kakao.com/868074680,서울 강남구 도산대로99길 26,127.051243110756,37.5263871910357
