address_name,category_group_code,category_group_name,category_name,distance,id,phone,place_name,place_url,road_address_name,x,y
서울 송파구 석촌동 277,PM9,약국,"의료,건강 > 약국",,13505309,02-424-6167,팜코리아약국,http://place.map.kakao.com/13505309,서울 송파구 가락로 99,127.10688024515213,37.50106778460286
서울 송파구 방이동 167-7,PM9,약국,"의료,건강 > 약국",,8650086,02-412-7891,경인약국,http://place.map.kakao.com/8650086,서울 송파구 가락로42길 9,127.12086174363671,37.51231506259689
서울 송파구 송파동 103-27,PM9,약국,"의료,건강 > 약국",,13507250,02-424-7048,열린약국,http://place.map.kakao.com/13507250,서울 송파구 가락로 166,127.1137678315821,37.50352379974039
서울 송파구 석촌동 273,PM9,약국,"의료,건강 > 약국",,12885022,02-415-7014,금강약국,http://place.map.kakao.com/12885022,서울 송파구 가락로 82,127.10543395984043,37.50037080493237
서울 송파구 석촌동 295-11,PM9,약국,"의료,건강 > 약국",,10924658,02-414-5567,해성약국,http://place.map.kakao.com/10924658,서울 송파구 가락로 111,127.108369231504,37.5015565750429
서울 송파구 석촌동 295-10,PM9,약국,"의료,건강 > 약국",,9842482,02-423-2664,수약국,http://place.map.kakao.com/9842482,서울 송파구 가락로 113,127.10866452636402,37.501642800304566
서울 송파구 송파동 106-14,PM9,약국,"의료,건강 > 약국",,16046593,02-414-8275,대교약국,http://place.map.kakao.com/16046593,서울 송파구 가락로 153,127.11265546476747,37.50309508634107
서울 송파구 석촌동 271,PM9,약국,"의료,건강 > 약국",,8045712,02-414-0847,일선약국,http://place.map.kakao.com/8045712,서울 송파구 가락로11길 8,127.10481062622986,37.5010317967406
서울 송파구 송파동 103-30,PM9,약국,"의료,건강 > 약국",,208903943,02-419-5878,온맘약국,http://place.map.kakao.com/208903943,서울 송파구 가락로 158,127.113258295624,37.5031206390562
서울 송파구 석촌동 225-3,PM9,약국,"의료,건강 > 약국",,10394035,02-422-1866,온누리배명약국,http://place.map.kakao.com/10394035,서울 송파구 가락로 26,127.09941731892685,37.49847940428031
서울 송파구 석촌동 296,PM9,약국,"의료,건강 > 약국",,1258634152,02-425-0539,송파프라자약국,http://place.map.kakao.com/1258634152,서울 송파구 가락로 112,127.108509053139,37.5012716388582
서울 송파구 방이동 159-6,PM9,약국,"의료,건강 > 약국",,9063959,02-423-0563,방이메디칼약국,http://place.map.kakao.com/9063959,서울 송파구 가락로 277,127.11952530622625,37.51262907079012
서울 송파구 방이동 126,PM9,약국,"의료,건강 > 약국",,10392221,02-4182-4634,방이프라자약국,http://place.map.kakao.com/10392221,서울 송파구 가락로 244,127.11808652767516,37.50973379034678
서울 송파구 송파동 122-2,PM9,약국,"의료,건강 > 약국",,16707865,02-418-6551,대동약국,http://place.map.kakao.com/16707865,서울 송파구 가락로 175,127.11434040538751,37.50447110422481
서울 송파구 송파동 142-9,PM9,약국,"의료,건강 > 약국",,13505066,02-419-2755,이화약산온누리약국,http://place.map.kakao.com/13505066,서울 송파구 가락로 211,127.116321982403,37.5074704163083
서울 송파구 마천동 118-12,PM9,약국,"의료,건강 > 약국",,10340004,02-409-6704,마천푸른솔약국,http://place.map.kakao.com/10340004,서울 송파구 거마로 60,127.146936113809,37.4982388440162
서울 송파구 마천동 176-23,PM9,약국,"의료,건강 > 약국",,9089590,02-400-2636,동의삼성약국,http://place.map.kakao.com/9089590,서울 송파구 거마로22길 49,127.15209567435437,37.49683125004012
서울 송파구 마천동 111-6,PM9,약국,"의료,건강 > 약국",,9759834,02-402-0067,세계로약국,http://place.map.kakao.com/9759834,서울 송파구 거마로 66,127.14711004479854,37.49870174442184
서울 송파구 거여동 43-3,PM9,약국,"의료,건강 > 약국",,1877248715,02-401-2989,예성온누리약국,http://place.map.kakao.com/1877248715,서울 송파구 거마로 28,127.14570140960595,37.495433740079214
서울 송파구 마천동 35-1,PM9,약국,"의료,건강 > 약국",,545562970,02-443-7727,수프라자약국,http://place.map.kakao.com/545562970,서울 송파구 거마로 61,127.14641637462023,37.49847465179017
서울 송파구 마천동 118-24,PM9,약국,"의료,건강 > 약국",,2123508042,02-407-8374,명약국,http://place.map.kakao.com/2123508042,서울 송파구 거마로 62,127.147017889436,37.4984189433962
서울 송파구 거여동 37-6,PM9,약국,"의료,건강 > 약국",,718747608,02-430-2001,이화제니약국,http://place.map.kakao.com/718747608,서울 송파구 거마로 4,127.1447622793623,37.493394115489785
서울 송파구 문정동 31,PM9,약국,"의료,건강 > 약국",,16762756,02-402-1424,문정약국,http://place.map.kakao.com/16762756,서울 송파구 동남로4길 25,127.1248907560077,37.48793146321621
서울 송파구 가락동 166,PM9,약국,"의료,건강 > 약국",,1863634706,02-6952-1930,참약사사귐약국,http://place.map.kakao.com/1863634706,서울 송파구 동남로 240-6,127.133835213909,37.4977255221334
서울 송파구 문정동 4-6,PM9,약국,"의료,건강 > 약국",,9150114,02-407-1569,성조약국,http://place.map.kakao.com/9150114,서울 송파구 동남로 136,127.12595444376652,37.49111179028908
서울 송파구 오금동 121-6,PM9,약국,"의료,건강 > 약국",,470958166,02-492-0585,서울예일약국,http://place.map.kakao.com/470958166,서울 송파구 동남로 317,127.138157340375,37.5038500857291
서울 송파구 문정동 4-4,PM9,약국,"의료,건강 > 약국",,1828971295,02-407-6796,문정프라자약국,http://place.map.kakao.com/1828971295,서울 송파구 동남로 138,127.12622144248196,37.491194397968826
서울 송파구 가락동 164-19,PM9,약국,"의료,건강 > 약국",,1104741735,02-449-9205,도담약국,http://place.map.kakao.com/1104741735,서울 송파구 동남로 209,127.1310618681469,37.496159980097964
서울 송파구 가락동 164-20,PM9,약국,"의료,건강 > 약국",,15286343,02-448-8450,큰사랑약국,http://place.map.kakao.com/15286343,서울 송파구 동남로 211,127.131254438147,37.496347175567
서울 송파구 가락동 189-13,PM9,약국,"의료,건강 > 약국",,844782808,02-403-1017,늘조은온누리약국,http://place.map.kakao.com/844782808,서울 송파구 동남로18길 45,127.134821595487,37.4928436499894
서울 송파구 오금동 618-3,PM9,약국,"의료,건강 > 약국",,9089075,02-449-2201,새힘온누리약국,http://place.map.kakao.com/9089075,서울 송파구 동남로29길 4,127.1383453234819,37.5052085808817
서울 송파구 가락동 164-23,PM9,약국,"의료,건강 > 약국",,9405996,02-402-0612,지앤미약국,http://place.map.kakao.com/9405996,서울 송파구 동남로 215,127.131607740316,37.4966206883427
서울 송파구 가락동 140,PM9,약국,"의료,건강 > 약국",,10338334,02-400-4201,메디팜푸른약국,http://place.map.kakao.com/10338334,서울 송파구 동남로 189,127.1298573642192,37.494760245580004
서울 송파구 가락동 140,PM9,약국,"의료,건강 > 약국",,9287548,02-443-1606,오층조은약국,http://place.map.kakao.com/9287548,서울 송파구 동남로 189,127.12985155883231,37.49467285434729
서울 송파구 가락동 164-18,PM9,약국,"의료,건강 > 약국",,18618944,02-400-3332,가락온누리약국,http://place.map.kakao.com/18618944,서울 송파구 동남로 207,127.13090565559975,37.49607005268763
서울 송파구 가락동 164-24,PM9,약국,"의료,건강 > 약국",,7970797,02-409-6262,송파제일약국,http://place.map.kakao.com/7970797,서울 송파구 동남로 217,127.13169377451318,37.49667194980932
서울 송파구 오금동 618-1,PM9,약국,"의료,건강 > 약국",,478089635,02-402-3938,기쁜약국,http://place.map.kakao.com/478089635,서울 송파구 동남로29길 8-10,127.13858615536807,37.50578494152572
서울 송파구 방이동 207-6,PM9,약국,"의료,건강 > 약국",,10244742,02-418-5662,그랜드약국,http://place.map.kakao.com/10244742,서울 송파구 마천로 35,127.124889072456,37.5093285501525
서울 송파구 거여동 133-77,PM9,약국,"의료,건강 > 약국",,2105169973,02-3402-0415,샘물약국,http://place.map.kakao.com/2105169973,서울 송파구 마천로 264,127.146149851165,37.4980803413579
서울 송파구 마천동 307-27,PM9,약국,"의료,건강 > 약국",,11669642,02-3401-3818,중앙프라자약국,http://place.map.kakao.com/11669642,서울 송파구 마천로57길 4,127.15202616066259,37.494337354987685
서울 송파구 오금동 19,PM9,약국,"의료,건강 > 약국",,10407933,02-430-3371,박순영온누리약국,http://place.map.kakao.com/10407933,서울 송파구 마천로7길 6,127.127941314558,37.5084170714125
서울 송파구 마천동 126-5,PM9,약국,"의료,건강 > 약국",,11390786,02-448-4411,옵티마100세약국,http://place.map.kakao.com/11390786,서울 송파구 마천로41길 9,127.148865565097,37.4971948658348
서울 송파구 방이동 207-10,PM9,약국,"의료,건강 > 약국",,219556906,02-421-3210,새솔약국,http://place.map.kakao.com/219556906,서울 송파구 마천로 41,127.125521992966,37.5090539740163
서울 송파구 마천동 126,PM9,약국,"의료,건강 > 약국",,26826369,070-8226-3999,송파하나약국,http://place.map.kakao.com/26826369,서울 송파구 마천로41길 1,127.147780339589,37.4973944496357
서울 송파구 마천동 135-5,PM9,약국,"의료,건강 > 약국",,16676332,02-402-0730,고바우약국,http://place.map.kakao.com/16676332,서울 송파구 마천로41길 21,127.14999738740387,37.497114145669634
서울 송파구 마천동 24-1,PM9,약국,"의료,건강 > 약국",,8072189,02-406-4256,장생당약국,http://place.map.kakao.com/8072189,서울 송파구 마천로 237,127.14434470288066,37.49969445972435
서울 송파구 오금동 131-1,PM9,약국,"의료,건강 > 약국",,13513190,02-404-7341,성심약국,http://place.map.kakao.com/13513190,서울 송파구 마천로 190,127.13969655347024,37.502628314834325
서울 송파구 오금동 17-8,PM9,약국,"의료,건강 > 약국",,13508980,02-456-7185,방이코끼리약국,http://place.map.kakao.com/13508980,서울 송파구 마천로 53,127.126701923319,37.5085409438928
서울 송파구 마천동 308-35,PM9,약국,"의료,건강 > 약국",,19668089,02-2236-1470,도래약국,http://place.map.kakao.com/19668089,서울 송파구 마천로 341,127.15250779175796,37.49317894119671
서울 송파구 마천동 134-14,PM9,약국,"의료,건강 > 약국",,16528316,02-400-0614,후생약국,http://place.map.kakao.com/16528316,서울 송파구 마천로45길 15,127.150055652022,37.4974096015579
서울 송파구 마천동 182-2,PM9,약국,"의료,건강 > 약국",,10340005,02-449-5982,마천행복한약국,http://place.map.kakao.com/10340005,서울 송파구 마천로51길 2,127.15054267851178,37.49553398875495
서울 송파구 마천동 128-35,PM9,약국,"의료,건강 > 약국",,8549006,02-402-2671,이화온누리약국,http://place.map.kakao.com/8549006,서울 송파구 마천로 295-1,127.1491984755237,37.49627902393825
서울 송파구 문정동 64,PM9,약국,"의료,건강 > 약국",,16823030,02-426-0610,송파그랜드약국,http://place.map.kakao.com/16823030,서울 송파구 문정로4길 14,127.12598373825948,37.48498941389
서울 송파구 가락동 186-5,PM9,약국,"의료,건강 > 약국",,16818710,02-443-7173,감람약국,http://place.map.kakao.com/16818710,서울 송파구 문정로13길 11-10,127.1349515562546,37.49405625632001
서울 송파구 문정동 644,PM9,약국,"의료,건강 > 약국",,979243338,02-3400-0088,대한약국,http://place.map.kakao.com/979243338,서울 송파구 법원로11길 11,127.11824569764292,37.485154187035
서울 송파구 문정동 642-3,PM9,약국,"의료,건강 > 약국",,1350703448,02-560-4899,에스케이약국,http://place.map.kakao.com/1350703448,서울 송파구 법원로 128,127.12154904691425,37.486955553276054
서울 송파구 문정동 221,PM9,약국,"의료,건강 > 약국",,1096519033,02-2283-1153,문정이화약국,http://place.map.kakao.com/1096519033,서울 송파구 법원로 114,127.12037503081766,37.48603232139682
서울 송파구 문정동 204-2,PM9,약국,"의료,건강 > 약국",,1326095516,02-560-4970,이층약국,http://place.map.kakao.com/1326095516,서울 송파구 법원로 128,127.12049166430545,37.486844010424626
서울 송파구 잠실동 242-17,PM9,약국,"의료,건강 > 약국",,243994291,02-425-1425,스타온누리약국,http://place.map.kakao.com/243994291,서울 송파구 삼전로 99,127.090132101689,37.507262646004
서울 송파구 삼전동 7-6,PM9,약국,"의료,건강 > 약국",,1503663860,02-421-2110,르네약국,http://place.map.kakao.com/1503663860,서울 송파구 삼전로 66,127.0885996998195,37.50448510607061
서울 송파구 삼전동 5,PM9,약국,"의료,건강 > 약국",,1247266844,02-6949-4121,아이레몬약국,http://place.map.kakao.com/1247266844,서울 송파구 삼전로 84,127.089797885515,37.5058429169268
서울 송파구 삼전동 7-6,PM9,약국,"의료,건강 > 약국",,619206809,02-421-2110,삼전약국,http://place.map.kakao.com/619206809,서울 송파구 삼전로 66,127.088590664895,37.5044959249086
서울 송파구 삼전동 14-6,PM9,약국,"의료,건강 > 약국",,82588963,02-422-0075,잠실수약국,http://place.map.kakao.com/82588963,서울 송파구 삼전로10길 11,127.09073318004957,37.505818776098586
서울 송파구 잠실동 251-4,PM9,약국,"의료,건강 > 약국",,16792186,02-419-3230,새웅약국,http://place.map.kakao.com/16792186,서울 송파구 삼전로 75,127.08860310960704,37.505456386993906
서울 송파구 문정동 71-2,PM9,약국,"의료,건강 > 약국",,8386396,02-404-9960,새건영약국,http://place.map.kakao.com/8386396,서울 송파구 새말로8길 6,127.1263814583755,37.48214090263543
서울 송파구 문정동 76-1,PM9,약국,"의료,건강 > 약국",,12536936,02-403-7574,천사약국,http://place.map.kakao.com/12536936,서울 송파구 새말로8길 27,127.126925438791,37.4802238745976
서울 송파구 문정동 82,PM9,약국,"의료,건강 > 약국",,377274813,02-404-4387,문정수약국,http://place.map.kakao.com/377274813,서울 송파구 새말로 124,127.127934874609,37.4827663325326
서울 송파구 문정동 82-5,PM9,약국,"의료,건강 > 약국",,13508863,02-402-9508,중의당약국,http://place.map.kakao.com/13508863,서울 송파구 새말로 134,127.128847724477,37.4830149198247
서울 송파구 문정동 85,PM9,약국,"의료,건강 > 약국",,1029301323,02-402-9211,맑은온누리약국,http://place.map.kakao.com/1029301323,서울 송파구 새말로 125,127.127717154628,37.4830557916969
서울 송파구 문정동 19,PM9,약국,"의료,건강 > 약국",,1473349318,02-400-8786,고운약국,http://place.map.kakao.com/1473349318,서울 송파구 송이로32길 37,127.12713006266637,37.48688841121764
서울 송파구 가락동 121,PM9,약국,"의료,건강 > 약국",,13502495,02-430-3743,희망약국,http://place.map.kakao.com/13502495,서울 송파구 송이로 150,127.12425212616036,37.49352738997871
서울 송파구 문정동 116-6,PM9,약국,"의료,건강 > 약국",,13500768,02-448-6201,서울약국,http://place.map.kakao.com/13500768,서울 송파구 송이로31길 4,127.13181683485062,37.48819243889566
서울 송파구 가락동 159-7,PM9,약국,"의료,건강 > 약국",,13508778,02-3401-4177,참행복한약국,http://place.map.kakao.com/13508778,서울 송파구 송이로 76,127.11950041574812,37.499143758424644
서울 송파구 가락동 57,PM9,약국,"의료,건강 > 약국",,10336126,02-443-7789,메디슨약국,http://place.map.kakao.com/10336126,서울 송파구 송이로 111,127.122294044712,37.4965838446511
서울 송파구 가락동 48-12,PM9,약국,"의료,건강 > 약국",,10347949,02-448-1121,메디팜대신M약국,http://place.map.kakao.com/10347949,서울 송파구 송이로 87,127.12068985852999,37.4982883957336
서울 송파구 문정동 116-4,PM9,약국,"의료,건강 > 약국",,8957520,02-431-7999,두리약국,http://place.map.kakao.com/8957520,서울 송파구 송이로 239,127.13179159188783,37.48798343335802
서울 송파구 거여동 566,PM9,약국,"의료,건강 > 약국",,1324839141,02-400-1027,다올약국,http://place.map.kakao.com/1324839141,서울 송파구 양산로 40,127.14435322051973,37.49236927066283
서울 송파구 거여동 565-2,PM9,약국,"의료,건강 > 약국",,9275975,02-431-0419,온누리봄빛약국,http://place.map.kakao.com/9275975,서울 송파구 양산로10길 4,127.14476174943606,37.49253365498032
서울 송파구 거여동 293-1,PM9,약국,"의료,건강 > 약국",,26089114,02-400-8805,소백약국,http://place.map.kakao.com/26089114,서울 송파구 양산로 12,127.14359202499156,37.48991225190953
서울 송파구 거여동 565,PM9,약국,"의료,건강 > 약국",,10037486,02-403-4888,행복약국,http://place.map.kakao.com/10037486,서울 송파구 양산로 42,127.14448950047932,37.49267364427093
서울 송파구 방이동 43,PM9,약국,"의료,건강 > 약국",,977791887,02-416-5431,오렌지온누리약국,http://place.map.kakao.com/977791887,서울 송파구 오금로11길 37,127.11128975726054,37.51560141888906
서울 송파구 방이동 65-6,PM9,약국,"의료,건강 > 약국",,1056373204,02-417-0503,365송파고은약국,http://place.map.kakao.com/1056373204,서울 송파구 오금로 95,127.107696940556,37.5137874254494
서울 송파구 가락동 2-9,PM9,약국,"의료,건강 > 약국",,425083551,02-6012-5107,퍼스트송파약국,http://place.map.kakao.com/425083551,서울 송파구 오금로 300,127.125670688687,37.5032981984307
서울 송파구 거여동 27,PM9,약국,"의료,건강 > 약국",,10028374,02-409-7230,하나메디칼약국,http://place.map.kakao.com/10028374,서울 송파구 오금로 504,127.144627803367,37.4928536763375
서울 송파구 가락동 3-3,PM9,약국,"의료,건강 > 약국",,21828852,02-407-9933,힐링약국,http://place.map.kakao.com/21828852,서울 송파구 오금로36길 4-17,127.12487706515336,37.50347834006008
서울 송파구 신천동 15,PM9,약국,"의료,건강 > 약국",,1874354801,02-417-3222,2호선아산나나약국,http://place.map.kakao.com/1874354801,서울 송파구 오금로 20,127.103813239361,37.5206871804273
서울 송파구 방이동 65,PM9,약국,"의료,건강 > 약국",,656752013,02-417-0255,송파중앙약국,http://place.map.kakao.com/656752013,서울 송파구 오금로 91,127.107654226051,37.5140523594409
서울 송파구 거여동 21-5,PM9,약국,"의료,건강 > 약국",,1506321202,02-431-3459,정다운약국,http://place.map.kakao.com/1506321202,서울 송파구 오금로 487,127.143204960034,37.4938744478615
서울 송파구 가락동 167,PM9,약국,"의료,건강 > 약국",,8462789,02-431-1221,우리약국,http://place.map.kakao.com/8462789,서울 송파구 오금로 404,127.13522254042857,37.49759239543433
서울 송파구 거여동 27-5,PM9,약국,"의료,건강 > 약국",,9604556,02-449-0113,해피홈약국,http://place.map.kakao.com/9604556,서울 송파구 오금로 512,127.14554226560851,37.492675956042326
서울 송파구 방이동 223-11,PM9,약국,"의료,건강 > 약국",,13513174,02-418-5090,미소약국,http://place.map.kakao.com/13513174,서울 송파구 오금로31길 11,127.121555584682,37.5070362684919
서울 송파구 거여동 31-10,PM9,약국,"의료,건강 > 약국",,16047524,02-401-5565,미래약국,http://place.map.kakao.com/16047524,서울 송파구 오금로 516,127.14618261840648,37.492844554645046
서울 송파구 거여동 696,PM9,약국,"의료,건강 > 약국",,422095476,02-406-8583,누리약국,http://place.map.kakao.com/422095476,서울 송파구 오금로 551,127.15050115597842,37.494565460135235
서울 송파구 거여동 37-3,PM9,약국,"의료,건강 > 약국",,1110872055,02-404-7355,도영약국,http://place.map.kakao.com/1110872055,서울 송파구 오금로 507,127.14525705890637,37.49313131531487
서울 송파구 가락동 8,PM9,약국,"의료,건강 > 약국",,10783927,02-448-5186,새중일약국,http://place.map.kakao.com/10783927,서울 송파구 오금로 306,127.12611330917274,37.50287605634395
서울 송파구 신천동 28,PM9,약국,"의료,건강 > 약국",,1307357828,02-424-2365,환승센터약국,http://place.map.kakao.com/1307357828,서울 송파구 잠실로 지하 156,127.1018185358933,37.511246402115276
서울 송파구 신천동 29-1,PM9,약국,"의료,건강 > 약국",,528722946,02-6325-2580,공감약국,http://place.map.kakao.com/528722946,서울 송파구 잠실로 209,127.10637032385486,37.513905758046576
서울 송파구 문정동 640-3,PM9,약국,"의료,건강 > 약국",,1347003052,070-7799-5938,한스약국,http://place.map.kakao.com/1347003052,서울 송파구 정의로8길 7,127.115861458737,37.486111617481306
서울 송파구 문정동 150-26,PM9,약국,"의료,건강 > 약국",,11495606,02-400-2112,훼미리약국,http://place.map.kakao.com/11495606,서울 송파구 중대로 68,127.11660261214844,37.491560180764075
서울 송파구 가락동 99-7,PM9,약국,"의료,건강 > 약국",,110871721,02-2043-7525,참좋은약국,http://place.map.kakao.com/110871721,서울 송파구 중대로 105,127.120054700567,37.493587592418
서울 송파구 가락동 111,PM9,약국,"의료,건강 > 약국",,347830598,02-3012-3366,이안약국,http://place.map.kakao.com/347830598,서울 송파구 중대로10길 5,127.121963263167,37.4934486845001
서울 송파구 가락동 112-9,PM9,약국,"의료,건강 > 약국",,1708660647,02-400-5339,이룸약국,http://place.map.kakao.com/1708660647,서울 송파구 중대로 118,127.121610889052,37.493716646706
서울 송파구 가락동 36,PM9,약국,"의료,건강 > 약국",,1053060328,02-402-2282,더건강약국,http://place.map.kakao.com/1053060328,서울 송파구 중대로 193,127.12583130789014,37.49926963247691
서울 송파구 문정동 150-2,PM9,약국,"의료,건강 > 약국",,10943958,02-409-3559,한독약국,http://place.map.kakao.com/10943958,서울 송파구 중대로 80,127.117799232036,37.4917301849865
서울 송파구 문정동 150,PM9,약국,"의료,건강 > 약국",,10007167,02-404-8075,한마음약국,http://place.map.kakao.com/10007167,서울 송파구 중대로 24,127.11739545844593,37.490951215883946
서울 송파구 문정동 150-2,PM9,약국,"의료,건강 > 약국",,11284225,02-449-0895,화인약국,http://place.map.kakao.com/11284225,서울 송파구 중대로 80,127.11748042993348,37.49177825579966
서울 송파구 문정동 150,PM9,약국,"의료,건강 > 약국",,16790539,02-402-9433,믿음약국,http://place.map.kakao.com/16790539,서울 송파구 중대로 24,127.11735583964769,37.490924225035066
서울 송파구 문정동 150,PM9,약국,"의료,건강 > 약국",,310309939,02-400-4909,나무약국,http://place.map.kakao.com/310309939,서울 송파구 중대로 24,127.11763546867894,37.49113568358222
서울 송파구 가락동 10-15,PM9,약국,"의료,건강 > 약국",,1737271348,02-400-9208,지하철정문약국,http://place.map.kakao.com/1737271348,서울 송파구 중대로 지하 149,127.12406784800983,37.49560350240245
서울 송파구 문정동 150-2,PM9,약국,"의료,건강 > 약국",,13512453,02-402-4701,소나무약국,http://place.map.kakao.com/13512453,서울 송파구 중대로 80,127.1178433815756,37.49176167619783
서울 송파구 가락동 10-15,PM9,약국,"의료,건강 > 약국",,605729786,010-8484-5912,지하철더조은약국,http://place.map.kakao.com/605729786,서울 송파구 중대로 지하 149,127.12406558337433,37.495601702768255
서울 송파구 장지동 841-2,PM9,약국,"의료,건강 > 약국",,946666399,070-5097-4461,메디팜더미소약국,http://place.map.kakao.com/946666399,서울 송파구 충민로2길 24,127.12736310048525,37.477630300412315
서울 송파구 문정동 634,PM9,약국,"의료,건강 > 약국",,13510216,02-2157-0600,가든파이브약국,http://place.map.kakao.com/13510216,서울 송파구 충민로 66,127.125808745708,37.4777274725993
서울 송파구 문정동 632,PM9,약국,"의료,건강 > 약국",,1916983700,070-4667-4880,가든건강약국,http://place.map.kakao.com/1916983700,서울 송파구 충민로 52,127.12290346878214,37.47788730586409
서울 송파구 장지동 841-4,PM9,약국,"의료,건강 > 약국",,2120221346,02-431-7887,정약국,http://place.map.kakao.com/2120221346,서울 송파구 충민로2길 28,127.12751266074035,37.47715710938122
서울 송파구 장지동 841-2,PM9,약국,"의료,건강 > 약국",,1929115727,02-403-0734,으뜸약국,http://place.map.kakao.com/1929115727,서울 송파구 충민로2길 24,127.1273778130092,37.477639294642195
서울 송파구 문정동 632,PM9,약국,"의료,건강 > 약국",,20248281,02-2047-1970,참한약국,http://place.map.kakao.com/20248281,서울 송파구 충민로 52,127.122946503879,37.4779323115403
서울 송파구 풍납동 306-70,PM9,약국,"의료,건강 > 약국",,8306696,02-477-2590,다사랑약국,http://place.map.kakao.com/8306696,서울 송파구 토성로 11,127.11201667991233,37.53122681109614
서울 송파구 풍납동 269-30,PM9,약국,"의료,건강 > 약국",,10011264,02-473-0056,1번약국,http://place.map.kakao.com/10011264,서울 송파구 토성로 21,127.113027503248,37.5308167935833
서울 송파구 풍납동 271-16,PM9,약국,"의료,건강 > 약국",,12336078,02-3784-8500,가가호호조은약국,http://place.map.kakao.com/12336078,서울 송파구 토성로 16,127.112145124053,37.5308716948313
서울 송파구 풍납동 271-15,PM9,약국,"의료,건강 > 약국",,489145192,02-477-8205,가까운새서울약국,http://place.map.kakao.com/489145192,서울 송파구 토성로 18,127.112289867892,37.5308247052461
서울 송파구 풍납동 259-8,PM9,약국,"의료,건강 > 약국",,22872816,02-483-4561,아산약국,http://place.map.kakao.com/22872816,서울 송파구 토성로 26,127.11304514809521,37.53051404036578
서울 송파구 풍납동 402-4,PM9,약국,"의료,건강 > 약국",,10272560,02-471-5205,늘봄약국,http://place.map.kakao.com/10272560,서울 송파구 토성로 78,127.11831341715609,37.528076176962145
서울 송파구 풍납동 403-2,PM9,약국,"의료,건강 > 약국",,21218946,02-473-6688,새그린약국,http://place.map.kakao.com/21218946,서울 송파구 토성로 58,127.11620276372244,37.529055858915456
서울 송파구 풍납동 406-1,PM9,약국,"의료,건강 > 약국",,9158589,02-473-9119,송파우리약국,http://place.map.kakao.com/9158589,서울 송파구 토성로 65,127.1173451793481,37.528907866140536
서울 송파구 풍납동 162-49,PM9,약국,"의료,건강 > 약국",,1698924970,02-474-3118,새봄약국,http://place.map.kakao.com/1698924970,서울 송파구 풍성로 55,127.118671198479,37.5339683637428
서울 송파구 풍납동 163,PM9,약국,"의료,건강 > 약국",,18519167,02-482-1863,옵티마하나약국,http://place.map.kakao.com/18519167,서울 송파구 풍성로 52,127.118177603833,37.5337778466169
서울 송파구 풍납동 155-9,PM9,약국,"의료,건강 > 약국",,16269295,02-472-5549,새동산약국,http://place.map.kakao.com/16269295,서울 송파구 풍성로25가길 11,127.12027051687203,37.535070471204946
서울 송파구 풍납동 152-28,PM9,약국,"의료,건강 > 약국",,16794923,02-483-5139,행복한우리약국,http://place.map.kakao.com/16794923,서울 송파구 풍성로25길 41,127.12145027994157,37.53697037400077
서울 송파구 풍납동 395-2,PM9,약국,"의료,건강 > 약국",,10320322,02-473-0111,대학약국 강남점,http://place.map.kakao.com/10320322,서울 송파구 강동대로 57,127.113900176908,37.5273561104993
서울 송파구 풍납동 514-1,PM9,약국,"의료,건강 > 약국",,8722210,02-489-4383,가까운이화약국,http://place.map.kakao.com/8722210,서울 송파구 강동대로 74,127.1147134498564,37.52652730295552
서울 송파구 풍납동 514-1,PM9,약국,"의료,건강 > 약국",,1204598895,02-483-8875,가장빠른천사약국,http://place.map.kakao.com/1204598895,서울 송파구 강동대로 74,127.11499832992945,37.52639277667029
서울 송파구 풍납동 393-6,PM9,약국,"의료,건강 > 약국",,8153573,02-488-4214,가장큰현대아산약국,http://place.map.kakao.com/8153573,서울 송파구 강동대로 67,127.11507623216647,37.52702700589444
서울 송파구 풍납동 395-11,PM9,약국,"의료,건강 > 약국",,9214436,02-488-8575,주차편한아산메디칼약국,http://place.map.kakao.com/9214436,서울 송파구 강동대로 61,127.11430730437782,37.52726201300353
서울 송파구 풍납동 514-1,PM9,약국,"의료,건강 > 약국",,8923507,02-485-5000,가장편한대영약국,http://place.map.kakao.com/8923507,서울 송파구 강동대로 74,127.11514422508118,37.52636560447283
서울 송파구 풍납동 394-15,PM9,약국,"의료,건강 > 약국",,1528682491,02-474-1331,정다움약국,http://place.map.kakao.com/1528682491,서울 송파구 강동대로 65,127.114822931042,37.5270993325531
서울 송파구 풍납동 514-1,PM9,약국,"의료,건강 > 약국",,9368456,02-484-2888,가장친절한정문앞중앙약국,http://place.map.kakao.com/9368456,서울 송파구 강동대로 74,127.11489433948209,37.52645054198376
서울 송파구 풍납동 393-16,PM9,약국,"의료,건강 > 약국",,371810643,02-489-3551,주차바로약국,http://place.map.kakao.com/371810643,서울 송파구 강동대로 69,127.1151891960962,37.526918775588555
서울 송파구 풍납동 392-13,PM9,약국,"의료,건강 > 약국",,12502596,02-482-2621,밝은중앙약국,http://place.map.kakao.com/12502596,서울 송파구 강동대로 73,127.11558269393,37.5267922509287
서울 송파구 풍납동 392-7,PM9,약국,"의료,건강 > 약국",,11652831,02-474-8833,새하나약국,http://place.map.kakao.com/11652831,서울 송파구 강동대로 71,127.11544247959334,37.52683563614148
서울 송파구 풍납동 395-21,PM9,약국,"의료,건강 > 약국",,26313889,02-482-7579,크게열린약국,http://place.map.kakao.com/26313889,서울 송파구 강동대로 59-3,127.11413773623885,37.527345970138335
서울 송파구 풍납동 392-5,PM9,약국,"의료,건강 > 약국",,19231067,02-596-1136,신아산약국,http://place.map.kakao.com/19231067,서울 송파구 강동대로7길 4,127.11552421933969,37.52702116253038
서울 송파구 풍납동 393-13,PM9,약국,"의료,건강 > 약국",,203461812,02-477-0969,올리브약국,http://place.map.kakao.com/203461812,서울 송파구 강동대로7길 3,127.11534334702,37.5271096374626
서울 송파구 풍납동 394-7,PM9,약국,"의료,건강 > 약국",,1931936304,02-473-0777,미래아산약국,http://place.map.kakao.com/1931936304,서울 송파구 강동대로 63,127.11462956096577,37.52715358048468
서울 송파구 삼전동 131-5,PM9,약국,"의료,건강 > 약국",,9761433,02-417-8911,메디팜석촌약국,http://place.map.kakao.com/9761433,서울 송파구 삼학사로 81,127.096914413727,37.5043848726074
서울 송파구 마천동 75-7,PM9,약국,"의료,건강 > 약국",,16621232,02-443-3532,보성약국,http://place.map.kakao.com/16621232,서울 송파구 성내천로 212,127.15127197754522,37.49997681701166
서울 송파구 마천동 202-9,PM9,약국,"의료,건강 > 약국",,13503175,02-443-6401,구인약국,http://place.map.kakao.com/13503175,서울 송파구 성내천로 261,127.15430843646153,37.49723203103299
서울 송파구 문정동 618,PM9,약국,"의료,건강 > 약국",,1889287697,02-400-1502,송파24약국,http://place.map.kakao.com/1889287697,서울 송파구 송파대로 111,127.124530431592,37.4806629617714
서울 송파구 문정동 652-3,PM9,약국,"의료,건강 > 약국",,426117458,02-406-2007,송파힘찬약국,http://place.map.kakao.com/426117458,서울 송파구 송파대로 141,127.123340023571,37.4827982487569
서울 송파구 가락동 96-16,PM9,약국,"의료,건강 > 약국",,8446889,02-403-2638,뉴프라임약국,http://place.map.kakao.com/8446889,서울 송파구 송파대로 278,127.117753416165,37.494238633315
서울 송파구 가락동 96,PM9,약국,"의료,건강 > 약국",,25489957,02-400-7585,유창온누리약국,http://place.map.kakao.com/25489957,서울 송파구 송파대로 288,127.117040079084,37.4950934962848
서울 송파구 석촌동 24,PM9,약국,"의료,건강 > 약국",,1444740356,02-415-8852,호수약국,http://place.map.kakao.com/1444740356,서울 송파구 송파대로49길 52,127.09896166200777,37.506255463574675
서울 송파구 석촌동 290-8,PM9,약국,"의료,건강 > 약국",,532583064,02-416-3389,온누리엄마손약국,http://place.map.kakao.com/532583064,서울 송파구 송파대로 415,127.10784569570072,37.50397084731754
서울 송파구 석촌동 178-14,PM9,약국,"의료,건강 > 약국",,433633950,02-415-8667,석촌솔약국,http://place.map.kakao.com/433633950,서울 송파구 송파대로45길 4,127.10535537425363,37.50641571899064
서울 송파구 석촌동 177-2,PM9,약국,"의료,건강 > 약국",,371940595,02-423-9730,석촌미소약국,http://place.map.kakao.com/371940595,서울 송파구 송파대로45길 3,127.10546260419888,37.506263353500344
서울 송파구 가락동 95-1,PM9,약국,"의료,건강 > 약국",,1898576913,02-406-7990,포도나무약국,http://place.map.kakao.com/1898576913,서울 송파구 송파대로32길 15,127.117098194028,37.4953772556997
서울 송파구 문정동 618,PM9,약국,"의료,건강 > 약국",,830957960,02-2043-1204,하나약국,http://place.map.kakao.com/830957960,서울 송파구 송파대로 111,127.12264388486507,37.4816186525361
서울 송파구 문정동 651,PM9,약국,"의료,건강 > 약국",,2106235651,02-2054-3869,테라약국,http://place.map.kakao.com/2106235651,서울 송파구 송파대로 167,127.120931382213,37.4846631223385
서울 송파구 문정동 618,PM9,약국,"의료,건강 > 약국",,1209474596,02-3402-3678,하비온누리약국,http://place.map.kakao.com/1209474596,서울 송파구 송파대로 111,127.122414969687,37.4812936258906
서울 송파구 가락동 96-12,PM9,약국,"의료,건강 > 약국",,9655440,02-449-8421,가락약국,http://place.map.kakao.com/9655440,서울 송파구 송파대로 286,127.11718680410124,37.49491314955291
서울 송파구 문정동 651,PM9,약국,"의료,건강 > 약국",,1885725511,02-2054-3551,문정온누리약국,http://place.map.kakao.com/1885725511,서울 송파구 송파대로 167,127.1221127792639,37.48526738451836
서울 송파구 가락동 913,PM9,약국,"의료,건강 > 약국",,1427188113,02-409-3016,헬리오이화약국,http://place.map.kakao.com/1427188113,서울 송파구 송파대로 345,127.11126180951588,37.49905900147569
서울 송파구 가락동 600,PM9,약국,"의료,건강 > 약국",,524757605,02-404-2101,일층가락약국,http://place.map.kakao.com/524757605,서울 송파구 양재대로 932,127.11568881601869,37.495138075568825
서울 송파구 방이동 89-11,PM9,약국,"의료,건강 > 약국",,13508683,02-404-9620,온누리건강약국,http://place.map.kakao.com/13508683,서울 송파구 양재대로 1222,127.132822106559,37.5156809815768
서울 송파구 방이동 89-11,PM9,약국,"의료,건강 > 약국",,16848792,02-406-2271,종우약국,http://place.map.kakao.com/16848792,서울 송파구 양재대로 1222,127.132034611653,37.5155521200495
서울 송파구 방이동 89-11,PM9,약국,"의료,건강 > 약국",,16763181,02-3012-0002,프라자약국,http://place.map.kakao.com/16763181,서울 송파구 양재대로 1222,127.13219503473312,37.515440216224725
서울 송파구 오금동 1-1,PM9,약국,"의료,건강 > 약국",,1342849934,02-6677-7575,은하약국,http://place.map.kakao.com/1342849934,서울 송파구 양재대로 1164,127.128257977692,37.5110476598257
서울 송파구 방이동 89-11,PM9,약국,"의료,건강 > 약국",,979366273,02-408-3393,참소망약국,http://place.map.kakao.com/979366273,서울 송파구 양재대로 1222,127.13184233101467,37.51555864185421
서울 송파구 방이동 89-11,PM9,약국,"의료,건강 > 약국",,699465983,02-401-7657,3층메디칼약국,http://place.map.kakao.com/699465983,서울 송파구 양재대로 1222,127.132360242801,37.5154760713339
서울 송파구 가락동 600,PM9,약국,"의료,건강 > 약국",,13503639,02-407-2218,평화약국,http://place.map.kakao.com/13503639,서울 송파구 양재대로 932,127.1155959081976,37.49502103568223
서울 송파구 가락동 93-8,PM9,약국,"의료,건강 > 약국",,10204235,02-408-7461,정문약국,http://place.map.kakao.com/10204235,서울 송파구 양재대로60길 3-12,127.117280987671,37.4987369260531
서울 송파구 신천동 17-4,PM9,약국,"의료,건강 > 약국",,16647714,02-487-1218,나루역사거리현대약국,http://place.map.kakao.com/16647714,서울 송파구 올림픽로37길 130,127.10427550262274,37.521212057691784
서울 송파구 방이동 36-8,PM9,약국,"의료,건강 > 약국",,22174522,02-421-6251,친절한약국,http://place.map.kakao.com/22174522,서울 송파구 올림픽로32길 13,127.10933412968448,37.5148932546592
서울 송파구 잠실동 183,PM9,약국,"의료,건강 > 약국",,9590013,02-415-1121,헬로팜약국,http://place.map.kakao.com/9590013,서울 송파구 올림픽로12길 5,127.08302905576357,37.51104756602953
서울 송파구 잠실동 194,PM9,약국,"의료,건강 > 약국",,478550835,02-412-0199,라미약국,http://place.map.kakao.com/478550835,서울 송파구 올림픽로8길 20,127.08008397792749,37.510184635359366
서울 송파구 풍납동 391-5,PM9,약국,"의료,건강 > 약국",,307733899,02-6949-2047,아산큰길약국,http://place.map.kakao.com/307733899,서울 송파구 올림픽로 493,127.11775305040217,37.52640537928637
서울 송파구 방이동 107-3,PM9,약국,"의료,건강 > 약국",,243513973,02-424-5010,온약국,http://place.map.kakao.com/243513973,서울 송파구 올림픽로32길 59,127.112794697446,37.5121996039544
서울 송파구 신천동 29,PM9,약국,"의료,건강 > 약국",,80990086,02-3213-2887,시그니처약국,http://place.map.kakao.com/80990086,서울 송파구 올림픽로 300,127.10245395893595,37.51272890512515
서울 송파구 신천동 7-18,PM9,약국,"의료,건강 > 약국",,10078504,02-2146-2314,온누리캐슬프라자약국,http://place.map.kakao.com/10078504,서울 송파구 올림픽로 269,127.10033591825919,37.5147823086204
서울 송파구 잠실동 40-1,PM9,약국,"의료,건강 > 약국",,1056789913,02-417-2119,잠실365약국,http://place.map.kakao.com/1056789913,서울 송파구 올림픽로 240,127.09814152531808,37.51130988169938
서울 송파구 잠실동 175-7,PM9,약국,"의료,건강 > 약국",,1050074867,02-423-7272,다인약국,http://place.map.kakao.com/1050074867,서울 송파구 올림픽로 76,127.0793864431106,37.51155733566771
서울 송파구 신천동 17-4,PM9,약국,"의료,건강 > 약국",,514250664,02-413-9333,위드팜가까운지하철약국,http://place.map.kakao.com/514250664,서울 송파구 올림픽로37길 130,127.10415098763121,37.521153602394435
서울 송파구 신천동 7,PM9,약국,"의료,건강 > 약국",,11495689,02-423-3016,월드중앙약국,http://place.map.kakao.com/11495689,서울 송파구 올림픽로35길 112,127.101764107177,37.5178093587566
서울 송파구 잠실동 40-1,PM9,약국,"의료,건강 > 약국",,13507785,02-411-0187,키즈플러스약국,http://place.map.kakao.com/13507785,서울 송파구 올림픽로 240,127.09782573941388,37.51114255689495
서울 송파구 잠실동 184-7,PM9,약국,"의료,건강 > 약국",,8251352,02-424-7434,녹십자약국,http://place.map.kakao.com/8251352,서울 송파구 올림픽로 130,127.08487983278,37.5113643050534
서울 송파구 잠실동 184-1,PM9,약국,"의료,건강 > 약국",,13513620,02-3431-4115,시티약국,http://place.map.kakao.com/13513620,서울 송파구 올림픽로 116,127.08347625659734,37.51143468262543
서울 송파구 거여동 604-4,PM9,약국,"의료,건강 > 약국",,237633054,0507-1495-7858,위례탑약국,http://place.map.kakao.com/237633054,서울 송파구 위례서로 234,127.141801717587,37.4855445289846
서울 송파구 풍납동 476-15,PM9,약국,"의료,건강 > 약국",,2071797744,02-488-8878,라파약국,http://place.map.kakao.com/2071797744,서울 송파구 천호대로152길 17,127.1215673314031,37.53728560353498
서울 송파구 풍납동 506,PM9,약국,"의료,건강 > 약국",,13501762,02-470-9280,영진약국,http://place.map.kakao.com/13501762,서울 송파구 한가람로16길 7,127.11574779019892,37.53699412095552
서울 송파구 풍납동 480,PM9,약국,"의료,건강 > 약국",,16047337,02-476-2106,천호푸른약국,http://place.map.kakao.com/16047337,서울 송파구 바람드리길 62,127.12241608164452,37.53668916580064
서울 송파구 풍납동 152-2,PM9,약국,"의료,건강 > 약국",,10527042,02-478-6665,시장 온누리약국,http://place.map.kakao.com/10527042,서울 송파구 바람드리길 52,127.121387188835,37.5371371238566
서울 송파구 방이동 119,PM9,약국,"의료,건강 > 약국",,11860798,02-424-3641,송파태양약국,http://place.map.kakao.com/11860798,서울 송파구 백제고분로48길 22,127.11552651179842,37.51089861710242
서울 송파구 삼전동 97-6,PM9,약국,"의료,건강 > 약국",,16529092,02-417-1365,시온약국,http://place.map.kakao.com/16529092,서울 송파구 백제고분로27길 19,127.093164770175,37.5048888482148
서울 송파구 송파동 137-8,PM9,약국,"의료,건강 > 약국",,16472536,02-3431-9800,산돌약국,http://place.map.kakao.com/16472536,서울 송파구 백제고분로46길 9,127.112342351197,37.5084833931632
서울 송파구 잠실동 250-5,PM9,약국,"의료,건강 > 약국",,27463742,02-3432-0365,매일여는온누리약국,http://place.map.kakao.com/27463742,서울 송파구 백제고분로 187,127.087776624928,37.5047127738329
서울 송파구 잠실동 234-9,PM9,약국,"의료,건강 > 약국",,18341638,02-412-7999,잠실프라자약국,http://place.map.kakao.com/18341638,서울 송파구 백제고분로 171,127.085954000457,37.50514389353912
서울 송파구 방이동 154-14,PM9,약국,"의료,건강 > 약국",,12985520,02-423-0203,녹원약국,http://place.map.kakao.com/12985520,서울 송파구 백제고분로50길 26,127.117426157308,37.5134447825664
서울 송파구 송파동 17-3,PM9,약국,"의료,건강 > 약국",,10117791,02-412-0306,감초당약국,http://place.map.kakao.com/10117791,서울 송파구 백제고분로41길 11,127.1080389756611,37.507031384233976
서울 송파구 삼전동 48-11,PM9,약국,"의료,건강 > 약국",,9932948,02-417-0910,건강프라자약국,http://place.map.kakao.com/9932948,서울 송파구 백제고분로 216,127.09055720348,37.5033879993007
서울 송파구 삼전동 7-9,PM9,약국,"의료,건강 > 약국",,13502911,02-415-5716,삼전종로약국,http://place.map.kakao.com/13502911,서울 송파구 백제고분로 203,127.0895074560983,37.50414384177845
서울 송파구 석촌동 14-13,PM9,약국,"의료,건강 > 약국",,8394076,02-554-4458,푸른약국,http://place.map.kakao.com/8394076,서울 송파구 백제고분로 279,127.097672278388,37.5027408148537
서울 송파구 방이동 108-11,PM9,약국,"의료,건강 > 약국",,11495714,02-417-8486,제일약국,http://place.map.kakao.com/11495714,서울 송파구 백제고분로 457,127.1126692725552,37.51153027779323
서울 송파구 삼전동 28-22,PM9,약국,"의료,건강 > 약국",,9252689,02-414-2411,영보약국,http://place.map.kakao.com/9252689,서울 송파구 백제고분로 202,127.089028665282,37.5038108316586
서울 송파구 방이동 122-7,PM9,약국,"의료,건강 > 약국",,389806196,02-3432-0105,해든약국,http://place.map.kakao.com/389806196,서울 송파구 백제고분로48길 38,127.11705027789104,37.510320474405795
서울 송파구 송파동 84-1,PM9,약국,"의료,건강 > 약국",,54668729,02-415-6704,오약국,http://place.map.kakao.com/54668729,서울 송파구 백제고분로 386,127.108954556439,37.5058880693056
서울 송파구 방이동 110-3,PM9,약국,"의료,건강 > 약국",,140727487,02-417-8816,별온누리약국,http://place.map.kakao.com/140727487,서울 송파구 백제고분로 460,127.113333130424,37.5114773844778
서울 송파구 잠실동 208-7,PM9,약국,"의료,건강 > 약국",,8553790,02-420-2290,코끼리약국,http://place.map.kakao.com/8553790,서울 송파구 석촌호수로 78,127.0861940701238,37.50934240075493
서울 송파구 잠실동 208-4,PM9,약국,"의료,건강 > 약국",,765986947,070-7867-0079,잠실새내약국,http://place.map.kakao.com/765986947,서울 송파구 석촌호수로 74,127.085440287432,37.5098853530307
서울 송파구 삼전동 1-1,PM9,약국,"의료,건강 > 약국",,581561835,02-415-8839,새롬약국,http://place.map.kakao.com/581561835,서울 송파구 석촌호수로 130,127.09150391976351,37.50718770892038
서울 송파구 잠실동 242,PM9,약국,"의료,건강 > 약국",,9501029,02-2202-0949,태평양약국,http://place.map.kakao.com/9501029,서울 송파구 석촌호수로 100,127.088020134454,37.5079021499261
서울 송파구 잠실동 208-13,PM9,약국,"의료,건강 > 약국",,17040616,02-418-6700,숲약국,http://place.map.kakao.com/17040616,서울 송파구 석촌호수로 68,127.08572573610205,37.51025726099945
서울 송파구 잠실동 44-1,PM9,약국,"의료,건강 > 약국",,1971038112,02-423-8839,바다약국,http://place.map.kakao.com/1971038112,서울 송파구 석촌호수로 133,127.09165146239465,37.50760656171873
서울 송파구 잠실동 242-9,PM9,약국,"의료,건강 > 약국",,16820355,02-3431-7771,청호봄약국,http://place.map.kakao.com/16820355,서울 송파구 석촌호수로 118,127.09005426262229,37.5074293912431
서울 송파구 잠실동 184-9,PM9,약국,"의료,건강 > 약국",,16487054,02-412-5792,지혜온누리약국,http://place.map.kakao.com/16487054,서울 송파구 석촌호수로 58,127.08544958209845,37.511093593020234
서울 송파구 삼전동 111-3,PM9,약국,"의료,건강 > 약국",,13508851,02-413-8897,뉴시티약국,http://place.map.kakao.com/13508851,서울 송파구 석촌호수로 160,127.09478207126108,37.50668957144643
서울 송파구 잠실동 209,PM9,약국,"의료,건강 > 약국",,2065258870,070-8080-4509,잠실팜약국,http://place.map.kakao.com/2065258870,서울 송파구 석촌호수로 80,127.086325008809,37.5091152520155
서울 송파구 잠실동 35-2,PM9,약국,"의료,건강 > 약국",,1993236943,02-422-8326,새내수약국,http://place.map.kakao.com/1993236943,서울 송파구 석촌호수로 61,127.086209208289,37.5107038072455
서울 송파구 잠실동 35-2,PM9,약국,"의료,건강 > 약국",,2056264721,02-422-1239,차돌약국,http://place.map.kakao.com/2056264721,서울 송파구 석촌호수로 61,127.08623181283285,37.51068937467807
서울 송파구 잠실동 35-2,PM9,약국,"의료,건강 > 약국",,26890859,02-414-5145,비타민약국,http://place.map.kakao.com/26890859,서울 송파구 석촌호수로 61,127.08621372837,37.5107001999295
서울 송파구 잠실동 44-3,PM9,약국,"의료,건강 > 약국",,1660477109,070-4897-7137,레이크이화약국,http://place.map.kakao.com/1660477109,서울 송파구 석촌호수로 135,127.092222530189,37.5075313338659
서울 송파구 잠실동 35-2,PM9,약국,"의료,건강 > 약국",,19142531,070-7562-8231,트리지움자연약국,http://place.map.kakao.com/19142531,서울 송파구 석촌호수로 61,127.086204725512,37.5107398506859
서울 송파구 장지동 894,PM9,약국,"의료,건강 > 약국",,60857196,02-403-0020,트램온누리약국,http://place.map.kakao.com/60857196,서울 송파구 위례광장로 136,127.14158047609399,37.47555441340998
서울 송파구 장지동 884,PM9,약국,"의료,건강 > 약국",,723953222,02-403-8275,아이파크약국,http://place.map.kakao.com/723953222,서울 송파구 위례광장로 230,127.14320416357575,37.478648323266356
서울 송파구 장지동 881-5,PM9,약국,"의료,건강 > 약국",,1850568618,02-401-7560,기쁨약국,http://place.map.kakao.com/1850568618,서울 송파구 위례광장로 200,127.142904912952,37.4812075496035
서울 송파구 장지동 3-1,PM9,약국,"의료,건강 > 약국",,1360711019,02-449-7478,위례푸른약국,http://place.map.kakao.com/1360711019,서울 송파구 위례광장로 193,127.14225675622356,37.48163721168575
서울 송파구 장지동 880-1,PM9,약국,"의료,건강 > 약국",,27595555,02-403-1515,위례정약국,http://place.map.kakao.com/27595555,서울 송파구 위례광장로 199,127.14293509657777,37.48162107587165
서울 송파구 오금동 18-7,PM9,약국,"의료,건강 > 약국",,10635852,02-403-3666,오금중앙약국,http://place.map.kakao.com/10635852,서울 송파구 위례성대로20길 33,127.12711363070197,37.50854951161035
서울 송파구 오금동 18-38,PM9,약국,"의료,건강 > 약국",,9647829,02-406-5258,햇살약국,http://place.map.kakao.com/9647829,서울 송파구 위례성대로20길 31,127.127258649357,37.5086953181501
서울 송파구 오금동 2,PM9,약국,"의료,건강 > 약국",,72262531,02-6953-3753,주연온누리약국,http://place.map.kakao.com/72262531,서울 송파구 위례성대로 158,127.12865814096,37.5109120740635
서울 송파구 삼전동 14-6,PM9,약국,"의료,건강 > 약국",,82588963,02-422-0075,잠실수약국,http://place.map.kakao.com/82588963,서울 송파구 삼전로10길 11,127.09073318004957,37.505818776098586
서울 송파구 거여동 565-2,PM9,약국,"의료,건강 > 약국",,9275975,02-431-0419,온누리봄빛약국,http://place.map.kakao.com/9275975,서울 송파구 양산로10길 4,127.14476174943606,37.49253365498032
서울 송파구 가락동 111,PM9,약국,"의료,건강 > 약국",,347830598,02-3012-3366,이안약국,http://place.map.kakao.com/347830598,서울 송파구 중대로10길 5,127.121963263167,37.4934486845001
서울 송파구 석촌동 271,PM9,약국,"의료,건강 > 약국",,8045712,02-414-0847,일선약국,http://place.map.kakao.com/8045712,서울 송파구 가락로11길 8,127.10481062622986,37.5010317967406
서울 송파구 문정동 644,PM9,약국,"의료,건강 > 약국",,979243338,02-3400-0088,대한약국,http://place.map.kakao.com/979243338,서울 송파구 법원로11길 11,127.11824569764292,37.485154187035
서울 송파구 방이동 43,PM9,약국,"의료,건강 > 약국",,977791887,02-416-5431,오렌지온누리약국,http://place.map.kakao.com/977791887,서울 송파구 오금로11길 37,127.11128975726054,37.51560141888906
서울 송파구 잠실동 183,PM9,약국,"의료,건강 > 약국",,9590013,02-415-1121,헬로팜약국,http://place.map.kakao.com/9590013,서울 송파구 올림픽로12길 5,127.08302905576357,37.51104756602953
서울 송파구 잠실동 218-6,PM9,약국,"의료,건강 > 약국",,25689398,02-2202-2468,신화약국,http://place.map.kakao.com/25689398,서울 송파구 올림픽로12길 34,127.083320452732,37.508637174147
서울 송파구 가락동 186-5,PM9,약국,"의료,건강 > 약국",,16818710,02-443-7173,감람약국,http://place.map.kakao.com/16818710,서울 송파구 문정로13길 11-10,127.1349515562546,37.49405625632001
서울 송파구 풍납동 476-15,PM9,약국,"의료,건강 > 약국",,2071797744,02-488-8878,라파약국,http://place.map.kakao.com/2071797744,서울 송파구 천호대로152길 17,127.1215673314031,37.53728560353498
서울 송파구 풍납동 506,PM9,약국,"의료,건강 > 약국",,13501762,02-470-9280,영진약국,http://place.map.kakao.com/13501762,서울 송파구 한가람로16길 7,127.11574779019892,37.53699412095552
서울 송파구 방이동 108-6,PM9,약국,"의료,건강 > 약국",,701385071,02-420-8755,미소담한약국,http://place.map.kakao.com/701385071,서울 송파구 오금로17길 4,127.111546512954,37.5110339892226
서울 송파구 가락동 189-13,PM9,약국,"의료,건강 > 약국",,844782808,02-403-1017,늘조은온누리약국,http://place.map.kakao.com/844782808,서울 송파구 동남로18길 45,127.134821595487,37.4928436499894
서울 송파구 장지동 841-2,PM9,약국,"의료,건강 > 약국",,946666399,070-5097-4461,메디팜더미소약국,http://place.map.kakao.com/946666399,서울 송파구 충민로2길 24,127.12736310048525,37.477630300412315
서울 송파구 장지동 841-4,PM9,약국,"의료,건강 > 약국",,2120221346,02-431-7887,정약국,http://place.map.kakao.com/2120221346,서울 송파구 충민로2길 28,127.12751266074035,37.47715710938122
서울 송파구 장지동 841-2,PM9,약국,"의료,건강 > 약국",,1929115727,02-403-0734,으뜸약국,http://place.map.kakao.com/1929115727,서울 송파구 충민로2길 24,127.1273778130092,37.477639294642195
서울 송파구 오금동 18-7,PM9,약국,"의료,건강 > 약국",,10635852,02-403-3666,오금중앙약국,http://place.map.kakao.com/10635852,서울 송파구 위례성대로20길 33,127.12711363070197,37.50854951161035
서울 송파구 오금동 18-38,PM9,약국,"의료,건강 > 약국",,9647829,02-406-5258,햇살약국,http://place.map.kakao.com/9647829,서울 송파구 위례성대로20길 31,127.127258649357,37.5086953181501
서울 송파구 가락동 181-11,PM9,약국,"의료,건강 > 약국",,16935441,02-449-7933,하이팜스,http://place.map.kakao.com/16935441,서울 송파구 동남로20길 32,127.135141890786,37.4948831625432
서울 송파구 삼전동 37-17,PM9,약국,"의료,건강 > 약국",,17398548,02-423-6410,도움약국,http://place.map.kakao.com/17398548,서울 송파구 백제고분로22길 36,127.088075286926,37.5009355368268
서울 송파구 마천동 176-23,PM9,약국,"의료,건강 > 약국",,9089590,02-400-2636,동의삼성약국,http://place.map.kakao.com/9089590,서울 송파구 거마로22길 49,127.15209567435437,37.49683125004012
서울 송파구 풍납동 152-28,PM9,약국,"의료,건강 > 약국",,16794923,02-483-5139,행복한우리약국,http://place.map.kakao.com/16794923,서울 송파구 풍성로25길 41,127.12145027994157,37.53697037400077
서울 송파구 풍납동 155-9,PM9,약국,"의료,건강 > 약국",,16269295,02-472-5549,새동산약국,http://place.map.kakao.com/16269295,서울 송파구 풍성로25가길 11,127.12027051687203,37.535070471204946
서울 송파구 삼전동 97-6,PM9,약국,"의료,건강 > 약국",,16529092,02-417-1365,시온약국,http://place.map.kakao.com/16529092,서울 송파구 백제고분로27길 19,127.093164770175,37.5048888482148
서울 송파구 가락동 80,PM9,약국,"의료,건강 > 약국",,17012528,02-406-3555,성원큰사랑약국,http://place.map.kakao.com/17012528,서울 송파구 송파대로28길 27,127.1206079820555,37.49519352339253
서울 송파구 가락동 80,PM9,약국,"의료,건강 > 약국",,13512803,02-403-4131,송파새롬약국,http://place.map.kakao.com/13512803,서울 송파구 송파대로28길 27,127.120437021147,37.4950648538963
서울 송파구 오금동 618-3,PM9,약국,"의료,건강 > 약국",,9089075,02-449-2201,새힘온누리약국,http://place.map.kakao.com/9089075,서울 송파구 동남로29길 4,127.1383453234819,37.5052085808817
서울 송파구 오금동 618-1,PM9,약국,"의료,건강 > 약국",,478089635,02-402-3938,기쁜약국,http://place.map.kakao.com/478089635,서울 송파구 동남로29길 8-10,127.13858615536807,37.50578494152572
서울 송파구 신천동 7-11,PM9,약국,"의료,건강 > 약국",,1353952052,02-418-9531,잠실 선약국,http://place.map.kakao.com/1353952052,서울 송파구 올림픽로35길 137,127.099644063413,37.5159262676437
서울 송파구 문정동 116-6,PM9,약국,"의료,건강 > 약국",,13500768,02-448-6201,서울약국,http://place.map.kakao.com/13500768,서울 송파구 송이로31길 4,127.13181683485062,37.48819243889566
서울 송파구 방이동 223-11,PM9,약국,"의료,건강 > 약국",,13513174,02-418-5090,미소약국,http://place.map.kakao.com/13513174,서울 송파구 오금로31길 11,127.121555584682,37.5070362684919
서울 송파구 방이동 226-5,PM9,약국,"의료,건강 > 약국",,13513626,02-414-9221,다나약국,http://place.map.kakao.com/13513626,서울 송파구 오금로31길 3,127.12119268156033,37.50642846329253
서울 송파구 가락동 95-1,PM9,약국,"의료,건강 > 약국",,1898576913,02-406-7990,포도나무약국,http://place.map.kakao.com/1898576913,서울 송파구 송파대로32길 15,127.117098194028,37.4953772556997
서울 송파구 방이동 36-8,PM9,약국,"의료,건강 > 약국",,22174522,02-421-6251,친절한약국,http://place.map.kakao.com/22174522,서울 송파구 올림픽로32길 13,127.10933412968448,37.5148932546592
서울 송파구 방이동 107-3,PM9,약국,"의료,건강 > 약국",,243513973,02-424-5010,온약국,http://place.map.kakao.com/243513973,서울 송파구 올림픽로32길 59,127.112794697446,37.5121996039544
서울 송파구 문정동 19,PM9,약국,"의료,건강 > 약국",,1473349318,02-400-8786,고운약국,http://place.map.kakao.com/1473349318,서울 송파구 송이로32길 37,127.12713006266637,37.48688841121764
서울 송파구 송파동 163-14,PM9,약국,"의료,건강 > 약국",,13508677,02-413-8548,삼청약국,http://place.map.kakao.com/13508677,서울 송파구 오금로32길 44,127.11798879186992,37.50297004606465
서울 송파구 송파동 163-20,PM9,약국,"의료,건강 > 약국",,1518002817,02-422-4262,송파온누리약국,http://place.map.kakao.com/1518002817,서울 송파구 오금로32길 28,127.119324872406,37.5039571065975
서울 송파구 송파동 167-1,PM9,약국,"의료,건강 > 약국",,1684788742,02-2202-7747,그린스타약국,http://place.map.kakao.com/1684788742,서울 송파구 오금로32길 35,127.119034221117,37.5032474078427
서울 송파구 신천동 7,PM9,약국,"의료,건강 > 약국",,11495689,02-423-3016,월드중앙약국,http://place.map.kakao.com/11495689,서울 송파구 올림픽로35길 112,127.101764107177,37.5178093587566
서울 송파구 신천동 7,PM9,약국,"의료,건강 > 약국",,2139217082,02-415-6667,온누리솔약국,http://place.map.kakao.com/2139217082,서울 송파구 올림픽로35길 112,127.10178222291945,37.5178219571895
서울 송파구 신천동 7,PM9,약국,"의료,건강 > 약국",,8133906,02-412-4246,한결약국,http://place.map.kakao.com/8133906,서울 송파구 올림픽로35길 124,127.10069787105532,37.51730390886268
서울 송파구 신천동 20-6,PM9,약국,"의료,건강 > 약국",,146910915,02-423-2771,드림약국,http://place.map.kakao.com/146910915,서울 송파구 올림픽로35길 10,127.113253644071,37.52025323227775
서울 송파구 신천동 7,PM9,약국,"의료,건강 > 약국",,27002207,02-422-7254,해오름약국,http://place.map.kakao.com/27002207,서울 송파구 올림픽로35길 124,127.10070923831,37.5173453453142
서울 송파구 신천동 7-29,PM9,약국,"의료,건강 > 약국",,26497033,02-2152-7577,삼성수약국,http://place.map.kakao.com/26497033,서울 송파구 올림픽로35길 123,127.101269317707,37.5166240639077
서울 송파구 신천동 7-11,PM9,약국,"의료,건강 > 약국",,1353952052,02-418-9531,잠실 선약국,http://place.map.kakao.com/1353952052,서울 송파구 올림픽로35길 137,127.099644063413,37.5159262676437
서울 송파구 신천동 20-6,PM9,약국,"의료,건강 > 약국",,782620283,02-425-2777,메디팜우주약국,http://place.map.kakao.com/782620283,서울 송파구 올림픽로35길 10,127.113265048679,37.520314489516
서울 송파구 신천동 20-6,PM9,약국,"의료,건강 > 약국",,11019352,02-419-8875,남일온누리약국,http://place.map.kakao.com/11019352,서울 송파구 올림픽로35길 10,127.11326499964929,37.52028205347076
서울 송파구 신천동 7,PM9,약국,"의료,건강 > 약국",,26516823,02-412-4962,장미미소약국,http://place.map.kakao.com/26516823,서울 송파구 올림픽로35길 112,127.10207652297801,37.517966764700084
서울 송파구 신천동 20-6,PM9,약국,"의료,건강 > 약국",,13512573,02-425-3296,송파미소약국,http://place.map.kakao.com/13512573,서울 송파구 올림픽로35길 10,127.1132649355594,37.520314489624475
서울 송파구 신천동 7,PM9,약국,"의료,건강 > 약국",,10049217,02-412-3358,3층하나약국,http://place.map.kakao.com/10049217,서울 송파구 올림픽로35길 112,127.101804878011,37.5178453637434
서울 송파구 신천동 7-12,PM9,약국,"의료,건강 > 약국",,834721397,02-418-4837,잠실미소약국,http://place.map.kakao.com/834721397,서울 송파구 올림픽로35가길 16,127.103006246532,37.5162513485929
서울 송파구 신천동 11-4,PM9,약국,"의료,건강 > 약국",,21877915,02-422-8408,참약국,http://place.map.kakao.com/21877915,서울 송파구 올림픽로35가길 9,127.10344570143003,37.517485338867125
서울 송파구 신천동 11-9,PM9,약국,"의료,건강 > 약국",,10512113,02-414-0185,상일약국,http://place.map.kakao.com/10512113,서울 송파구 올림픽로35가길 11,127.1039621231973,37.51629646228544
서울 송파구 신천동 7-20,PM9,약국,"의료,건강 > 약국",,1564783928,02-6424-7050,루터약국,http://place.map.kakao.com/1564783928,서울 송파구 올림픽로35다길 42,127.10289871570713,37.51537476608128
서울 송파구 오금동 43,PM9,약국,"의료,건강 > 약국",,13500304,,소망약국,http://place.map.kakao.com/13500304,서울 송파구 오금로35길 17,127.12619474365755,37.50522520957714
서울 송파구 가락동 3-3,PM9,약국,"의료,건강 > 약국",,21828852,02-407-9933,힐링약국,http://place.map.kakao.com/21828852,서울 송파구 오금로36길 4-17,127.12487706515336,37.50347834006008
서울 송파구 석촌동 297-30,PM9,약국,"의료,건강 > 약국",,228160835,02-408-5547,오로라약국,http://place.map.kakao.com/228160835,서울 송파구 송파대로37길 26-1,127.10930029202999,37.500996192834485
서울 송파구 신천동 17-4,PM9,약국,"의료,건강 > 약국",,16647714,02-487-1218,나루역사거리현대약국,http://place.map.kakao.com/16647714,서울 송파구 올림픽로37길 130,127.10427550262274,37.521212057691784
서울 송파구 신천동 17-4,PM9,약국,"의료,건강 > 약국",,514250664,02-413-9333,위드팜가까운지하철약국,http://place.map.kakao.com/514250664,서울 송파구 올림픽로37길 130,127.10415098763121,37.521153602394435
서울 송파구 신천동 17-4,PM9,약국,"의료,건강 > 약국",,10432484,02-421-0793,삼원약국,http://place.map.kakao.com/10432484,서울 송파구 올림픽로37길 130,127.10450114861726,37.520783882061025
서울 송파구 신천동 17-4,PM9,약국,"의료,건강 > 약국",,1842276898,02-421-0855,오메디약국,http://place.map.kakao.com/1842276898,서울 송파구 올림픽로37길 130,127.10458371799362,37.520777501958705
서울 송파구 신천동 17-4,PM9,약국,"의료,건강 > 약국",,13513341,02-424-7786,초록약국,http://place.map.kakao.com/13513341,서울 송파구 올림픽로37길 130,127.10451013544588,37.52073882398135
서울 송파구 신천동 17-4,PM9,약국,"의료,건강 > 약국",,13500306,02-417-1369,파크리오오렌지약국,http://place.map.kakao.com/13500306,서울 송파구 올림픽로37길 130,127.10454859900696,37.52074059194558
서울 송파구 송파동 195-6,PM9,약국,"의료,건강 > 약국",,145987000,010-5773-3721,건강을그리는약국,http://place.map.kakao.com/145987000,서울 송파구 송파대로38길 2-9,127.11256941351685,37.500015531802255
서울 송파구 가락동 161-1,PM9,약국,"의료,건강 > 약국",,13501523,02-401-6407,중앙당약국,http://place.map.kakao.com/13501523,서울 송파구 오금로38길 5-25,127.12980763516245,37.50000235268231
서울 송파구 석촌동 177-3,PM9,약국,"의료,건강 > 약국",,8328865,02-413-3113,봄약국,http://place.map.kakao.com/8328865,서울 송파구 백제고분로39길 14-17,127.10556194725173,37.50613261907232
서울 송파구 석촌동 175-12,PM9,약국,"의료,건강 > 약국",,946940505,,은혜약국,http://place.map.kakao.com/946940505,서울 송파구 백제고분로39길 10-20,127.105905079926,37.5056457693328
서울 송파구 석촌동 293,PM9,약국,"의료,건강 > 약국",,4140887,02-425-0077,현약국,http://place.map.kakao.com/4140887,서울 송파구 송파대로39길 1,127.108750866406,37.5026914911027
서울 송파구 잠실동 101-1,PM9,약국,"의료,건강 > 약국",,16531544,02-412-1212,프리마약국,http://place.map.kakao.com/16531544,서울 송파구 올림픽로4길 48,127.07438333368391,37.5066095722748
서울 송파구 잠실동 101-1,PM9,약국,"의료,건강 > 약국",,16904854,02-413-4013,쌍용약국,http://place.map.kakao.com/16904854,서울 송파구 올림픽로4길 48,127.0742893896746,37.50653755099991
서울 송파구 잠실동 85-1,PM9,약국,"의료,건강 > 약국",,9167663,02-417-5463,선수촌약국,http://place.map.kakao.com/9167663,서울 송파구 올림픽로4길 17,127.077055599178,37.50854051452891
서울 송파구 잠실동 101-1,PM9,약국,"의료,건강 > 약국",,16380403,02-423-4080,우성약국,http://place.map.kakao.com/16380403,서울 송파구 올림픽로4길 40,127.07425383595442,37.50718179184302
서울 송파구 문정동 31,PM9,약국,"의료,건강 > 약국",,16762756,02-402-1424,문정약국,http://place.map.kakao.com/16762756,서울 송파구 동남로4길 25,127.1248907560077,37.48793146321621
서울 송파구 문정동 64,PM9,약국,"의료,건강 > 약국",,16823030,02-426-0610,송파그랜드약국,http://place.map.kakao.com/16823030,서울 송파구 문정로4길 14,127.12598373825948,37.48498941389
서울 송파구 송파동 17-3,PM9,약국,"의료,건강 > 약국",,10117791,02-412-0306,감초당약국,http://place.map.kakao.com/10117791,서울 송파구 백제고분로41길 11,127.1080389756611,37.507031384233976
서울 송파구 마천동 126-5,PM9,약국,"의료,건강 > 약국",,11390786,02-448-4411,옵티마100세약국,http://place.map.kakao.com/11390786,서울 송파구 마천로41길 9,127.148865565097,37.4971948658348
서울 송파구 마천동 126,PM9,약국,"의료,건강 > 약국",,26826369,070-8226-3999,송파하나약국,http://place.map.kakao.com/26826369,서울 송파구 마천로41길 1,127.147780339589,37.4973944496357
서울 송파구 마천동 135-5,PM9,약국,"의료,건강 > 약국",,16676332,02-402-0730,고바우약국,http://place.map.kakao.com/16676332,서울 송파구 마천로41길 21,127.14999738740387,37.497114145669634
서울 송파구 마천동 128-61,PM9,약국,"의료,건강 > 약국",,7877679,02-400-8216,명문약국,http://place.map.kakao.com/7877679,서울 송파구 마천로41길 20,127.149643287893,37.4970425142791
서울 송파구 마천동 126-4,PM9,약국,"의료,건강 > 약국",,554670486,02-400-1993,선약국,http://place.map.kakao.com/554670486,서울 송파구 마천로41길 5,127.148131912113,37.4973318399201
서울 송파구 송파동 111-11,PM9,약국,"의료,건강 > 약국",,873754442,02-6404-8039,자담한약국,http://place.map.kakao.com/873754442,서울 송파구 백제고분로42길 19,127.11059096107981,37.50503329702658
서울 송파구 방이동 167-7,PM9,약국,"의료,건강 > 약국",,8650086,02-412-7891,경인약국,http://place.map.kakao.com/8650086,서울 송파구 가락로42길 9,127.12086174363671,37.51231506259689
서울 송파구 송파동 46,PM9,약국,"의료,건강 > 약국",,16046494,02-415-8087,한솔약국,http://place.map.kakao.com/16046494,서울 송파구 백제고분로45길 5,127.110569886756,37.5091482047777
서울 송파구 석촌동 178-14,PM9,약국,"의료,건강 > 약국",,433633950,02-415-8667,석촌솔약국,http://place.map.kakao.com/433633950,서울 송파구 송파대로45길 4,127.10535537425363,37.50641571899064
서울 송파구 석촌동 177-2,PM9,약국,"의료,건강 > 약국",,371940595,02-423-9730,석촌미소약국,http://place.map.kakao.com/371940595,서울 송파구 송파대로45길 3,127.10546260419888,37.506263353500344
서울 송파구 석촌동 178-5,PM9,약국,"의료,건강 > 약국",,10988165,02-415-2726,호원약국,http://place.map.kakao.com/10988165,서울 송파구 송파대로45길 12,127.104471620713,37.5060939441872
서울 송파구 마천동 134-14,PM9,약국,"의료,건강 > 약국",,16528316,02-400-0614,후생약국,http://place.map.kakao.com/16528316,서울 송파구 마천로45길 15,127.150055652022,37.4974096015579
서울 송파구 송파동 137-8,PM9,약국,"의료,건강 > 약국",,16472536,02-3431-9800,산돌약국,http://place.map.kakao.com/16472536,서울 송파구 백제고분로46길 9,127.112342351197,37.5084833931632
서울 송파구 방이동 119,PM9,약국,"의료,건강 > 약국",,11860798,02-424-3641,송파태양약국,http://place.map.kakao.com/11860798,서울 송파구 백제고분로48길 22,127.11552651179842,37.51089861710242
서울 송파구 방이동 122-7,PM9,약국,"의료,건강 > 약국",,389806196,02-3432-0105,해든약국,http://place.map.kakao.com/389806196,서울 송파구 백제고분로48길 38,127.11705027789104,37.510320474405795
서울 송파구 방이동 142-4,PM9,약국,"의료,건강 > 약국",,16790536,02-415-2336,지용약국,http://place.map.kakao.com/16790536,서울 송파구 백제고분로48길 27,127.11603211717711,37.510912537582975
서울 송파구 방이동 146-9,PM9,약국,"의료,건강 > 약국",,9563486,02-415-0036,한사랑약국,http://place.map.kakao.com/9563486,서울 송파구 백제고분로48길 17,127.115309808775,37.511197962162
서울 송파구 석촌동 24,PM9,약국,"의료,건강 > 약국",,1444740356,02-415-8852,호수약국,http://place.map.kakao.com/1444740356,서울 송파구 송파대로49길 52,127.09896166200777,37.506255463574675
서울 송파구 오금동 155-7,PM9,약국,"의료,건강 > 약국",,26626255,02-401-4021,윤정약국,http://place.map.kakao.com/26626255,서울 송파구 오금로49길 31,127.13836911985607,37.49910514440029
서울 송파구 거여동 603-1,PM9,약국,"의료,건강 > 약국",,971764858,,주차장약국,http://place.map.kakao.com/971764858,서울 송파구 위례송파로5길 18,127.143041941766,37.4866629862987
서울 송파구 오금동 17-7,PM9,약국,"의료,건강 > 약국",,11093697,02-403-4737,동서약국,http://place.map.kakao.com/11093697,서울 송파구 마천로5길 4,127.12673841764841,37.50871930358009
서울 송파구 신천동 7-11,PM9,약국,"의료,건강 > 약국",,1353952052,02-418-9531,잠실 선약국,http://place.map.kakao.com/1353952052,서울 송파구 올림픽로35길 137,127.099644063413,37.5159262676437
서울 송파구 방이동 154-14,PM9,약국,"의료,건강 > 약국",,12985520,02-423-0203,녹원약국,http://place.map.kakao.com/12985520,서울 송파구 백제고분로50길 26,127.117426157308,37.5134447825664
서울 송파구 방이동 172-19,PM9,약국,"의료,건강 > 약국",,13508866,02-420-2101,조은약국,http://place.map.kakao.com/13508866,서울 송파구 백제고분로50길 31,127.11814094931837,37.51340532664453
서울 송파구 마천동 182-2,PM9,약국,"의료,건강 > 약국",,10340005,02-449-5982,마천행복한약국,http://place.map.kakao.com/10340005,서울 송파구 마천로51길 2,127.15054267851178,37.49553398875495
서울 송파구 마천동 307-27,PM9,약국,"의료,건강 > 약국",,11669642,02-3401-3818,중앙프라자약국,http://place.map.kakao.com/11669642,서울 송파구 마천로57길 4,127.15202616066259,37.494337354987685
서울 송파구 마천동 307-20,PM9,약국,"의료,건강 > 약국",,9436121,02-400-9240,진메디칼약국,http://place.map.kakao.com/9436121,서울 송파구 마천로57길 3,127.15174134863835,37.4944125046644
서울 송파구 신천동 7-11,PM9,약국,"의료,건강 > 약국",,1353952052,02-418-9531,잠실 선약국,http://place.map.kakao.com/1353952052,서울 송파구 올림픽로35길 137,127.099644063413,37.5159262676437
서울 송파구 가락동 93-8,PM9,약국,"의료,건강 > 약국",,10204235,02-408-7461,정문약국,http://place.map.kakao.com/10204235,서울 송파구 양재대로60길 3-12,127.117280987671,37.4987369260531
서울 송파구 풍납동 392-5,PM9,약국,"의료,건강 > 약국",,19231067,02-596-1136,신아산약국,http://place.map.kakao.com/19231067,서울 송파구 강동대로7길 4,127.11552421933969,37.52702116253038
서울 송파구 풍납동 393-13,PM9,약국,"의료,건강 > 약국",,203461812,02-477-0969,올리브약국,http://place.map.kakao.com/203461812,서울 송파구 강동대로7길 3,127.11534334702,37.5271096374626
서울 송파구 오금동 19,PM9,약국,"의료,건강 > 약국",,10407933,02-430-3371,박순영온누리약국,http://place.map.kakao.com/10407933,서울 송파구 마천로7길 6,127.127941314558,37.5084170714125
서울 송파구 신천동 7-11,PM9,약국,"의료,건강 > 약국",,1353952052,02-418-9531,잠실 선약국,http://place.map.kakao.com/1353952052,서울 송파구 올림픽로35길 137,127.099644063413,37.5159262676437
서울 송파구 잠실동 194,PM9,약국,"의료,건강 > 약국",,478550835,02-412-0199,라미약국,http://place.map.kakao.com/478550835,서울 송파구 올림픽로8길 20,127.08008397792749,37.510184635359366
서울 송파구 문정동 71-2,PM9,약국,"의료,건강 > 약국",,8386396,02-404-9960,새건영약국,http://place.map.kakao.com/8386396,서울 송파구 새말로8길 6,127.1263814583755,37.48214090263543
서울 송파구 문정동 76-1,PM9,약국,"의료,건강 > 약국",,12536936,02-403-7574,천사약국,http://place.map.kakao.com/12536936,서울 송파구 새말로8길 27,127.126925438791,37.4802238745976
서울 송파구 문정동 640-3,PM9,약국,"의료,건강 > 약국",,1347003052,070-7799-5938,한스약국,http://place.map.kakao.com/1347003052,서울 송파구 정의로8길 7,127.115861458737,37.486111617481306
서울 송파구 신천동 7-11,PM9,약국,"의료,건강 > 약국",,1353952052,02-418-9531,잠실 선약국,http://place.map.kakao.com/1353952052,서울 송파구 올림픽로35길 137,127.099644063413,37.5159262676437
서울 송파구 신천동 7-11,PM9,약국,"의료,건강 > 약국",,1353952052,02-418-9531,잠실 선약국,http://place.map.kakao.com/1353952052,서울 송파구 올림픽로35길 137,127.099644063413,37.5159262676437
