address_name,category_group_code,category_group_name,category_name,distance,id,phone,place_name,place_url,road_address_name,x,y
서울 구로구 개봉동 403-163,PM9,약국,"의료,건강 > 약국",,8221352,02-2613-6044,구로프라자온누리약국,http://place.map.kakao.com/8221352,서울 구로구 개봉로 30,126.85653896402495,37.48823113187261
서울 구로구 개봉동 356-9,PM9,약국,"의료,건강 > 약국",,16046358,02-2687-7712,차기정약국,http://place.map.kakao.com/16046358,서울 구로구 개봉로3길 76,126.85212292564896,37.48623355993196
서울 구로구 개봉동 403-95,PM9,약국,"의료,건강 > 약국",,10474235,02-2682-2643,성인약국,http://place.map.kakao.com/10474235,서울 구로구 개봉로 9,126.85623471087,37.4865080360491
서울 구로구 개봉동 403-227,PM9,약국,"의료,건강 > 약국",,9344614,02-2612-5579,은하약국,http://place.map.kakao.com/9344614,서울 구로구 개봉로 68,126.85621447353223,37.49175727846346
서울 구로구 개봉동 403-44,PM9,약국,"의료,건강 > 약국",,10623885,02-2687-2770,온누리자혜약국,http://place.map.kakao.com/10623885,서울 구로구 개봉로 66,126.85631655335237,37.49159522145852
서울 구로구 개봉동 403-55,PM9,약국,"의료,건강 > 약국",,17162396,02-2681-9577,정약국,http://place.map.kakao.com/17162396,서울 구로구 개봉로 57-1,126.85582720889441,37.490862106842926
서울 구로구 개봉동 403-88,PM9,약국,"의료,건강 > 약국",,16095008,02-2683-9003,연세열린약국,http://place.map.kakao.com/16095008,서울 구로구 개봉로 23,126.85611358993945,37.48775848680376
서울 구로구 개봉동 403-103,PM9,약국,"의료,건강 > 약국",,16503246,02-2684-9758,굿모닝약국,http://place.map.kakao.com/16503246,서울 구로구 개봉로 57,126.85583984113725,37.49076120949793
서울 구로구 개봉동 302-16,PM9,약국,"의료,건강 > 약국",,16790332,02-2612-9308,정제약국,http://place.map.kakao.com/16790332,서울 구로구 개봉로17길 10,126.8553212447591,37.49171564267382
서울 구로구 개봉동 361-3,PM9,약국,"의료,건강 > 약국",,16951375,02-2612-3337,늘사랑약국,http://place.map.kakao.com/16951375,서울 구로구 개봉로3길 59,126.85295992739542,37.48608413633712
서울 구로구 개봉동 403-53,PM9,약국,"의료,건강 > 약국",,9134691,02-2060-0875,세진약국,http://place.map.kakao.com/9134691,서울 구로구 개봉로 63,126.855687039175,37.4914268669273
서울 구로구 개봉동 403-206,PM9,약국,"의료,건강 > 약국",,16764565,02-2060-9918,새우리약국,http://place.map.kakao.com/16764565,서울 구로구 개봉로 71,126.855572679042,37.4920934720895
서울 구로구 개봉동 359-13,PM9,약국,"의료,건강 > 약국",,16090103,02-2066-0120,대성약국,http://place.map.kakao.com/16090103,서울 구로구 개봉로3길 35,126.85429968494,37.4861380545623
서울 구로구 개봉동 481,PM9,약국,"의료,건강 > 약국",,13295529,02-2625-1585,새하늘약국,http://place.map.kakao.com/13295529,서울 구로구 개봉로20길 6,126.85798373832392,37.49315868169823
서울 구로구 고척동 94-8,PM9,약국,"의료,건강 > 약국",,9977551,02-2684-2324,태평양약국,http://place.map.kakao.com/9977551,서울 구로구 경서로 6,126.85690379195933,37.49792099766393
서울 구로구 신도림동 437-1,PM9,약국,"의료,건강 > 약국",,8108564,02-2068-5733,태영프라자약국,http://place.map.kakao.com/8108564,서울 구로구 경인로59길 8,126.8833359905667,37.50631409012395
서울 구로구 오류동 10-1,PM9,약국,"의료,건강 > 약국",,13510089,02-2685-1017,태양약국,http://place.map.kakao.com/13510089,서울 구로구 경인로 191,126.842317080298,37.4956264878232
서울 구로구 개봉동 476,PM9,약국,"의료,건강 > 약국",,10935793,02-2613-3006,한마을약국,http://place.map.kakao.com/10935793,서울 구로구 경인로 382,126.863082279213,37.4963659758586
서울 구로구 고척동 46-39,PM9,약국,"의료,건강 > 약국",,12346276,02-2681-3535,고척시장약국,http://place.map.kakao.com/12346276,서울 구로구 경인로47길 126,126.86348304780893,37.50419347369492
서울 구로구 고척동 351,PM9,약국,"의료,건강 > 약국",,229685478,02-2625-7666,은혜온누리약국,http://place.map.kakao.com/229685478,서울 구로구 경인로43길 49,126.85957145565182,37.49854859581508
서울 구로구 구로동 603-9,PM9,약국,"의료,건강 > 약국",,13502933,02-2678-2484,스타약국,http://place.map.kakao.com/13502933,서울 구로구 경인로 572,126.88105033800393,37.50341237695447
서울 구로구 고척동 46-25,PM9,약국,"의료,건강 > 약국",,16619934,02-2683-2865,장수약국,http://place.map.kakao.com/16619934,서울 구로구 경인로47길 94,126.86415163473764,37.502840034064576
서울 구로구 신도림동 337,PM9,약국,"의료,건강 > 약국",,13334391,0303-3445-8855,플러스약국,http://place.map.kakao.com/13334391,서울 구로구 경인로 661,126.888497129598,37.5098284869621
서울 구로구 고척동 63-10,PM9,약국,"의료,건강 > 약국",,1907991140,02-2689-5550,구로솔약국,http://place.map.kakao.com/1907991140,서울 구로구 경인로 433,126.86701283314112,37.499694276265174
서울 구로구 오류동 41-1,PM9,약국,"의료,건강 > 약국",,11495711,02-2688-0155,구로종로약국,http://place.map.kakao.com/11495711,서울 구로구 경인로 193,126.84261546898519,37.49569806518467
서울 구로구 오류동 39-5,PM9,약국,"의료,건강 > 약국",,8495083,02-2612-7156,오류온누리약국,http://place.map.kakao.com/8495083,서울 구로구 경인로 201,126.843234489872,37.4960205473317
서울 구로구 오류동 54-4,PM9,약국,"의료,건강 > 약국",,716143647,02-2617-7773,봄약국,http://place.map.kakao.com/716143647,서울 구로구 경인로 204,126.84385600696,37.4956898002736
서울 구로구 고척동 52-401,PM9,약국,"의료,건강 > 약국",,8033496,02-2618-9311,유풍약국,http://place.map.kakao.com/8033496,서울 구로구 경인로47길 54,126.86533025977243,37.501476360803316
서울 구로구 고척동 72-49,PM9,약국,"의료,건강 > 약국",,1575304045,02-3666-9662,고척스카이약국,http://place.map.kakao.com/1575304045,서울 구로구 경인로 387,126.863143159936,37.4970868511655
서울 구로구 개봉동 178-13,PM9,약국,"의료,건강 > 약국",,564189872,02-2614-7645,가람약국,http://place.map.kakao.com/564189872,서울 구로구 경인로40길 12,126.859184390427,37.4963028285956
서울 구로구 고척동 253-194,PM9,약국,"의료,건강 > 약국",,13037065,02-2625-6040,열린약국,http://place.map.kakao.com/13037065,서울 구로구 고척로 142-1,126.849843372252,37.5026569281906
서울 구로구 고척동 253-11,PM9,약국,"의료,건강 > 약국",,16082955,02-2625-2601,수태평양약국,http://place.map.kakao.com/16082955,서울 구로구 고척로 144,126.84997000062334,37.502675109180444
서울 구로구 개봉동 33-31,PM9,약국,"의료,건강 > 약국",,16088934,02-2617-3594,건강온누리약국,http://place.map.kakao.com/16088934,서울 구로구 고척로21나길 18,126.844676825973,37.5028664890821
서울 구로구 개봉동 126-22,PM9,약국,"의료,건강 > 약국",,1650509662,02-2060-7789,금약국,http://place.map.kakao.com/1650509662,서울 구로구 고척로 132,126.848654518934,37.5022157206295
서울 구로구 개봉동 124-22,PM9,약국,"의료,건강 > 약국",,13501769,02-2681-0292,개봉지예당약국,http://place.map.kakao.com/13501769,서울 구로구 고척로 123-1,126.8478221284,37.5022290673372
서울 구로구 고척동 253-200,PM9,약국,"의료,건강 > 약국",,16676111,02-2612-3986,종로약국,http://place.map.kakao.com/16676111,서울 구로구 고척로 142,126.84966261818,37.5025593897617
서울 구로구 고척동 169-8,PM9,약국,"의료,건강 > 약국",,9074196,02-2619-6150,온누리백제약국,http://place.map.kakao.com/9074196,서울 구로구 고척로 212,126.85691796230775,37.50531105902074
서울 구로구 고척동 253-116,PM9,약국,"의료,건강 > 약국",,16043188,02-2688-0194,훼미리약국,http://place.map.kakao.com/16043188,서울 구로구 고척로 139,126.849300321889,37.5027571492101
서울 구로구 개봉동 126-11,PM9,약국,"의료,건강 > 약국",,13502566,02-862-6804,흥부약국,http://place.map.kakao.com/13502566,서울 구로구 고척로 134-1,126.84891667764774,37.50232327580031
서울 구로구 고척동 258-5,PM9,약국,"의료,건강 > 약국",,14704278,02-2612-7787,제일약국,http://place.map.kakao.com/14704278,서울 구로구 고척로 148,126.85018470860442,37.50276007613535
서울 구로구 개봉동 33-30,PM9,약국,"의료,건강 > 약국",,16883530,02-2060-7191,믿음약국,http://place.map.kakao.com/16883530,서울 구로구 고척로21나길 17,126.84478803252776,37.50268553327812
서울 구로구 고척동 192,PM9,약국,"의료,건강 > 약국",,16822872,02-2686-2360,대우프라자약국,http://place.map.kakao.com/16822872,서울 구로구 고척로 237,126.85929853618515,37.50658523588171
서울 구로구 고척동 253-15,PM9,약국,"의료,건강 > 약국",,891044874,,구로365약국,http://place.map.kakao.com/891044874,서울 구로구 고척로 140,126.84951012877357,37.50246639208339
서울 구로구 구로동 108,PM9,약국,"의료,건강 > 약국",,16820966,02-868-5116,현대파크빌약국,http://place.map.kakao.com/16820966,서울 구로구 공원로 41,126.88968966665516,37.50032130180358
서울 구로구 구로동 553-7,PM9,약국,"의료,건강 > 약국",,9763332,02-866-1914,메디칼바른약국,http://place.map.kakao.com/9763332,서울 구로구 공원로7길 40,126.88693308784507,37.501452160544915
서울 구로구 구로동 40-12,PM9,약국,"의료,건강 > 약국",,21798516,02-863-8242,장약국,http://place.map.kakao.com/21798516,서울 구로구 공원로8길 23,126.89055600725436,37.50337201092925
서울 구로구 구로동 642-108,PM9,약국,"의료,건강 > 약국",,23711900,02-866-9155,구일중앙약국,http://place.map.kakao.com/23711900,서울 구로구 구일로 110,126.87200232563131,37.495055102162105
서울 구로구 구로동 685-154,PM9,약국,"의료,건강 > 약국",,9263462,02-862-0157,온누리한라약국,http://place.map.kakao.com/9263462,서울 구로구 구일로10길 49,126.87444835283445,37.49569383743419
서울 구로구 구로동 685-70,PM9,약국,"의료,건강 > 약국",,24245165,02-867-2067,초록약국,http://place.map.kakao.com/24245165,서울 구로구 구일로4길 46,126.87629277352717,37.49224402731827
서울 구로구 구로동 685-70,PM9,약국,"의료,건강 > 약국",,16043440,02-866-8569,환도약국,http://place.map.kakao.com/16043440,서울 구로구 구일로4길 46,126.87624722582588,37.492435894052946
서울 구로구 구로동 685-448,PM9,약국,"의료,건강 > 약국",,173225630,02-830-5366,해솔온누리약국,http://place.map.kakao.com/173225630,서울 구로구 구일로4길 30,126.87628431729634,37.491886318767975
서울 구로구 구로동 685-70,PM9,약국,"의료,건강 > 약국",,1539549424,02-867-3172,큐팜,http://place.map.kakao.com/1539549424,서울 구로구 구일로4길 46,126.8762681639752,37.49208182032734
서울 구로구 구로동 313-150,PM9,약국,"의료,건강 > 약국",,509092338,02-865-0511,한마음약국,http://place.map.kakao.com/509092338,서울 구로구 도림로 67,126.891097549751,37.4894789950933
서울 구로구 구로동 748-1,PM9,약국,"의료,건강 > 약국",,10702547,02-863-4867,용해약국,http://place.map.kakao.com/10702547,서울 구로구 도림로 29,126.887843478773,37.4870828749255
서울 구로구 구로동 141-14,PM9,약국,"의료,건강 > 약국",,20126215,02-869-6183,메디팜동진약국,http://place.map.kakao.com/20126215,서울 구로구 도림로 75,126.89178436497447,37.48994544694948
서울 구로구 구로동 147-3,PM9,약국,"의료,건강 > 약국",,16936798,02-855-7538,대림우리약국,http://place.map.kakao.com/16936798,서울 구로구 도림로 92,126.893555426812,37.4905191954879
서울 구로구 구로동 141-5,PM9,약국,"의료,건강 > 약국",,16325446,02-855-6007,더블유스토어푸른약국,http://place.map.kakao.com/16325446,서울 구로구 도림로 73,126.891480441572,37.489774877804
서울 구로구 온수동 23-10,PM9,약국,"의료,건강 > 약국",,11189876,02-2683-0262,온수약국,http://place.map.kakao.com/11189876,서울 구로구 부일로1길 22,126.820812443008,37.4921720049449
서울 구로구 신도림동 460-26,PM9,약국,"의료,건강 > 약국",,2102820154,02-865-1575,신도림역약국,http://place.map.kakao.com/2102820154,서울 구로구 새말로 지하 117-21,126.891081970016,37.5087713176456
서울 구로구 구로동 586-5,PM9,약국,"의료,건강 > 약국",,19293923,02-853-3001,아이사랑태평양약국,http://place.map.kakao.com/19293923,서울 구로구 새말로 15,126.88252258562606,37.5021254128104
서울 구로구 구로동 8-17,PM9,약국,"의료,건강 > 약국",,16620373,02-858-5597,태영약국,http://place.map.kakao.com/16620373,서울 구로구 새말로 89,126.88971819841359,37.50552733673343
서울 구로구 구로동 26,PM9,약국,"의료,건강 > 약국",,2063941644,010-6491-6756,신도림서진약국,http://place.map.kakao.com/2063941644,서울 구로구 새말로 102,126.89135937998184,37.50543695502669
서울 구로구 구로동 26-2,PM9,약국,"의료,건강 > 약국",,313994631,,신도림좋은약국,http://place.map.kakao.com/313994631,서울 구로구 새말로 110,126.89195072724466,37.50632859116069
서울 구로구 구로동 25,PM9,약국,"의료,건강 > 약국",,2114684726,,신도림제일약국,http://place.map.kakao.com/2114684726,서울 구로구 새말로 94,126.89055848444981,37.5055488413387
서울 구로구 구로동 3-25,PM9,약국,"의료,건강 > 약국",,1775538771,02-837-9998,라온약국,http://place.map.kakao.com/1775538771,서울 구로구 새말로 97,126.890229441901,37.5070442038838
서울 구로구 구로동 3-25,PM9,약국,"의료,건강 > 약국",,16561632,02-2111-1222,모스팜약국,http://place.map.kakao.com/16561632,서울 구로구 새말로 97,126.890229441901,37.5070442038838
서울 구로구 오류동 159-3,PM9,약국,"의료,건강 > 약국",,1975753146,02-6053-1130,인성약국,http://place.map.kakao.com/1975753146,서울 구로구 오류로 73,126.840568115142,37.4911695656932
서울 구로구 오류동 155-8,PM9,약국,"의료,건강 > 약국",,9077870,02-2689-6576,백두약국,http://place.map.kakao.com/9077870,서울 구로구 오류로8길 26,126.842185980674,37.4912906707796
서울 구로구 오류동 148-3,PM9,약국,"의료,건강 > 약국",,10471504,02-2688-0151,부부약국,http://place.map.kakao.com/10471504,서울 구로구 오류로8길 60,126.84367210688782,37.49223059437328
서울 구로구 오류동 156,PM9,약국,"의료,건강 > 약국",,17196481,02-2615-7570,세명약국,http://place.map.kakao.com/17196481,서울 구로구 오류로8길 16,126.8416279594575,37.49101782007109
서울 구로구 오류동 137-8,PM9,약국,"의료,건강 > 약국",,14108594,02-2066-0681,우리약국,http://place.map.kakao.com/14108594,서울 구로구 오류로8길 57,126.84338792120116,37.49240321122057
서울 구로구 천왕동 282-2,PM9,약국,"의료,건강 > 약국",,26313724,070-4222-1177,참온누리약국,http://place.map.kakao.com/26313724,서울 구로구 오리로 1149,126.83829822474233,37.48665784225277
서울 구로구 궁동 212-10,PM9,약국,"의료,건강 > 약국",,7871556,02-2684-3804,메디팜제일약국,http://place.map.kakao.com/7871556,서울 구로구 오리로 1270,126.8307727198973,37.495004138095325
서울 구로구 궁동 283-3,PM9,약국,"의료,건강 > 약국",,13501721,02-2681-9495,독일약국,http://place.map.kakao.com/13501721,서울 구로구 오리로 1297,126.82911210169063,37.49724164775926
서울 구로구 고척동 41-2,PM9,약국,"의료,건강 > 약국",,10461062,02-2625-0861,부강약국,http://place.map.kakao.com/10461062,서울 구로구 중앙로14길 27,126.862874694535,37.50722915450196
서울 구로구 고척동 224-1,PM9,약국,"의료,건강 > 약국",,11495734,02-2611-5435,수약국,http://place.map.kakao.com/11495734,서울 구로구 중앙로15길 107,126.85392488484308,37.50731753651761
서울 구로구 고척동 191-1,PM9,약국,"의료,건강 > 약국",,25756123,02-2687-0456,상아약국,http://place.map.kakao.com/25756123,서울 구로구 중앙로 100,126.86062121211953,37.50629307649293
서울 구로구 고척동 76-41,PM9,약국,"의료,건강 > 약국",,10623613,02-2612-2040,온누리최정숙약국,http://place.map.kakao.com/10623613,서울 구로구 중앙로1길 36,126.86267890374525,37.498035972562256
서울 구로구 고척동 197-1,PM9,약국,"의료,건강 > 약국",,263405558,02-6091-0823,고척햇살약국,http://place.map.kakao.com/263405558,서울 구로구 중앙로15길 29,126.858167990703,37.5063478206997
서울 구로구 고척동 50-71,PM9,약국,"의료,건강 > 약국",,16819670,02-2681-6000,신도약국,http://place.map.kakao.com/16819670,서울 구로구 중앙로 60,126.8626019389675,37.50300943270684
서울 구로구 천왕동 279-3,PM9,약국,"의료,건강 > 약국",,18316143,02-2684-9752,대우약국,http://place.map.kakao.com/18316143,서울 구로구 천왕로 106,126.83854921451768,37.48614371035281
서울 구로구 천왕동 277-12,PM9,약국,"의료,건강 > 약국",,1893532384,02-2066-7525,코끼리약국,http://place.map.kakao.com/1893532384,서울 구로구 천왕로 32,126.83967485873025,37.48056620323765
서울 구로구 항동 242-6,PM9,약국,"의료,건강 > 약국",,1696058679,02-2615-8279,항동푸른약국,http://place.map.kakao.com/1696058679,서울 구로구 항동로3길 6,126.824263998864,37.48088847195194
서울 구로구 구로동 80-2,PM9,약국,"의료,건강 > 약국",,16885645,02-830-3383,주차장바로약국,http://place.map.kakao.com/16885645,서울 구로구 가마산로 220,126.88564469861,37.4934743138505
서울 구로구 구로동 426-76,PM9,약국,"의료,건강 > 약국",,1089663254,02-858-3824,새문약국,http://place.map.kakao.com/1089663254,서울 구로구 가마산로 208,126.88417302897992,37.49306742715495
서울 구로구 구로동 426-91,PM9,약국,"의료,건강 > 약국",,13500958,02-837-2633,서울센타약국,http://place.map.kakao.com/13500958,서울 구로구 가마산로 206,126.88400577387287,37.49300148956672
서울 구로구 구로동 83-3,PM9,약국,"의료,건강 > 약국",,296081602,02-857-1621,온누리좋은약국,http://place.map.kakao.com/296081602,서울 구로구 가마산로 246,126.88831496412949,37.49468872225336
서울 구로구 구로동 98-4,PM9,약국,"의료,건강 > 약국",,18667492,02-862-0268,새서울약국,http://place.map.kakao.com/18667492,서울 구로구 가마산로 268,126.89031854415833,37.49561593300481
서울 구로구 구로동 80-4,PM9,약국,"의료,건강 > 약국",,16711836,02-851-2811,후문약국,http://place.map.kakao.com/16711836,서울 구로구 가마산로 222,126.88577809132201,37.49350147309445
서울 구로구 구로동 430,PM9,약국,"의료,건강 > 약국",,64383684,,구로조은약국,http://place.map.kakao.com/64383684,서울 구로구 가마산로 219,126.885529932713,37.4938382093819
서울 구로구 구로동 426-52,PM9,약국,"의료,건강 > 약국",,1048695943,02-858-1213,다드림약국,http://place.map.kakao.com/1048695943,서울 구로구 가마산로 211,126.8845997007561,37.49356610138999
서울 구로구 가리봉동 25-49,PM9,약국,"의료,건강 > 약국",,26273102,02-838-3104,남구로약국,http://place.map.kakao.com/26273102,서울 구로구 구로동로 33,126.88602911952519,37.48457633687068
서울 구로구 구로동 730-60,PM9,약국,"의료,건강 > 약국",,8946614,02-863-5333,동해물약국,http://place.map.kakao.com/8946614,서울 구로구 구로동로 138,126.8841651816126,37.49082661536241
서울 구로구 구로동 704-58,PM9,약국,"의료,건강 > 약국",,7828796,02-864-8232,대학약국,http://place.map.kakao.com/7828796,서울 구로구 구로동로 149-1,126.88354147968415,37.491976588077236
서울 구로구 구로동 731-7,PM9,약국,"의료,건강 > 약국",,263403097,02-6080-9485,서울약국,http://place.map.kakao.com/263403097,서울 구로구 구로동로 130,126.884387802617,37.4901826133502
서울 구로구 구로동 704-10,PM9,약국,"의료,건강 > 약국",,13693165,02-865-1122,구로약국,http://place.map.kakao.com/13693165,서울 구로구 구로동로 147,126.88353405392493,37.4916612283457
서울 구로구 구로동 505-10,PM9,약국,"의료,건강 > 약국",,13510897,02-856-5050,오공오약국,http://place.map.kakao.com/13510897,서울 구로구 구로동로42길 58,126.884203577146,37.4981833709479
서울 구로구 구로동 313-111,PM9,약국,"의료,건강 > 약국",,16044872,02-856-7768,보건당약국,http://place.map.kakao.com/16044872,서울 구로구 구로동로26길 116,126.89039472318356,37.48991623468702
서울 구로구 구로동 731-1,PM9,약국,"의료,건강 > 약국",,480991743,02-855-5780,팜어스약국,http://place.map.kakao.com/480991743,서울 구로구 구로동로26길 8,126.884746141085,37.4902532420253
서울 구로구 구로동 730-14,PM9,약국,"의료,건강 > 약국",,16645998,02-854-1385,구로시장약국,http://place.map.kakao.com/16645998,서울 구로구 구로동로26길 37,126.88620477464463,37.49027447813791
서울 구로구 구로동 731-3,PM9,약국,"의료,건강 > 약국",,20525489,02-851-1155,1번약국,http://place.map.kakao.com/20525489,서울 구로구 구로동로 132,126.88426078372696,37.49042576090868
서울 구로구 가리봉동 124-1,PM9,약국,"의료,건강 > 약국",,143071651,02-863-8575,한중약국,http://place.map.kakao.com/143071651,서울 구로구 구로동로 8,126.88734382005,37.4824908627981
서울 구로구 구로동 754-7,PM9,약국,"의료,건강 > 약국",,8205220,02-861-6553,그린프라자약국,http://place.map.kakao.com/8205220,서울 구로구 구로동로 135,126.88370864551095,37.49063965840158
서울 구로구 구로동 704-59,PM9,약국,"의료,건강 > 약국",,9938649,02-866-1030,정문약국,http://place.map.kakao.com/9938649,서울 구로구 구로동로 149,126.88355291610083,37.49189370671798
서울 구로구 구로동 730-76,PM9,약국,"의료,건강 > 약국",,16093068,02-830-0222,녹십자약국,http://place.map.kakao.com/16093068,서울 구로구 구로동로28길 2,126.884230957336,37.49070234086114
서울 구로구 구로동 717-34,PM9,약국,"의료,건강 > 약국",,8018478,02-862-2884,온누리사랑의약국,http://place.map.kakao.com/8018478,서울 구로구 구로동로15길 17,126.883776440395,37.4877528977499
서울 구로구 구로동,PM9,약국,"의료,건강 > 약국",,2114419167,,구로2호선약국,http://place.map.kakao.com/2114419167,서울 구로구 도림천로 477,126.901495622507,37.4853146545286
서울 구로구 구로동 832,PM9,약국,"의료,건강 > 약국",,777273709,02-6077-3924,G타워약국,http://place.map.kakao.com/777273709,서울 구로구 디지털로26길 38,126.895320720251,37.4798492340775
서울 구로구 가리봉동 131-14,PM9,약국,"의료,건강 > 약국",,9451247,02-855-1482,W스토아청와약국,http://place.map.kakao.com/9451247,서울 구로구 디지털로 227,126.89090825770643,37.480463334450505
서울 구로구 구로동 222-31,PM9,약국,"의료,건강 > 약국",,2034387051,02-856-0630,고래약국,http://place.map.kakao.com/2034387051,서울 구로구 디지털로26길 123,126.897699600412,37.4830823344799
서울 구로구 구로동 1124-72,PM9,약국,"의료,건강 > 약국",,17100426,02-861-7585,황금당약국,http://place.map.kakao.com/17100426,서울 구로구 디지털로32길 79,126.89971592052332,37.48363818320184
서울 구로구 구로동 212-1,PM9,약국,"의료,건강 > 약국",,9250077,02-2109-5208,에이스약국,http://place.map.kakao.com/9250077,서울 구로구 디지털로 285,126.894653690399,37.4846672343726
서울 구로구 구로동 212-8,PM9,약국,"의료,건강 > 약국",,16908141,02-868-3878,타워약국,http://place.map.kakao.com/16908141,서울 구로구 디지털로 288,126.89550321747998,37.48356965983889
서울 구로구 구로동 188-25,PM9,약국,"의료,건강 > 약국",,25807037,02-6344-3990,팜프라자약국,http://place.map.kakao.com/25807037,서울 구로구 디지털로 300,126.896539278775,37.484928390908
서울 구로구 구로동 830-1,PM9,약국,"의료,건강 > 약국",,1103301163,070-8834-1809,백세비타민약국,http://place.map.kakao.com/1103301163,서울 구로구 디지털로26길 98,126.89734888958719,37.48158455425812
서울 구로구 구로동 191-7,PM9,약국,"의료,건강 > 약국",,1692824030,02-2025-7111,그린약국,http://place.map.kakao.com/1692824030,서울 구로구 디지털로33길 11,126.895511548858,37.4857059573699
서울 구로구 구로동 798-30,PM9,약국,"의료,건강 > 약국",,16619783,02-853-2614,우리네온누리약국,http://place.map.kakao.com/16619783,서울 구로구 디지털로27길 116,126.88799610333895,37.484824193102064
서울 구로구 구로동 851,PM9,약국,"의료,건강 > 약국",,868716814,02-855-9369,금손약국,http://place.map.kakao.com/868716814,서울 구로구 디지털로 242,126.892678279433,37.4808127448029
서울 구로구 구로동 256-1,PM9,약국,"의료,건강 > 약국",,16738022,02-855-5826,래미안나나약국,http://place.map.kakao.com/16738022,서울 구로구 디지털로31길 90,126.89072833982712,37.487555003276405
서울 구로구 구로동 197-30,PM9,약국,"의료,건강 > 약국",,389292361,02-6958-6668,구로디지털 온누리약국,http://place.map.kakao.com/389292361,서울 구로구 디지털로27가길 17,126.892335098633,37.4843876337948
서울 구로구 구로동 811,PM9,약국,"의료,건강 > 약국",,938929579,02-857-7557,제이약국,http://place.map.kakao.com/938929579,서울 구로구 디지털로34길 55,126.899258238184,37.4842243501926
서울 구로구 구로동 1127-22,PM9,약국,"의료,건강 > 약국",,1146618420,02-2135-3372,튼튼온누리약국,http://place.map.kakao.com/1146618420,서울 구로구 디지털로32가길 25,126.89892195813398,37.48214273373993
서울 구로구 오류동 135-73,PM9,약국,"의료,건강 > 약국",,1425759066,02-2615-0766,구로미소약국,http://place.map.kakao.com/1425759066,서울 구로구 서해안로 2338,126.844153368851,37.4934809260157
서울 구로구 항동 122,PM9,약국,"의료,건강 > 약국",,703478854,02-2687-7575,살맛나는온누리약국,http://place.map.kakao.com/703478854,서울 구로구 서해안로 2098,126.82312774369,37.4799272029571
서울 구로구 구로동 1123-3,PM9,약국,"의료,건강 > 약국",,180037917,02-838-1230,다움약국,http://place.map.kakao.com/180037917,서울 구로구 시흥대로 577-11,126.901864171993,37.4844887368085
서울 구로구 구로동 1125-5,PM9,약국,"의료,건강 > 약국",,16089576,02-858-4484,아침햇살약국,http://place.map.kakao.com/16089576,서울 구로구 시흥대로 563,126.90146422277962,37.483395480945966
서울 구로구 구로동 1130-32,PM9,약국,"의료,건강 > 약국",,16848766,02-854-2250,재훈약국,http://place.map.kakao.com/16848766,서울 구로구 시흥대로161가길 16,126.898200795387,37.4803455034016
서울 구로구 구로동 1126-1,PM9,약국,"의료,건강 > 약국",,314387329,02-852-2283,은약국,http://place.map.kakao.com/314387329,서울 구로구 시흥대로 551,126.90056076181008,37.48259913363006
서울 구로구 구로동 1126-34,PM9,약국,"의료,건강 > 약국",,16444854,02-2068-5616,하늘약국,http://place.map.kakao.com/16444854,서울 구로구 시흥대로 547,126.90042005099454,37.482133193744176
서울 구로구 신도림동 309-6,PM9,약국,"의료,건강 > 약국",,9320818,02-2636-9150,은성약국,http://place.map.kakao.com/9320818,서울 구로구 신도림로19길 7,126.88456687346083,37.51121856480462
서울 구로구 신도림동 400-1,PM9,약국,"의료,건강 > 약국",,8141025,02-2675-1081,한사랑약국,http://place.map.kakao.com/8141025,서울 구로구 신도림로 7,126.87714644251386,37.50609157389519
서울 구로구 신도림동 642,PM9,약국,"의료,건강 > 약국",,13513166,02-2679-3553,대림약국,http://place.map.kakao.com/13513166,서울 구로구 신도림로 16,126.88281256514652,37.50617121326967
서울 구로구 구로동 573,PM9,약국,"의료,건강 > 약국",,1383612132,02-6923-2111,구로엔씨온누리약국,http://place.map.kakao.com/1383612132,서울 구로구 구로중앙로 152,126.882774031717,37.5011588838246
서울 구로구 구로동 612-14,PM9,약국,"의료,건강 > 약국",,16846920,02-2672-9042,바른약국,http://place.map.kakao.com/16846920,서울 구로구 구로중앙로 212,126.87784391886015,37.504913783014416
서울 구로구 구로동 100-8,PM9,약국,"의료,건강 > 약국",,15905785,02-851-7520,정수메디칼약국,http://place.map.kakao.com/15905785,서울 구로구 구로중앙로 68,126.888760006604,37.49578746896004
서울 구로구 구로동 74-30,PM9,약국,"의료,건강 > 약국",,357826247,02-820-6830,중앙약국,http://place.map.kakao.com/357826247,서울 구로구 구로중앙로18길 68,126.892605506787,37.4968983640656
서울 구로구 구로동 98,PM9,약국,"의료,건강 > 약국",,16502405,02-869-2485,바다약국,http://place.map.kakao.com/16502405,서울 구로구 구로중앙로 60,126.88941909588,37.4951465711884
서울 구로구 구로동 138-15,PM9,약국,"의료,건강 > 약국",,16074012,02-859-6414,두산약국,http://place.map.kakao.com/16074012,서울 구로구 구로중앙로 16,126.89201121940418,37.491811640230075
서울 구로구 구로동 142-76,PM9,약국,"의료,건강 > 약국",,26405637,02-865-3784,드림약국,http://place.map.kakao.com/26405637,서울 구로구 구로중앙로 8,126.8926770059963,37.49118784906531
서울 구로구 구로동 111-16,PM9,약국,"의료,건강 > 약국",,1699473404,02-872-9750,새녹십자약국,http://place.map.kakao.com/1699473404,서울 구로구 구로중앙로28길 65,126.88901877020994,37.50050537957682
서울 구로구 구로동 612-7,PM9,약국,"의료,건강 > 약국",,1573608882,070-4647-3187,행복한리약국,http://place.map.kakao.com/1573608882,서울 구로구 구로중앙로 217,126.876829203974,37.5050568901048
서울 구로구 구로동 127-45,PM9,약국,"의료,건강 > 약국",,10275355,02-851-0601,늘푸른약국,http://place.map.kakao.com/10275355,서울 구로구 구로중앙로12길 38,126.89323138476828,37.492562386986094
서울 구로구 구로동 501,PM9,약국,"의료,건강 > 약국",,25489932,02-6678-8422,참좋은약국,http://place.map.kakao.com/25489932,서울 구로구 구로중앙로 134,126.884096746679,37.4999888817737
서울 구로구 구로동 142-76,PM9,약국,"의료,건강 > 약국",,1561844772,,탑스타약국,http://place.map.kakao.com/1561844772,서울 구로구 구로중앙로 8,126.892684899412,37.4912031733556
서울 구로구 개봉동 203-7,PM9,약국,"의료,건강 > 약국",,22482697,02-3666-0784,365열린약국,http://place.map.kakao.com/22482697,서울 구로구 남부순환로97길 3,126.85831012350748,37.49397628638962
서울 구로구 개봉동 203-6,PM9,약국,"의료,건강 > 약국",,9384199,02-2687-2983,정광약국,http://place.map.kakao.com/9384199,서울 구로구 남부순환로97길 11,126.8583887012384,37.4942827227486
서울 구로구 개봉동 492,PM9,약국,"의료,건강 > 약국",,1650335957,02-2689-9856,푸른약국,http://place.map.kakao.com/1650335957,서울 구로구 남부순환로 775,126.84756432053615,37.50165119073969
서울 구로구 가리봉동 136-84,PM9,약국,"의료,건강 > 약국",,1454888612,02-852-7697,참사랑한약국,http://place.map.kakao.com/1454888612,서울 구로구 남부순환로105길 6,126.89230403024,37.4792500550781
서울 구로구 온수동 23-10,PM9,약국,"의료,건강 > 약국",,11189876,02-2683-0262,온수약국,http://place.map.kakao.com/11189876,서울 구로구 부일로1길 22,126.820812443008,37.4921720049449
서울 구로구 고척동 76-41,PM9,약국,"의료,건강 > 약국",,10623613,02-2612-2040,온누리최정숙약국,http://place.map.kakao.com/10623613,서울 구로구 중앙로1길 36,126.86267890374525,37.498035972562256
서울 구로구 구로동 685-154,PM9,약국,"의료,건강 > 약국",,9263462,02-862-0157,온누리한라약국,http://place.map.kakao.com/9263462,서울 구로구 구일로10길 49,126.87444835283445,37.49569383743419
서울 구로구 가리봉동 136-84,PM9,약국,"의료,건강 > 약국",,1454888612,02-852-7697,참사랑한약국,http://place.map.kakao.com/1454888612,서울 구로구 남부순환로105길 6,126.89230403024,37.4792500550781
서울 구로구 구로동 127-45,PM9,약국,"의료,건강 > 약국",,10275355,02-851-0601,늘푸른약국,http://place.map.kakao.com/10275355,서울 구로구 구로중앙로12길 38,126.89323138476828,37.492562386986094
서울 구로구 고척동 41-2,PM9,약국,"의료,건강 > 약국",,10461062,02-2625-0861,부강약국,http://place.map.kakao.com/10461062,서울 구로구 중앙로14길 27,126.862874694535,37.50722915450196
서울 구로구 구로동 717-34,PM9,약국,"의료,건강 > 약국",,8018478,02-862-2884,온누리사랑의약국,http://place.map.kakao.com/8018478,서울 구로구 구로동로15길 17,126.883776440395,37.4877528977499
서울 구로구 고척동 224-1,PM9,약국,"의료,건강 > 약국",,11495734,02-2611-5435,수약국,http://place.map.kakao.com/11495734,서울 구로구 중앙로15길 107,126.85392488484308,37.50731753651761
서울 구로구 고척동 197-1,PM9,약국,"의료,건강 > 약국",,263405558,02-6091-0823,고척햇살약국,http://place.map.kakao.com/263405558,서울 구로구 중앙로15길 29,126.858167990703,37.5063478206997
서울 구로구 구로동 1130-32,PM9,약국,"의료,건강 > 약국",,16848766,02-854-2250,재훈약국,http://place.map.kakao.com/16848766,서울 구로구 시흥대로161가길 16,126.898200795387,37.4803455034016
서울 구로구 개봉동 302-16,PM9,약국,"의료,건강 > 약국",,16790332,02-2612-9308,정제약국,http://place.map.kakao.com/16790332,서울 구로구 개봉로17길 10,126.8553212447591,37.49171564267382
서울 구로구 구로동 74-30,PM9,약국,"의료,건강 > 약국",,357826247,02-820-6830,중앙약국,http://place.map.kakao.com/357826247,서울 구로구 구로중앙로18길 68,126.892605506787,37.4968983640656
서울 구로구 가리봉동 123-50,PM9,약국,"의료,건강 > 약국",,11089369,02-854-3357,동성약국,http://place.map.kakao.com/11089369,서울 구로구 디지털로19길 51,126.88941125332589,37.48205762892527
서울 구로구 신도림동 309-6,PM9,약국,"의료,건강 > 약국",,9320818,02-2636-9150,은성약국,http://place.map.kakao.com/9320818,서울 구로구 신도림로19길 7,126.88456687346083,37.51121856480462
서울 구로구 구로동 736-3,PM9,약국,"의료,건강 > 약국",,16768150,02-839-2483,샘물약국,http://place.map.kakao.com/16768150,서울 구로구 구로동로20길 6,126.88482296033332,37.48882702246642
서울 구로구 개봉동 481,PM9,약국,"의료,건강 > 약국",,13295529,02-2625-1585,새하늘약국,http://place.map.kakao.com/13295529,서울 구로구 개봉로20길 6,126.85798373832392,37.49315868169823
서울 구로구 오류동 51-31,PM9,약국,"의료,건강 > 약국",,10473364,02-2687-1489,성심약국,http://place.map.kakao.com/10473364,서울 구로구 경인로20길 6,126.843376000087,37.4954044469924
서울 구로구 개봉동 33-31,PM9,약국,"의료,건강 > 약국",,16088934,02-2617-3594,건강온누리약국,http://place.map.kakao.com/16088934,서울 구로구 고척로21나길 18,126.844676825973,37.5028664890821
서울 구로구 개봉동 33-30,PM9,약국,"의료,건강 > 약국",,16883530,02-2060-7191,믿음약국,http://place.map.kakao.com/16883530,서울 구로구 고척로21나길 17,126.84478803252776,37.50268553327812
서울 구로구 구로동 313-111,PM9,약국,"의료,건강 > 약국",,16044872,02-856-7768,보건당약국,http://place.map.kakao.com/16044872,서울 구로구 구로동로26길 116,126.89039472318356,37.48991623468702
서울 구로구 구로동 731-1,PM9,약국,"의료,건강 > 약국",,480991743,02-855-5780,팜어스약국,http://place.map.kakao.com/480991743,서울 구로구 구로동로26길 8,126.884746141085,37.4902532420253
서울 구로구 구로동 730-14,PM9,약국,"의료,건강 > 약국",,16645998,02-854-1385,구로시장약국,http://place.map.kakao.com/16645998,서울 구로구 구로동로26길 37,126.88620477464463,37.49027447813791
서울 구로구 구로동 313-14,PM9,약국,"의료,건강 > 약국",,10133449,02-865-1862,큰사랑약국,http://place.map.kakao.com/10133449,서울 구로구 구로동로26길 119,126.890620648261,37.4900696152966
서울 구로구 구로동 313-1,PM9,약국,"의료,건강 > 약국",,16413492,02-856-9843,한독프라자약국,http://place.map.kakao.com/16413492,서울 구로구 구로동로26길 133,126.89125656550074,37.48976746389519
서울 구로구 구로동 832,PM9,약국,"의료,건강 > 약국",,777273709,02-6077-3924,G타워약국,http://place.map.kakao.com/777273709,서울 구로구 디지털로26길 38,126.895320720251,37.4798492340775
서울 구로구 구로동 222-31,PM9,약국,"의료,건강 > 약국",,2034387051,02-856-0630,고래약국,http://place.map.kakao.com/2034387051,서울 구로구 디지털로26길 123,126.897699600412,37.4830823344799
서울 구로구 구로동 830-1,PM9,약국,"의료,건강 > 약국",,1103301163,070-8834-1809,백세비타민약국,http://place.map.kakao.com/1103301163,서울 구로구 디지털로26길 98,126.89734888958719,37.48158455425812
서울 구로구 구로동 798-30,PM9,약국,"의료,건강 > 약국",,16619783,02-853-2614,우리네온누리약국,http://place.map.kakao.com/16619783,서울 구로구 디지털로27길 116,126.88799610333895,37.484824193102064
서울 구로구 구로동 197-30,PM9,약국,"의료,건강 > 약국",,389292361,02-6958-6668,구로디지털 온누리약국,http://place.map.kakao.com/389292361,서울 구로구 디지털로27가길 17,126.892335098633,37.4843876337948
서울 구로구 구로동 111-16,PM9,약국,"의료,건강 > 약국",,1699473404,02-872-9750,새녹십자약국,http://place.map.kakao.com/1699473404,서울 구로구 구로중앙로28길 65,126.88901877020994,37.50050537957682
서울 구로구 구로동 730-76,PM9,약국,"의료,건강 > 약국",,16093068,02-830-0222,녹십자약국,http://place.map.kakao.com/16093068,서울 구로구 구로동로28길 2,126.884230957336,37.49070234086114
서울 구로구 구로동 317-91,PM9,약국,"의료,건강 > 약국",,16091891,02-830-4019,나은약국,http://place.map.kakao.com/16091891,서울 구로구 구로동로28길 99,126.88924405729307,37.491921704330956
서울 구로구 개봉동 356-9,PM9,약국,"의료,건강 > 약국",,16046358,02-2687-7712,차기정약국,http://place.map.kakao.com/16046358,서울 구로구 개봉로3길 76,126.85212292564896,37.48623355993196
서울 구로구 개봉동 361-3,PM9,약국,"의료,건강 > 약국",,16951375,02-2612-3337,늘사랑약국,http://place.map.kakao.com/16951375,서울 구로구 개봉로3길 59,126.85295992739542,37.48608413633712
서울 구로구 개봉동 359-13,PM9,약국,"의료,건강 > 약국",,16090103,02-2066-0120,대성약국,http://place.map.kakao.com/16090103,서울 구로구 개봉로3길 35,126.85429968494,37.4861380545623
서울 구로구 항동 242-6,PM9,약국,"의료,건강 > 약국",,1696058679,02-2615-8279,항동푸른약국,http://place.map.kakao.com/1696058679,서울 구로구 항동로3길 6,126.824263998864,37.48088847195194
서울 구로구 구로동 256-1,PM9,약국,"의료,건강 > 약국",,16738022,02-855-5826,래미안나나약국,http://place.map.kakao.com/16738022,서울 구로구 디지털로31길 90,126.89072833982712,37.487555003276405
서울 구로구 구로동 1124-72,PM9,약국,"의료,건강 > 약국",,17100426,02-861-7585,황금당약국,http://place.map.kakao.com/17100426,서울 구로구 디지털로32길 79,126.89971592052332,37.48363818320184
서울 구로구 구로동 1127-22,PM9,약국,"의료,건강 > 약국",,1146618420,02-2135-3372,튼튼온누리약국,http://place.map.kakao.com/1146618420,서울 구로구 디지털로32가길 25,126.89892195813398,37.48214273373993
서울 구로구 구로동 1127-22,PM9,약국,"의료,건강 > 약국",,1801994628,,참온누리약국,http://place.map.kakao.com/1801994628,서울 구로구 디지털로32가길 25,126.898894796418,37.4821625326869
서울 구로구 구로동 191-7,PM9,약국,"의료,건강 > 약국",,1692824030,02-2025-7111,그린약국,http://place.map.kakao.com/1692824030,서울 구로구 디지털로33길 11,126.895511548858,37.4857059573699
서울 구로구 구로동 811,PM9,약국,"의료,건강 > 약국",,938929579,02-857-7557,제이약국,http://place.map.kakao.com/938929579,서울 구로구 디지털로34길 55,126.899258238184,37.4842243501926
서울 구로구 개봉동 465-11,PM9,약국,"의료,건강 > 약국",,16875034,02-2612-4900,세종당약국,http://place.map.kakao.com/16875034,서울 구로구 경인로35길 64,126.85306362333291,37.499527281585436
서울 구로구 구로동 685-70,PM9,약국,"의료,건강 > 약국",,24245165,02-867-2067,초록약국,http://place.map.kakao.com/24245165,서울 구로구 구일로4길 46,126.87629277352717,37.49224402731827
서울 구로구 구로동 685-70,PM9,약국,"의료,건강 > 약국",,16043440,02-866-8569,환도약국,http://place.map.kakao.com/16043440,서울 구로구 구일로4길 46,126.87624722582588,37.492435894052946
서울 구로구 구로동 685-448,PM9,약국,"의료,건강 > 약국",,173225630,02-830-5366,해솔온누리약국,http://place.map.kakao.com/173225630,서울 구로구 구일로4길 30,126.87628431729634,37.491886318767975
서울 구로구 구로동 685-70,PM9,약국,"의료,건강 > 약국",,1539549424,02-867-3172,큐팜,http://place.map.kakao.com/1539549424,서울 구로구 구일로4길 46,126.8762681639752,37.49208182032734
서울 구로구 개봉동 178-13,PM9,약국,"의료,건강 > 약국",,564189872,02-2614-7645,가람약국,http://place.map.kakao.com/564189872,서울 구로구 경인로40길 12,126.859184390427,37.4963028285956
서울 구로구 개봉동 173-1,PM9,약국,"의료,건강 > 약국",,8073922,02-2615-6999,좋은약국,http://place.map.kakao.com/8073922,서울 구로구 경인로40길 34,126.858854728841,37.4954131422226
서울 구로구 개봉동 415,PM9,약국,"의료,건강 > 약국",,16646972,02-2617-2190,맑은약국,http://place.map.kakao.com/16646972,서울 구로구 경인로40길 47,126.85872740011989,37.494571450260196
서울 구로구 구로동 505-10,PM9,약국,"의료,건강 > 약국",,13510897,02-856-5050,오공오약국,http://place.map.kakao.com/13510897,서울 구로구 구로동로42길 58,126.884203577146,37.4981833709479
서울 구로구 고척동 351,PM9,약국,"의료,건강 > 약국",,229685478,02-2625-7666,은혜온누리약국,http://place.map.kakao.com/229685478,서울 구로구 경인로43길 49,126.85957145565182,37.49854859581508
서울 구로구 고척동 46-39,PM9,약국,"의료,건강 > 약국",,12346276,02-2681-3535,고척시장약국,http://place.map.kakao.com/12346276,서울 구로구 경인로47길 126,126.86348304780893,37.50419347369492
서울 구로구 고척동 46-25,PM9,약국,"의료,건강 > 약국",,16619934,02-2683-2865,장수약국,http://place.map.kakao.com/16619934,서울 구로구 경인로47길 94,126.86415163473764,37.502840034064576
서울 구로구 고척동 52-401,PM9,약국,"의료,건강 > 약국",,8033496,02-2618-9311,유풍약국,http://place.map.kakao.com/8033496,서울 구로구 경인로47길 54,126.86533025977243,37.501476360803316
서울 구로구 구로동 1258,PM9,약국,"의료,건강 > 약국",,9891714,02-2617-1849,아름솔약국,http://place.map.kakao.com/9891714,서울 구로구 경인로53길 15,126.8761364848236,37.50197562955268
서울 구로구 신도림동 437-1,PM9,약국,"의료,건강 > 약국",,8108564,02-2068-5733,태영프라자약국,http://place.map.kakao.com/8108564,서울 구로구 경인로59길 8,126.8833359905667,37.50631409012395
서울 구로구 신도림동 437-1,PM9,약국,"의료,건강 > 약국",,11140681,02-2676-9991,생천온누리약국,http://place.map.kakao.com/11140681,서울 구로구 경인로59길 8,126.88339017854,37.5063781149604
서울 구로구 신도림동 419-4,PM9,약국,"의료,건강 > 약국",,429134689,02-2633-0118,다송약국,http://place.map.kakao.com/429134689,서울 구로구 경인로63길 11,126.8854648263336,37.50759109493184
서울 구로구 신도림동 338,PM9,약국,"의료,건강 > 약국",,1390718627,02-2636-8123,바른굿모닝약국,http://place.map.kakao.com/1390718627,서울 구로구 경인로67길 23,126.88944277550854,37.51053215905486
서울 구로구 신도림동 338,PM9,약국,"의료,건강 > 약국",,13512414,02-2631-4959,햇살약국,http://place.map.kakao.com/13512414,서울 구로구 경인로67길 23,126.889482394246,37.5105105720321
서울 구로구 구로동 553-7,PM9,약국,"의료,건강 > 약국",,9763332,02-866-1914,메디칼바른약국,http://place.map.kakao.com/9763332,서울 구로구 공원로7길 40,126.88693308784507,37.501452160544915
서울 구로구 구로동 40-12,PM9,약국,"의료,건강 > 약국",,21798516,02-863-8242,장약국,http://place.map.kakao.com/21798516,서울 구로구 공원로8길 23,126.89055600725436,37.50337201092925
서울 구로구 오류동 155-8,PM9,약국,"의료,건강 > 약국",,9077870,02-2689-6576,백두약국,http://place.map.kakao.com/9077870,서울 구로구 오류로8길 26,126.842185980674,37.4912906707796
서울 구로구 오류동 148-3,PM9,약국,"의료,건강 > 약국",,10471504,02-2688-0151,부부약국,http://place.map.kakao.com/10471504,서울 구로구 오류로8길 60,126.84367210688782,37.49223059437328
서울 구로구 오류동 156,PM9,약국,"의료,건강 > 약국",,17196481,02-2615-7570,세명약국,http://place.map.kakao.com/17196481,서울 구로구 오류로8길 16,126.8416279594575,37.49101782007109
서울 구로구 오류동 137-8,PM9,약국,"의료,건강 > 약국",,14108594,02-2066-0681,우리약국,http://place.map.kakao.com/14108594,서울 구로구 오류로8길 57,126.84338792120116,37.49240321122057
서울 구로구 개봉동 203-7,PM9,약국,"의료,건강 > 약국",,22482697,02-3666-0784,365열린약국,http://place.map.kakao.com/22482697,서울 구로구 남부순환로97길 3,126.85831012350748,37.49397628638962
서울 구로구 개봉동 203-6,PM9,약국,"의료,건강 > 약국",,9384199,02-2687-2983,정광약국,http://place.map.kakao.com/9384199,서울 구로구 남부순환로97길 11,126.8583887012384,37.4942827227486
