address_name,category_group_code,category_group_name,category_name,distance,id,phone,place_name,place_url,road_address_name,x,y
서울 강남구 개포동 12-4,PM9,약국,"의료,건강 > 약국",,10553606,02-2226-9828,솔약국,http://place.map.kakao.com/10553606,서울 강남구 개포로 615,127.07576937004912,37.4926205735398
서울 강남구 개포동 1217,PM9,약국,"의료,건강 > 약국",,8791764,02-574-1087,기쁨약국,http://place.map.kakao.com/8791764,서울 강남구 개포로 228,127.04768763732913,37.47866691551544
서울 강남구 개포동 1238-9,PM9,약국,"의료,건강 > 약국",,13513181,02-572-6409,소나무 약국,http://place.map.kakao.com/13513181,서울 강남구 개포로 220,127.046814755866,37.4785420242897
서울 강남구 개포동 186-3,PM9,약국,"의료,건강 > 약국",,9098150,02-3411-0841,삼우약국,http://place.map.kakao.com/9098150,서울 강남구 개포로82길 11,127.067359410487,37.4884936479505
서울 강남구 개포동 653,PM9,약국,"의료,건강 > 약국",,10344106,02-574-5410,개포메디칼약국,http://place.map.kakao.com/10344106,서울 강남구 개포로 303,127.055550319007,37.4826216129623
서울 강남구 개포동 186-5,PM9,약국,"의료,건강 > 약국",,10591637,02-2226-5987,양월약국,http://place.map.kakao.com/10591637,서울 강남구 개포로82길 13-11,127.06804706350758,37.48868516853157
서울 강남구 개포동 1258-5,PM9,약국,"의료,건강 > 약국",,16704788,02-574-8376,행복온누리약국,http://place.map.kakao.com/16704788,서울 강남구 개포로 231,127.04793656395591,37.47898036601653
서울 강남구 개포동 186-13,PM9,약국,"의료,건강 > 약국",,71089868,02-445-7582,한마음온누리약국,http://place.map.kakao.com/71089868,서울 강남구 개포로 504,127.06723899097425,37.489127124940154
서울 강남구 개포동 12-4,PM9,약국,"의료,건강 > 약국",,1646664511,02-451-1833,베리타스약국,http://place.map.kakao.com/1646664511,서울 강남구 개포로 615,127.075585090399,37.4926585338794
서울 강남구 개포동 1239-20,PM9,약국,"의료,건강 > 약국",,9023345,02-575-5867,명심약국,http://place.map.kakao.com/9023345,서울 강남구 개포로 207,127.04529074861,37.4785498263637
서울 강남구 개포동 12-4,PM9,약국,"의료,건강 > 약국",,10089566,02-2226-7671,조은온누리약국,http://place.map.kakao.com/10089566,서울 강남구 개포로 615,127.075626965765,37.4926945473622
서울 강남구 개포동 655-4,PM9,약국,"의료,건강 > 약국",,2119120876,02-576-0415,맑은하늘약국,http://place.map.kakao.com/2119120876,서울 강남구 개포로 265,127.05283900027736,37.480933465087084
서울 강남구 개포동 1258-1,PM9,약국,"의료,건강 > 약국",,13503850,02-3463-0689,성심약국,http://place.map.kakao.com/13503850,서울 강남구 개포로 223,127.047258187628,37.4789346878184
서울 강남구 개포동 185,PM9,약국,"의료,건강 > 약국",,9137839,02-3412-1336,성모약국,http://place.map.kakao.com/9137839,서울 강남구 개포로 516,127.071217207743,37.4882535194419
서울 강남구 개포동 13-3,PM9,약국,"의료,건강 > 약국",,1374725058,02-3412-0106,대청약국,http://place.map.kakao.com/1374725058,서울 강남구 개포로 623,127.079649790087,37.4943425483091
서울 강남구 수서동 725,PM9,약국,"의료,건강 > 약국",,1735519777,02-3412-7655,수서역정민아약국,http://place.map.kakao.com/1735519777,서울 강남구 광평로56길 8-13,127.10319393743815,37.48661170701587
서울 강남구 수서동 724,PM9,약국,"의료,건강 > 약국",,374951856,,수서두리약국,http://place.map.kakao.com/374951856,서울 강남구 광평로 280,127.10309766119725,37.487312775087204
서울 강남구 수서동 746,PM9,약국,"의료,건강 > 약국",,12784569,02-451-7281,삼성약국,http://place.map.kakao.com/12784569,서울 강남구 광평로19길 10,127.086816302582,37.4840840338436
서울 강남구 수서동 716,PM9,약국,"의료,건강 > 약국",,1130024888,,수서홍약국,http://place.map.kakao.com/1130024888,서울 강남구 광평로 295,127.1037832447862,37.4884023940308
서울 강남구 수서동 714,PM9,약국,"의료,건강 > 약국",,20996098,02-3412-7430,수서옵티마약국,http://place.map.kakao.com/20996098,서울 강남구 광평로51길 8,127.10245330327885,37.48824587849679
서울 강남구 일원동 716,PM9,약국,"의료,건강 > 약국",,9880742,02-2226-1141,SMP온누리약국,http://place.map.kakao.com/9880742,서울 강남구 광평로19길 15,127.085342535179,37.4846185044591
서울 강남구 수서동 754,PM9,약국,"의료,건강 > 약국",,597850418,02-451-9111,튼튼약국,http://place.map.kakao.com/597850418,서울 강남구 광평로 196,127.09426047841625,37.484034179962364
서울 강남구 수서동 728,PM9,약국,"의료,건강 > 약국",,53195335,02-3412-5533,수서역약국,http://place.map.kakao.com/53195335,서울 강남구 광평로 지하 270,127.101858510883,37.4873877325332
서울 강남구 수서동 714-4,PM9,약국,"의료,건강 > 약국",,713423064,02-3411-9464,수서세종약국,http://place.map.kakao.com/713423064,서울 강남구 광평로51길 6-11,127.10323046553,37.4885064941828
서울 강남구 수서동 715,PM9,약국,"의료,건강 > 약국",,22645042,02-6181-3933,기쁨주는약국,http://place.map.kakao.com/22645042,서울 강남구 광평로 281,127.10281819644322,37.48800589349428
서울 강남구 수서동 707,PM9,약국,"의료,건강 > 약국",,8824740,02-459-1445,국송약국,http://place.map.kakao.com/8824740,서울 강남구 광평로51길 49,127.10110365403165,37.490241871565566
서울 강남구 신사동 597-4,PM9,약국,"의료,건강 > 약국",,17232162,02-547-7585,메디팜압구정약국,http://place.map.kakao.com/17232162,서울 강남구 논현로160길 13,127.029122635632,37.5227654797365
서울 강남구 도곡동 425-1,PM9,약국,"의료,건강 > 약국",,1049245973,02-6407-7656,도곡약국,http://place.map.kakao.com/1049245973,서울 강남구 논현로28길 2,127.04333686972117,37.48203386022502
서울 강남구 신사동 585-5,PM9,약국,"의료,건강 > 약국",,16043644,070-8657-3221,마리약국,http://place.map.kakao.com/16043644,서울 강남구 논현로155길 6,127.02779422208746,37.52185398510245
서울 강남구 신사동 549-6,PM9,약국,"의료,건강 > 약국",,576759043,02-548-5604,우리원약국,http://place.map.kakao.com/576759043,서울 강남구 논현로175길 58,127.024181922994,37.5244460633095
서울 강남구 신사동 577-6,PM9,약국,"의료,건강 > 약국",,1871205416,02-516-0954,구름약국,http://place.map.kakao.com/1871205416,서울 강남구 논현로171길 11,127.027408662589,37.52546168914
서울 강남구 논현동 58,PM9,약국,"의료,건강 > 약국",,1712802746,02-511-7474,학동봄약국,http://place.map.kakao.com/1712802746,서울 강남구 논현로131길 23,127.0285480127468,37.5139808379786
서울 강남구 논현동 170,PM9,약국,"의료,건강 > 약국",,16791333,02-547-1696,유한약국,http://place.map.kakao.com/16791333,서울 강남구 논현로115길 71,127.02715584068781,37.50834628478098
서울 강남구 신사동 599,PM9,약국,"의료,건강 > 약국",,2126355570,070-8888-3380,생생온누리약국,http://place.map.kakao.com/2126355570,서울 강남구 논현로 842,127.02862421954282,37.52397114295813
서울 강남구 논현동 175-13,PM9,약국,"의료,건강 > 약국",,8125987,02-518-8766,파낙스약국,http://place.map.kakao.com/8125987,서울 강남구 논현로 629,127.03241569355019,37.50973430772644
서울 강남구 신사동 603-2,PM9,약국,"의료,건강 > 약국",,1639715641,02-543-8207,소호약국,http://place.map.kakao.com/1639715641,서울 강남구 논현로 848,127.028837128365,37.5245747627632
서울 강남구 개포동 1228-6,PM9,약국,"의료,건강 > 약국",,8727696,02-572-2720,강남세계로약국,http://place.map.kakao.com/8727696,서울 강남구 논현로 52,127.04756669695662,37.47514852187447
서울 강남구 신사동 595-6,PM9,약국,"의료,건강 > 약국",,1342005348,02-516-8999,미소온누리약국,http://place.map.kakao.com/1342005348,서울 강남구 논현로168길 40,127.031327551549,37.523075761367
서울 강남구 논현동 234-28,PM9,약국,"의료,건강 > 약국",,16471476,02-541-2953,논현천사약국,http://place.map.kakao.com/16471476,서울 강남구 논현로 604,127.03407735090148,37.507587646700365
서울 강남구 논현동 216-5,PM9,약국,"의료,건강 > 약국",,10625021,02-3446-2147,온정약국,http://place.map.kakao.com/10625021,서울 강남구 논현로 648,127.032262669814,37.5115886167959
서울 강남구 신사동 599,PM9,약국,"의료,건강 > 약국",,739209183,02-548-6243,압구정원약국,http://place.map.kakao.com/739209183,서울 강남구 논현로 842,127.02865816520384,37.52399185778207
서울 강남구 도곡동 540,PM9,약국,"의료,건강 > 약국",,9301588,02-578-9436,연우약국,http://place.map.kakao.com/9301588,서울 강남구 도곡로 242,127.04655854242506,37.493805203789435
서울 강남구 대치동 986-9,PM9,약국,"의료,건강 > 약국",,1646139918,02-552-3524,강남새천년온누리약국,http://place.map.kakao.com/1646139918,서울 강남구 도곡로 523,127.06353938724416,37.499984502634625
서울 강남구 대치동 939-20,PM9,약국,"의료,건강 > 약국",,16472045,02-508-2450,종로약국,http://place.map.kakao.com/16472045,서울 강남구 도곡로 419,127.056330442693,37.4976608611148
서울 강남구 도곡동 540,PM9,약국,"의료,건강 > 약국",,1365681251,02-3462-9095,도곡메디칼약국,http://place.map.kakao.com/1365681251,서울 강남구 도곡로 242,127.04658335964128,37.493707885250146
서울 강남구 대치동 1021-2,PM9,약국,"의료,건강 > 약국",,8723974,02-566-3138,강남백세약국,http://place.map.kakao.com/8723974,서울 강남구 도곡로 448,127.05956171860494,37.49817284975541
서울 강남구 도곡동 942-2,PM9,약국,"의료,건강 > 약국",,10724682,02-554-6979,정성온누리약국,http://place.map.kakao.com/10724682,서울 강남구 도곡로 120,127.033555931834,37.4898451802733
서울 강남구 역삼동 766-15,PM9,약국,"의료,건강 > 약국",,1111565609,02-564-0805,한티하나약국,http://place.map.kakao.com/1111565609,서울 강남구 도곡로 317,127.050627461172,37.4959109851194
서울 강남구 역삼동 785-14,PM9,약국,"의료,건강 > 약국",,1582909346,02-569-8114,연세열린약국,http://place.map.kakao.com/1582909346,서울 강남구 도곡로 255,127.046082822258,37.4943712226787
서울 강남구 역삼동 765-25,PM9,약국,"의료,건강 > 약국",,609203195,02-3453-9982,한티역약국,http://place.map.kakao.com/609203195,서울 강남구 도곡로 323,127.05139653950526,37.496072834225096
서울 강남구 역삼동 788-16,PM9,약국,"의료,건강 > 약국",,16617940,02-567-9691,다솜약국,http://place.map.kakao.com/16617940,서울 강남구 도곡로 205,127.04152029066391,37.49285561844125
서울 강남구 대치동 1021-6,PM9,약국,"의료,건강 > 약국",,9385123,02-501-8071,정일약국,http://place.map.kakao.com/9385123,서울 강남구 도곡로 458,127.06055129943,37.4982606452935
서울 강남구 대치동 938,PM9,약국,"의료,건강 > 약국",,16413831,02-501-5779,케이팜약국,http://place.map.kakao.com/16413831,서울 강남구 도곡로 405,127.054623774164,37.49738685562621
서울 강남구 대치동 990,PM9,약국,"의료,건강 > 약국",,16271458,02-568-2310,강남보선약국,http://place.map.kakao.com/16271458,서울 강남구 도곡로 516,127.06288606349364,37.49903429083533
서울 강남구 도곡동 543-7,PM9,약국,"의료,건강 > 약국",,1655759481,02-6953-7755,도곡명약국,http://place.map.kakao.com/1655759481,서울 강남구 도곡로28길 8,127.04232952618169,37.4921309214691
서울 강남구 대치동 935-36,PM9,약국,"의료,건강 > 약국",,11308765,02-508-6116,대치필리아약국,http://place.map.kakao.com/11308765,서울 강남구 도곡로63길 12,127.05438884030922,37.497778901801084
서울 강남구 청담동 48-7,PM9,약국,"의료,건강 > 약국",,19455513,02-540-4324,청담메디웰약국,http://place.map.kakao.com/19455513,서울 강남구 삼성로 772,127.0480091699565,37.52352696683343
서울 강남구 삼성동 155-11,PM9,약국,"의료,건강 > 약국",,16059439,02-555-5505,삼성수약국,http://place.map.kakao.com/16059439,서울 강남구 삼성로96길 11,127.05683429549198,37.50892228761633
서울 강남구 삼성동 156-5,PM9,약국,"의료,건강 > 약국",,1211829763,02-562-0361,삼성해든약국,http://place.map.kakao.com/1211829763,서울 강남구 삼성로 520,127.0558953609974,37.50868216740187
서울 강남구 삼성동 120-18,PM9,약국,"의료,건강 > 약국",,16847291,02-557-7676,은약국,http://place.map.kakao.com/16847291,서울 강남구 삼성로 549,127.05430313012418,37.510595742758035
서울 강남구 청담동 47-3,PM9,약국,"의료,건강 > 약국",,1808099029,02-3445-0997,타조약국,http://place.map.kakao.com/1808099029,서울 강남구 삼성로 707,127.049600282321,37.5192663682705
서울 강남구 청담동 5-29,PM9,약국,"의료,건강 > 약국",,10371464,02-549-4750,라이프약국,http://place.map.kakao.com/10371464,서울 강남구 삼성로149길 32,127.04489125466885,37.523214644211556
서울 강남구 삼성동 65,PM9,약국,"의료,건강 > 약국",,11919578,02-514-7850,옵티마대영약국,http://place.map.kakao.com/11919578,서울 강남구 삼성로 642,127.05123020524016,37.5174402400071
서울 강남구 대치동 316,PM9,약국,"의료,건강 > 약국",,1621631158,02-562-1377,건강온누리약국,http://place.map.kakao.com/1621631158,서울 강남구 삼성로 212,127.063959505343,37.4953323802029
서울 강남구 삼성동 158-14,PM9,약국,"의료,건강 > 약국",,1956474733,02-555-1130,사랑온누리약국,http://place.map.kakao.com/1956474733,서울 강남구 삼성로92길 27,127.05854963554441,37.508367331955526
서울 강남구 삼성동 70,PM9,약국,"의료,건강 > 약국",,1003268056,02-3445-9151,아이조은약국,http://place.map.kakao.com/1003268056,서울 강남구 삼성로 620,127.05262432297901,37.514972679391555
서울 강남구 개포동 189,PM9,약국,"의료,건강 > 약국",,1512175703,,보나약국,http://place.map.kakao.com/1512175703,서울 강남구 삼성로 14,127.07379600368222,37.48787351356309
서울 강남구 삼성동 20-5,PM9,약국,"의료,건강 > 약국",,1848401647,02-511-1500,청담사랑온누리약국,http://place.map.kakao.com/1848401647,서울 강남구 삼성로119길 8,127.050634405979,37.5162421623309
서울 강남구 청담동 9,PM9,약국,"의료,건강 > 약국",,1972310294,,청담한약국,http://place.map.kakao.com/1972310294,서울 강남구 삼성로145길 3,127.047887276122,37.5221971365586
서울 강남구 청담동 62-1,PM9,약국,"의료,건강 > 약국",,8363338,02-512-3389,새생명약국,http://place.map.kakao.com/8363338,서울 강남구 삼성로146길 8,127.04877363392278,37.52312480651047
서울 강남구 청담동 11-1,PM9,약국,"의료,건강 > 약국",,981434575,02-3013-1075,경옥채한약국,http://place.map.kakao.com/981434575,서울 강남구 삼성로145길 13,127.047005029167,37.5223776914994
서울 강남구 청담동 84-4,PM9,약국,"의료,건강 > 약국",,1601259605,,청담더약국,http://place.map.kakao.com/1601259605,서울 강남구 선릉로 834,127.040446065171,37.5264382342437
서울 강남구 신사동 664-6,PM9,약국,"의료,건강 > 약국",,11285736,02-543-0701,압구정약국,http://place.map.kakao.com/11285736,서울 강남구 선릉로 845,127.040374299394,37.5276203733364
서울 강남구 개포동 167-9,PM9,약국,"의료,건강 > 약국",,2028632100,02-572-6123,코리아약국,http://place.map.kakao.com/2028632100,서울 강남구 선릉로 34,127.060754794145,37.4828271843908
서울 강남구 역삼동 765-28,PM9,약국,"의료,건강 > 약국",,1680691888,02-538-4567,한티참약국,http://place.map.kakao.com/1680691888,서울 강남구 선릉로 305,127.052412439369,37.4966571411535
서울 강남구 역삼동 765-8,PM9,약국,"의료,건강 > 약국",,1470567107,02-555-2017,강남태평양약국,http://place.map.kakao.com/1470567107,서울 강남구 선릉로 309,127.052159497863,37.4971861439177
서울 강남구 신사동 665-6,PM9,약국,"의료,건강 > 약국",,10776142,02-542-6354,중앙약국,http://place.map.kakao.com/10776142,서울 강남구 선릉로 815,127.039255093094,37.524816832228
서울 강남구 논현동 254-29,PM9,약국,"의료,건강 > 약국",,27142950,02-540-7582,논현필리아약국,http://place.map.kakao.com/27142950,서울 강남구 선릉로 641,127.0423191623019,37.51384065523497
서울 강남구 대치동 896-36,PM9,약국,"의료,건강 > 약국",,1543014725,02-6954-1778,대치약국,http://place.map.kakao.com/1543014725,서울 강남구 선릉로86길 42,127.053124380262,37.5039441595035
서울 강남구 대치동 889-72,PM9,약국,"의료,건강 > 약국",,11495657,02-556-4166,테헤란건강약국,http://place.map.kakao.com/11495657,서울 강남구 선릉로86길 17,127.051096314706,37.5035594238137
서울 강남구 논현동 111-31,PM9,약국,"의료,건강 > 약국",,1080479832,02-542-0325,논현수약국,http://place.map.kakao.com/1080479832,서울 강남구 선릉로 705,127.040762741023,37.5179614922363
서울 강남구 대치동 907,PM9,약국,"의료,건강 > 약국",,566980223,02-566-6480,강남온누리약국,http://place.map.kakao.com/566980223,서울 강남구 선릉로 406,127.050832304699,37.5011556545808
서울 강남구 역삼동 757,PM9,약국,"의료,건강 > 약국",,9164754,02-563-1601,수약국,http://place.map.kakao.com/9164754,서울 강남구 선릉로69길 19,127.051141806678,37.4972992146733
서울 강남구 논현동 94-20,PM9,약국,"의료,건강 > 약국",,10751694,02-542-1954,인선약국,http://place.map.kakao.com/10751694,서울 강남구 선릉로 755,127.03924571250992,37.52202643063701
서울 강남구 대치동 922-23,PM9,약국,"의료,건강 > 약국",,8258266,02-555-1950,동명온누리약국,http://place.map.kakao.com/8258266,서울 강남구 선릉로64길 5,127.05257721038626,37.49779594008995
서울 강남구 신사동 665-1,PM9,약국,"의료,건강 > 약국",,10355119,02-540-4091,로데오약국,http://place.map.kakao.com/10355119,서울 강남구 선릉로 823,127.039495361322,37.5256492781683
서울 강남구 논현동 218-25,PM9,약국,"의료,건강 > 약국",,153967285,02-6191-0020,탑약국,http://place.map.kakao.com/153967285,서울 강남구 언주로 627,127.03512584627134,37.51251853744149
서울 강남구 논현동 211-15,PM9,약국,"의료,건강 > 약국",,1349233755,02-3446-9720,강남정성약국,http://place.map.kakao.com/1349233755,서울 강남구 언주로 639,127.034960089098,37.51361691059559
서울 강남구 신사동 619-6,PM9,약국,"의료,건강 > 약국",,13510585,02-518-7270,압구정소망약국,http://place.map.kakao.com/13510585,서울 강남구 언주로173길 19,127.031886155361,37.52784912151118
서울 강남구 논현동 63-6,PM9,약국,"의료,건강 > 약국",,1504340084,02-540-2282,도산튼튼약국,http://place.map.kakao.com/1504340084,서울 강남구 언주로149길 5,127.033707657742,37.5204901291704
서울 강남구 역삼동 681-3,PM9,약국,"의료,건강 > 약국",,16903874,02-567-5534,호원약국,http://place.map.kakao.com/16903874,서울 강남구 언주로108길 15,127.04050537234546,37.50849112726577
서울 강남구 논현동 63-21,PM9,약국,"의료,건강 > 약국",,16588250,02-541-4545,트리스약국,http://place.map.kakao.com/16588250,서울 강남구 언주로147길 6,127.03372443319832,37.52006214796404
서울 강남구 논현동 225-6,PM9,약국,"의료,건강 > 약국",,1571214560,070-4799-4232,민재원약국,http://place.map.kakao.com/1571214560,서울 강남구 언주로 615,127.0361847658602,37.51063962381437
서울 강남구 도곡동 467-6,PM9,약국,"의료,건강 > 약국",,9025347,02-529-2304,메트로약국,http://place.map.kakao.com/9025347,서울 강남구 언주로30길 13,127.05137446565773,37.48861070217947
서울 강남구 개포동 1283,PM9,약국,"의료,건강 > 약국",,1965723840,02-3462-3888,곰돌이약국,http://place.map.kakao.com/1965723840,서울 강남구 언주로7길 6,127.05562185521626,37.47845891777413
서울 강남구 논현동 90-1,PM9,약국,"의료,건강 > 약국",,17230081,02-515-3800,행복한미래약국,http://place.map.kakao.com/17230081,서울 강남구 언주로 707,127.035060858486,37.516251415833
서울 강남구 논현동 211-11,PM9,약국,"의료,건강 > 약국",,16934776,02-547-7903,민생약국,http://place.map.kakao.com/16934776,서울 강남구 언주로125길 6,127.034747228159,37.5131556593393
서울 강남구 개포동 1283,PM9,약국,"의료,건강 > 약국",,403897338,02-574-2229,참약사스마일약국,http://place.map.kakao.com/403897338,서울 강남구 언주로7길 6,127.05549755704114,37.47854637412414
서울 강남구 신사동 621-2,PM9,약국,"의료,건강 > 약국",,2080150322,02-545-5170,하이약국,http://place.map.kakao.com/2080150322,서울 강남구 언주로 859,127.03311107982,37.527190152072
서울 강남구 논현동 237-11,PM9,약국,"의료,건강 > 약국",,13510729,02-568-5560,늘푸른약국,http://place.map.kakao.com/13510729,서울 강남구 언주로 601,127.03778092206637,37.50886234303103
서울 강남구 역삼동 761-18,PM9,약국,"의료,건강 > 약국",,1300939815,070-4187-8632,정성약국,http://place.map.kakao.com/1300939815,서울 강남구 언주로 314,127.04647615613665,37.49589196806104
서울 강남구 역삼동 748-31,PM9,약국,"의료,건강 > 약국",,1203131268,02-2189-3591,신풍제약도매,http://place.map.kakao.com/1203131268,서울 강남구 역삼로 161,127.036656826877,37.4952863424191
서울 강남구 역삼동 834,PM9,약국,"의료,건강 > 약국",,12964968,02-555-3877,역삼약국,http://place.map.kakao.com/12964968,서울 강남구 역삼로 128,127.03379865815222,37.494013170940434
서울 강남구 역삼동 732-18,PM9,약국,"의료,건강 > 약국",,1451633328,02-557-8575,밝은약국,http://place.map.kakao.com/1451633328,서울 강남구 역삼로 247,127.04316059212131,37.497929500665144
서울 강남구 역삼동 755,PM9,약국,"의료,건강 > 약국",,1506416246,02-501-8284,개나리봄약국,http://place.map.kakao.com/1506416246,서울 강남구 역삼로 310,127.04839624651294,37.499294298288305
서울 강남구 대치동 901-67,PM9,약국,"의료,건강 > 약국",,9021939,02-3453-9557,서울온누리약국,http://place.map.kakao.com/9021939,서울 강남구 역삼로77길 23,127.05599929188102,37.50397436681256
서울 강남구 역삼동 732-21,PM9,약국,"의료,건강 > 약국",,8410087,02-508-6064,아로마약국,http://place.map.kakao.com/8410087,서울 강남구 역삼로 243,127.042828080859,37.4978647492206
서울 강남구 역삼동 738-1,PM9,약국,"의료,건강 > 약국",,1653569267,02-2051-3300,역삼생생약국,http://place.map.kakao.com/1653569267,서울 강남구 역삼로17길 64,127.03658392371278,37.498835429728246
서울 강남구 대치동 908-2,PM9,약국,"의료,건강 > 약국",,24204272,02-501-5063,서울메디약국,http://place.map.kakao.com/24204272,서울 강남구 역삼로 406,127.05159532019573,37.50064535445376
서울 강남구 대치동 966-4,PM9,약국,"의료,건강 > 약국",,790486495,02-567-3375,대치이화약국,http://place.map.kakao.com/790486495,서울 강남구 역삼로 536,127.0616946601623,37.50382106170142
서울 강남구 역삼동 754,PM9,약국,"의료,건강 > 약국",,17198814,02-552-3375,정다운이화약국,http://place.map.kakao.com/17198814,서울 강남구 역삼로 306,127.047555966257,37.4992432821899
서울 강남구 역삼동 755,PM9,약국,"의료,건강 > 약국",,16876810,02-3453-8171,한솔인유로온누리약국,http://place.map.kakao.com/16876810,서울 강남구 역삼로 310,127.048419957286,37.4992357231722
서울 강남구 일원동 715-1,PM9,약국,"의료,건강 > 약국",,9499539,02-459-3702,천사약국,http://place.map.kakao.com/9499539,서울 강남구 일원로 95,127.083453216988,37.4856542114117
서울 강남구 일원동 715-1,PM9,약국,"의료,건강 > 약국",,16330032,02-3411-1009,열린약국,http://place.map.kakao.com/16330032,서울 강남구 일원로 95,127.08337995918815,37.48586690103455
서울 강남구 일원동 687,PM9,약국,"의료,건강 > 약국",,9946834,02-3412-1254,e삼성약국,http://place.map.kakao.com/9946834,서울 강남구 일원로 53,127.08180407777132,37.489244078843335
서울 강남구 일원동 684-6,PM9,약국,"의료,건강 > 약국",,11223129,02-3412-1555,파랑새약국,http://place.map.kakao.com/11223129,서울 강남구 일원로 47,127.081580754125,37.4897605105559
서울 강남구 일원동 715-1,PM9,약국,"의료,건강 > 약국",,1512103992,02-459-8863,독수리약국,http://place.map.kakao.com/1512103992,서울 강남구 일원로 95,127.08345891147555,37.48569114871996
서울 강남구 일원동 717,PM9,약국,"의료,건강 > 약국",,256296120,02-445-1011,일원역1번출구약국,http://place.map.kakao.com/256296120,서울 강남구 일원로 지하 121,127.084450960111,37.4840749361128
서울 강남구 일원동 715-1,PM9,약국,"의료,건강 > 약국",,10074916,02-445-1558,E대학약국,http://place.map.kakao.com/10074916,서울 강남구 일원로 95,127.083399112674,37.4858056189691
서울 강남구 일원동 718,PM9,약국,"의료,건강 > 약국",,1897039353,02-445-7794,일원정류장약국,http://place.map.kakao.com/1897039353,서울 강남구 일원로 120,127.08347605488323,37.483823346597994
서울 강남구 일원동 715-1,PM9,약국,"의료,건강 > 약국",,17675371,02-3412-4416,삼성정문약국,http://place.map.kakao.com/17675371,서울 강남구 일원로 95,127.0835074584778,37.485626241835945
서울 강남구 일원동 717,PM9,약국,"의료,건강 > 약국",,289302146,02-445-1030,위드팜바른약국,http://place.map.kakao.com/289302146,서울 강남구 일원로 115,127.0844599444947,37.484020869192115
서울 강남구 일원동 684-7,PM9,약국,"의료,건강 > 약국",,272234352,02-451-4578,성균관약국,http://place.map.kakao.com/272234352,서울 강남구 일원로 49,127.08162577590241,37.48956946587598
서울 강남구 일원동 684-5,PM9,약국,"의료,건강 > 약국",,540701423,02-2226-5467,무지개삼성약국,http://place.map.kakao.com/540701423,서울 강남구 일원로 45,127.081513066336,37.489904718467
서울 강남구 일원동 715-1,PM9,약국,"의료,건강 > 약국",,16072296,02-6959-0293,삼성강남약국,http://place.map.kakao.com/16072296,서울 강남구 일원로 95,127.083457815876,37.485722684776
서울 강남구 일원동 715-1,PM9,약국,"의료,건강 > 약국",,79209324,02-459-7800,삼성그린약국,http://place.map.kakao.com/79209324,서울 강남구 일원로 95,127.08361261356873,37.485627969481534
서울 강남구 일원동 715-1,PM9,약국,"의료,건강 > 약국",,10960766,02-2226-2256,희망약국,http://place.map.kakao.com/10960766,서울 강남구 일원로 95,127.08354702419182,37.48561900579964
서울 강남구 자곡동 651,PM9,약국,"의료,건강 > 약국",,1692588965,070-4413-0829,자곡맑은약국,http://place.map.kakao.com/1692588965,서울 강남구 자곡로 180,127.1030040162491,37.47345894633446
서울 강남구 자곡동 638,PM9,약국,"의료,건강 > 약국",,823722672,02-459-3353,햇빛약국,http://place.map.kakao.com/823722672,서울 강남구 자곡로 120,127.096483984203,37.4722192543568
서울 강남구 자곡동 636,PM9,약국,"의료,건강 > 약국",,1627498326,02-2226-9661,자곡온누리약국,http://place.map.kakao.com/1627498326,서울 강남구 자곡로 114,127.09611630608944,37.47200601462244
서울 강남구 자곡동 596,PM9,약국,"의료,건강 > 약국",,2113480837,02-2226-2212,이층엔약국,http://place.map.kakao.com/2113480837,서울 강남구 자곡로 201,127.10471374140482,37.47537749511002
서울 강남구 자곡동 619,PM9,약국,"의료,건강 > 약국",,743834349,02-459-3005,더조은약국,http://place.map.kakao.com/743834349,서울 강남구 자곡로3길 21,127.08977066018727,37.471758723059324
서울 강남구 논현동 117-1,PM9,약국,"의료,건강 > 약국",,10119395,02-514-4222,강남프라자약국,http://place.map.kakao.com/10119395,서울 강남구 학동로 323,127.03827799700358,37.51658919439536
서울 강남구 청담동 45-4,PM9,약국,"의료,건강 > 약국",,20198559,02-548-8322,청담수약국,http://place.map.kakao.com/20198559,서울 강남구 학동로 423,127.046636026334,37.518388196801
서울 강남구 논현동 88-7,PM9,약국,"의료,건강 > 약국",,1082423423,02-540-0047,르씨엘약국,http://place.map.kakao.com/1082423423,서울 강남구 학동로 215,127.03248234915712,37.51477901200874
서울 강남구 논현동 158,PM9,약국,"의료,건강 > 약국",,26347444,02-6227-5578,갤러리약국,http://place.map.kakao.com/26347444,서울 강남구 학동로20길 55,127.02708633752462,37.51006271467719
서울 강남구 청담동 71-25,PM9,약국,"의료,건강 > 약국",,18268748,02-540-1038,청담본약국,http://place.map.kakao.com/18268748,서울 강남구 학동로97길 20,127.055520051603,37.5211558400942
서울 강남구 논현동 121,PM9,약국,"의료,건강 > 약국",,16038719,02-547-4561,왕성약국,http://place.map.kakao.com/16038719,서울 강남구 학동로 106,127.02274010089025,37.51131782957312
서울 강남구 청담동 132-16,PM9,약국,"의료,건강 > 약국",,1924188326,02-512-0999,청담엘약국,http://place.map.kakao.com/1924188326,서울 강남구 학동로101길 11,127.05749740761271,37.52114498301215
서울 강남구 청담동 76-6,PM9,약국,"의료,건강 > 약국",,1835518635,02-540-6193,청담약국,http://place.map.kakao.com/1835518635,서울 강남구 학동로 503,127.05090334732384,37.51917481255623
서울 강남구 논현동 144-20,PM9,약국,"의료,건강 > 약국",,1720656437,02-518-2338,연세팜약국,http://place.map.kakao.com/1720656437,서울 강남구 학동로4길 24,127.023331209953,37.5099076422793
서울 강남구 논현동 87-7,PM9,약국,"의료,건강 > 약국",,820489822,02-3443-8575,학동약국,http://place.map.kakao.com/820489822,서울 강남구 학동로 203,127.03117802912769,37.51444328905953
서울 강남구 논현동 116-7,PM9,약국,"의료,건강 > 약국",,19949974,02-549-1820,논현사랑약국,http://place.map.kakao.com/19949974,서울 강남구 학동로 313,127.037517704333,37.5162650770573
서울 강남구 논현동 241-3,PM9,약국,"의료,건강 > 약국",,16704884,02-3014-9272,강남허브약국,http://place.map.kakao.com/16704884,서울 강남구 학동로 342,127.04101553113857,37.51688110164538
서울 강남구 논현동 118-6,PM9,약국,"의료,건강 > 약국",,266566407,02-6956-2436,청담희망약국,http://place.map.kakao.com/266566407,서울 강남구 학동로53길 3-2,127.040133482149,37.5173454214231
서울 강남구 청담동 46-19,PM9,약국,"의료,건강 > 약국",,11142589,02-3444-6609,생명샘약국,http://place.map.kakao.com/11142589,서울 강남구 학동로 433,127.04840312848839,37.51871184700749
서울 강남구 논현동 145-16,PM9,약국,"의료,건강 > 약국",,16036315,02-549-1771,중외약국,http://place.map.kakao.com/16036315,서울 강남구 학동로4길 35,127.02397228170338,37.50918490819087
서울 강남구 세곡동 582,PM9,약국,"의료,건강 > 약국",,1962044687,02-445-1460,100세건강약국,http://place.map.kakao.com/1962044687,서울 강남구 헌릉로571길 7,127.10136722116,37.4660450463982
서울 강남구 세곡동 594,PM9,약국,"의료,건강 > 약국",,966054801,070-8828-7963,세곡온누리약국,http://place.map.kakao.com/966054801,서울 강남구 헌릉로569길 27,127.09878190931964,37.4668103920608
서울 강남구 세곡동 581,PM9,약국,"의료,건강 > 약국",,25756116,02-3414-8001,강남리더스약국,http://place.map.kakao.com/25756116,서울 강남구 헌릉로 569,127.101214104469,37.4656631489898
서울 강남구 세곡동 581,PM9,약국,"의료,건강 > 약국",,1778137304,,원진온누리약국,http://place.map.kakao.com/1778137304,서울 강남구 헌릉로 569,127.101227795334,37.4657568424065
서울 강남구 세곡동 515,PM9,약국,"의료,건강 > 약국",,19120358,02-445-8604,세곡리엔약국,http://place.map.kakao.com/19120358,서울 강남구 헌릉로570길 34,127.103430724225,37.463163626648
서울 강남구 신사동 528-3,PM9,약국,"의료,건강 > 약국",,1567595359,02-518-4201,가로수길약국,http://place.map.kakao.com/1567595359,서울 강남구 압구정로 108,127.02044492724843,37.52288082699708
서울 강남구 논현동 5-1,PM9,약국,"의료,건강 > 약국",,102626585,02-543-2007,포레약국,http://place.map.kakao.com/102626585,서울 강남구 도산대로 134,127.023419486929,37.5173246899361
서울 강남구 논현동 200,PM9,약국,"의료,건강 > 약국",,22542048,02-546-0093,제일그랜드약국,http://place.map.kakao.com/22542048,서울 강남구 강남대로 478,127.02459978430245,37.505062681233476
서울 강남구 역삼동 810,PM9,약국,"의료,건강 > 약국",,597063002,070-4793-0315,성지약국,http://place.map.kakao.com/597063002,서울 강남구 강남대로106길 9,127.026346421511,37.5030269332017
서울 강남구 역삼동 837,PM9,약국,"의료,건강 > 약국",,16444723,02-2193-9100,라온약국,http://place.map.kakao.com/16444723,서울 강남구 강남대로 318,127.03117530020403,37.49156135075287
서울 강남구 역삼동 825-13,PM9,약국,"의료,건강 > 약국",,1582810253,02-565-5490,강남역2번출구약국,http://place.map.kakao.com/1582810253,서울 강남구 강남대로 388,127.028420717278,37.4974510268582
서울 강남구 신사동 537-4,PM9,약국,"의료,건강 > 약국",,672027940,02-518-1374,세로수길약국,http://place.map.kakao.com/672027940,서울 강남구 강남대로152길 46,127.022980858645,37.5181753232949
서울 강남구 역삼동 826-23,PM9,약국,"의료,건강 > 약국",,16586878,02-553-1517,큰길약국,http://place.map.kakao.com/16586878,서울 강남구 강남대로 370,127.02912008840605,37.495829044638775
서울 강남구 논현동 180-18,PM9,약국,"의료,건강 > 약국",,1605451263,02-542-3696,노바약국,http://place.map.kakao.com/1605451263,서울 강남구 강남대로118길 51,127.027198505697,37.5074813102712
서울 강남구 논현동 166,PM9,약국,"의료,건강 > 약국",,1711590479,02-2135-2846,논현밝은약국,http://place.map.kakao.com/1711590479,서울 강남구 강남대로122길 10,127.024076973068,37.5076441686586
서울 강남구 신사동 504-11,PM9,약국,"의료,건강 > 약국",,545297366,02-512-3111,신사스퀘어약국,http://place.map.kakao.com/545297366,서울 강남구 강남대로 652,127.019071897061,37.5196032082722
서울 강남구 역삼동 815-9,PM9,약국,"의료,건강 > 약국",,16505031,02-6440-5656,강남웰약국,http://place.map.kakao.com/16505031,서울 강남구 강남대로 432,127.02668731330603,37.50119330992319
서울 강남구 신사동 502-6,PM9,약국,"의료,건강 > 약국",,1837570961,,1층엔약국,http://place.map.kakao.com/1837570961,서울 강남구 강남대로 624,127.01950458072405,37.51744072974101
서울 강남구 역삼동 816-3,PM9,약국,"의료,건강 > 약국",,8730678,02-553-1608,강남씨티약국,http://place.map.kakao.com/8730678,서울 강남구 강남대로 416,127.027118850316,37.4998876539272
서울 강남구 논현동 164-2,PM9,약국,"의료,건강 > 약국",,1730600057,02-540-0994,센느약국,http://place.map.kakao.com/1730600057,서울 강남구 강남대로 516,127.023163311831,37.5082786587961
서울 강남구 역삼동 824-11,PM9,약국,"의료,건강 > 약국",,16586085,02-567-2501,일번지약국,http://place.map.kakao.com/16586085,서울 강남구 강남대로84길 23,127.03021411734605,37.497102793281776
서울 강남구 논현동 1,PM9,약국,"의료,건강 > 약국",,324453408,02-543-3577,하리약국,http://place.map.kakao.com/324453408,서울 강남구 강남대로 606,127.020156836984,37.5158692700141
서울 강남구 논현동 4,PM9,약국,"의료,건강 > 약국",,1332615730,02-3443-0991,에메랄드약국,http://place.map.kakao.com/1332615730,서울 강남구 도산대로 122,127.02208231722992,37.51684471263617
서울 강남구 논현동 95,PM9,약국,"의료,건강 > 약국",,738836950,02-3443-5561,파크약국,http://place.map.kakao.com/738836950,서울 강남구 도산대로50길 9,127.03760303602685,37.5217620702478
서울 강남구 청담동 124-4,PM9,약국,"의료,건강 > 약국",,159267099,02-3442-7003,푸른온누리약국,http://place.map.kakao.com/159267099,서울 강남구 도산대로 511,127.049210217735,37.5247302116535
서울 강남구 신사동 513-4,PM9,약국,"의료,건강 > 약국",,1153678451,02-549-8774,가나안약국,http://place.map.kakao.com/1153678451,서울 강남구 도산대로 113,127.02084940979428,37.51701162235363
서울 강남구 논현동 93-3,PM9,약국,"의료,건강 > 약국",,1888346774,02-543-3303,청담엔약국,http://place.map.kakao.com/1888346774,서울 강남구 도산대로 330,127.03809434882696,37.52247280392767
서울 강남구 청담동 87-8,PM9,약국,"의료,건강 > 약국",,9328864,02-546-8707,유니팜약국,http://place.map.kakao.com/9328864,서울 강남구 도산대로 415,127.04091975626258,37.52377831250088
서울 강남구 신사동 666-16,PM9,약국,"의료,건강 > 약국",,26826259,070-4125-7407,청담케이팜약국,http://place.map.kakao.com/26826259,서울 강남구 도산대로 333,127.038381004543,37.5233574956452
서울 강남구 논현동 4-20,PM9,약국,"의료,건강 > 약국",,164765538,02-511-8806,케이약국,http://place.map.kakao.com/164765538,서울 강남구 도산대로12길 6,127.023451089414,37.5171012348042
서울 강남구 신사동 537-10,PM9,약국,"의료,건강 > 약국",,450890585,02-515-7414,신사라라약국,http://place.map.kakao.com/450890585,서울 강남구 도산대로 131,127.022777143914,37.5178329814808
서울 강남구 신사동 501-2,PM9,약국,"의료,건강 > 약국",,1165425094,02-543-5759,타워약국,http://place.map.kakao.com/1165425094,서울 강남구 도산대로 107,127.0202373938359,37.51678107189745
서울 강남구 신사동 653-16,PM9,약국,"의료,건강 > 약국",,84022772,02-548-6612,청담라인약국,http://place.map.kakao.com/84022772,서울 강남구 도산대로49길 16,127.037372197002,37.5238912126244
서울 강남구 신사동 629-15,PM9,약국,"의료,건강 > 약국",,963782110,02-518-2351,필하이약국,http://place.map.kakao.com/963782110,서울 강남구 도산대로 235,127.03276922711885,37.521564388685206
서울 강남구 청담동 124-5,PM9,약국,"의료,건강 > 약국",,912815912,02-400-1640,강남셀리뉴약국,http://place.map.kakao.com/912815912,서울 강남구 도산대로 513,127.04947382720867,37.52476614161344
서울 강남구 신사동 561-31,PM9,약국,"의료,건강 > 약국",,885123716,02-547-2744,바른약국,http://place.map.kakao.com/885123716,서울 강남구 도산대로 157,127.02564505063549,37.519010004905816
서울 강남구 신사동 514-2,PM9,약국,"의료,건강 > 약국",,2125018461,02-541-0996,신사루체약국,http://place.map.kakao.com/2125018461,서울 강남구 도산대로 119,127.021464846729,37.5173250613264
서울 강남구 수서동 713,PM9,약국,"의료,건강 > 약국",,10282561,02-3411-3388,동인프라자온누리약국,http://place.map.kakao.com/10282561,서울 강남구 밤고개로1길 10,127.101828000769,37.488234705993
서울 강남구 율현동 434,PM9,약국,"의료,건강 > 약국",,26904400,02-459-6772,메디칼정성약국,http://place.map.kakao.com/26904400,서울 강남구 밤고개로21길 8,127.10793762789436,37.473548247620506
서울 강남구 세곡동 124-2,PM9,약국,"의료,건강 > 약국",,13506925,02-2226-4343,서울약국,http://place.map.kakao.com/13506925,서울 강남구 밤고개로34길 4,127.107442240498,37.4639096888757
서울 강남구 수서동 713,PM9,약국,"의료,건강 > 약국",,13509932,02-2040-6799,수서메디칼약국,http://place.map.kakao.com/13509932,서울 강남구 밤고개로1길 10,127.10184580845392,37.488025656887714
서울 강남구 수서동 713,PM9,약국,"의료,건강 > 약국",,13513193,02-6289-8767,은혜약국,http://place.map.kakao.com/13513193,서울 강남구 밤고개로1길 10,127.101588103296,37.488097959364
서울 강남구 역삼동 686-3,PM9,약국,"의료,건강 > 약국",,457412737,02-567-7750,루이약국,http://place.map.kakao.com/457412737,서울 강남구 봉은사로44길 31,127.040922102934,37.5073602225392
서울 강남구 역삼동 682-17,PM9,약국,"의료,건강 > 약국",,17698242,070-8851-3202,싱싱약국,http://place.map.kakao.com/17698242,서울 강남구 봉은사로54길 9,127.04373157627509,37.50938737759257
서울 강남구 논현동 277,PM9,약국,"의료,건강 > 약국",,10964394,02-545-0429,희병약국,http://place.map.kakao.com/10964394,서울 강남구 봉은사로43길 8,127.03995976111895,37.50975452165192
서울 강남구 논현동 206-17,PM9,약국,"의료,건강 > 약국",,1602857651,02-549-7170,오약국,http://place.map.kakao.com/1602857651,서울 강남구 봉은사로 159,127.031717785506,37.506932372212
서울 강남구 삼성동 77-24,PM9,약국,"의료,건강 > 약국",,1729348445,02-540-7669,지음약국,http://place.map.kakao.com/1729348445,서울 강남구 봉은사로 533,127.058463694186,37.5141887631675
서울 강남구 삼성동 117,PM9,약국,"의료,건강 > 약국",,14088312,02-567-8413,자연애약국,http://place.map.kakao.com/14088312,서울 강남구 봉은사로 474,127.051826211504,37.5123673288848
서울 강남구 삼성동 49-9,PM9,약국,"의료,건강 > 약국",,1376277715,02-545-3275,삼성중앙약국,http://place.map.kakao.com/1376277715,서울 강남구 봉은사로 465,127.050398859502,37.5124778690326
서울 강남구 삼성동 49-7,PM9,약국,"의료,건강 > 약국",,16058294,02-545-7617,해오름약국,http://place.map.kakao.com/16058294,서울 강남구 봉은사로73길 5,127.050695428997,37.5128111136377
서울 강남구 역삼동 601,PM9,약국,"의료,건강 > 약국",,282712935,02-3288-9988,영원약국,http://place.map.kakao.com/282712935,서울 강남구 봉은사로 108,127.02562539463209,37.50453087003212
서울 강남구 논현동 278-19,PM9,약국,"의료,건강 > 약국",,1194586987,02-541-8378,선정릉약국,http://place.map.kakao.com/1194586987,서울 강남구 봉은사로 327,127.042654152296,37.5101869626133
서울 강남구 논현동 235-10,PM9,약국,"의료,건강 > 약국",,26571014,02-549-1210,센트럴약국,http://place.map.kakao.com/26571014,서울 강남구 봉은사로 211,127.03519724246719,37.50799457252824
서울 강남구 논현동 203-1,PM9,약국,"의료,건강 > 약국",,2008494268,02-544-4567,거평원온누리약국,http://place.map.kakao.com/2008494268,서울 강남구 봉은사로 129,127.028315351734,37.5059169030284
서울 강남구 역삼동 650-1,PM9,약국,"의료,건강 > 약국",,109559570,02-539-7717,별빛약국,http://place.map.kakao.com/109559570,서울 강남구 봉은사로 204,127.034473012316,37.5071694655956
서울 강남구 논현동 201-16,PM9,약국,"의료,건강 > 약국",,349381706,02-518-8821,웰스약국,http://place.map.kakao.com/349381706,서울 강남구 봉은사로 107,127.02541294037341,37.50502376586722
서울 강남구 논현동 200-6,PM9,약국,"의료,건강 > 약국",,95304402,02-511-1242,친절한약국,http://place.map.kakao.com/95304402,서울 강남구 봉은사로 105,127.025023868604,37.5049715906185
서울 강남구 신사동 662,PM9,약국,"의료,건강 > 약국",,1537737042,02-6958-5937,샤인약국,http://place.map.kakao.com/1537737042,서울 강남구 압구정로50길 11,127.03812515280632,37.527431009414414
서울 강남구 신사동 661,PM9,약국,"의료,건강 > 약국",,2080077266,02-540-5877,미인약국,http://place.map.kakao.com/2080077266,서울 강남구 압구정로 336,127.03834150416533,37.527960728455874
서울 강남구 신사동 661,PM9,약국,"의료,건강 > 약국",,8726895,02-512-8851,압구정감마약국,http://place.map.kakao.com/8726895,서울 강남구 압구정로 336,127.03860061265117,37.52803182319448
서울 강남구 신사동 614-7,PM9,약국,"의료,건강 > 약국",,9763260,02-543-3751,명옥약국,http://place.map.kakao.com/9763260,서울 강남구 압구정로 212,127.030459557026,37.5278287750162
서울 강남구 신사동 639-1,PM9,약국,"의료,건강 > 약국",,1639567865,02-512-2165,큰나무약국,http://place.map.kakao.com/1639567865,서울 강남구 압구정로 316,127.036006825954,37.5287147007841
서울 강남구 청담동 118-17,PM9,약국,"의료,건강 > 약국",,27402731,02-512-7262,청담와이약국,http://place.map.kakao.com/27402731,서울 강남구 압구정로 461,127.047233088965,37.5252536001892
서울 강남구 신사동 580,PM9,약국,"의료,건강 > 약국",,13512006,02-514-0777,압구정온누리약국,http://place.map.kakao.com/13512006,서울 강남구 압구정로 164,127.027599110689,37.5265284313031
서울 강남구 신사동 608-1,PM9,약국,"의료,건강 > 약국",,944431117,070-8835-7700,압구정수약국,http://place.map.kakao.com/944431117,서울 강남구 압구정로32길 23,127.030060685872,37.5262142817001
서울 강남구 신사동 548-2,PM9,약국,"의료,건강 > 약국",,21911548,070-8844-1195,압구정길약국,http://place.map.kakao.com/21911548,서울 강남구 압구정로 130,127.02280620790484,37.524128283126544
서울 강남구 신사동 638-2,PM9,약국,"의료,건강 > 약국",,533574139,02-516-8753,늘푸른온누리약국,http://place.map.kakao.com/533574139,서울 강남구 압구정로 306,127.0346221620949,37.52889531515931
서울 강남구 신사동 583-1,PM9,약국,"의료,건강 > 약국",,941274413,02-546-5369,여기애가까운약국,http://place.map.kakao.com/941274413,서울 강남구 압구정로28길 31,127.02774204463218,37.52452817294354
서울 강남구 압구정동 442,PM9,약국,"의료,건강 > 약국",,265171768,02-545-3819,압구정예주약국,http://place.map.kakao.com/265171768,서울 강남구 압구정로29길 65,127.02700481598475,37.531794923272116
서울 강남구 신사동 620-1,PM9,약국,"의료,건강 > 약국",,11368073,02-545-8548,세진약국,http://place.map.kakao.com/11368073,서울 강남구 압구정로36길 12,127.03131252073217,37.527712322712084
서울 강남구 신사동 584-1,PM9,약국,"의료,건강 > 약국",,1711116579,02-514-3011,압구정웰약국,http://place.map.kakao.com/1711116579,서울 강남구 압구정로28길 49,127.02771103122,37.5232595687825
서울 강남구 신사동 575,PM9,약국,"의료,건강 > 약국",,27538029,02-542-9307,새봄약국,http://place.map.kakao.com/27538029,서울 강남구 압구정로 152,127.025983220619,37.5253791191369
서울 강남구 일원동 644-4,PM9,약국,"의료,건강 > 약국",,9809500,02-459-5511,삼성제일M약국,http://place.map.kakao.com/9809500,서울 강남구 양재대로55길 7,127.087756461172,37.49134906559
서울 강남구 일원동 643-5,PM9,약국,"의료,건강 > 약국",,11174950,02-459-4465,일원시장약국,http://place.map.kakao.com/11174950,서울 강남구 양재대로55길 19,127.08734240961422,37.492155773789584
서울 강남구 일원동 644-3,PM9,약국,"의료,건강 > 약국",,8997687,02-2226-2268,목화약국,http://place.map.kakao.com/8997687,서울 강남구 양재대로55길 11,127.0876662022,37.4915221259748
서울 강남구 일원동 711-1,PM9,약국,"의료,건강 > 약국",,8850683,02-459-3300,달구약국,http://place.map.kakao.com/8850683,서울 강남구 양재대로55길 6,127.08825167769031,37.49129914130885
서울 강남구 일원동 711-1,PM9,약국,"의료,건강 > 약국",,13500905,02-459-3312,명문약국,http://place.map.kakao.com/13500905,서울 강남구 양재대로55길 6,127.0883127633272,37.49131981882739
서울 강남구 삼성동 159,PM9,약국,"의료,건강 > 약국",,16820328,02-6002-3060,팜엑스약국,http://place.map.kakao.com/16820328,서울 강남구 영동대로 513,127.05810206793463,37.511694962461945
서울 강남구 청담동 132,PM9,약국,"의료,건강 > 약국",,39503672,02-2135-9516,신정원약국,http://place.map.kakao.com/39503672,서울 강남구 영동대로 722,127.056404471867,37.5224060127634
서울 강남구 삼성동 107,PM9,약국,"의료,건강 > 약국",,21029216,02-3443-3359,하늘온누리약국,http://place.map.kakao.com/21029216,서울 강남구 영동대로 602,127.06058599822747,37.51461116542133
서울 강남구 일원동 743,PM9,약국,"의료,건강 > 약국",,261313789,02-459-7320,개포이화약국,http://place.map.kakao.com/261313789,서울 강남구 영동대로 22,127.07487754055093,37.49184807803763
서울 강남구 대치동 1001-6,PM9,약국,"의료,건강 > 약국",,16648496,02-558-6731,메디칼희민약국,http://place.map.kakao.com/16648496,서울 강남구 영동대로86길 10,127.06492926566685,37.507828800712964
서울 강남구 대치동 994-8,PM9,약국,"의료,건강 > 약국",,16414454,02-554-5621,지영온누리약국,http://place.map.kakao.com/16414454,서울 강남구 영동대로 221,127.06822905348848,37.49856730761582
서울 강남구 청담동 132,PM9,약국,"의료,건강 > 약국",,732635775,02-2135-9516,청원약국,http://place.map.kakao.com/732635775,서울 강남구 영동대로 722,127.056404471867,37.5224060127634
서울 강남구 대치동 994-5,PM9,약국,"의료,건강 > 약국",,705327517,02-3288-3650,대치늘푸른약국,http://place.map.kakao.com/705327517,서울 강남구 영동대로 225,127.067631444505,37.4992587229563
서울 강남구 대치동 1002,PM9,약국,"의료,건강 > 약국",,1671683103,02-554-8199,연약국,http://place.map.kakao.com/1671683103,서울 강남구 영동대로 416,127.065371559159,37.5066085961773
서울 강남구 개포동 189,PM9,약국,"의료,건강 > 약국",,818308032,02-6080-2349,자이1층엔약국,http://place.map.kakao.com/818308032,서울 강남구 영동대로3길 17,127.07373711541673,37.487780746521196
서울 강남구 삼성동 107,PM9,약국,"의료,건강 > 약국",,1083498517,,삼성하늘약국,http://place.map.kakao.com/1083498517,서울 강남구 영동대로 602,127.060583800818,37.5146913558825
서울 강남구 개포동 189,PM9,약국,"의료,건강 > 약국",,1917914680,02-445-3414,3층바른약국,http://place.map.kakao.com/1917914680,서울 강남구 영동대로3길 17,127.07401052348875,37.48755352159661
서울 강남구 개포동 189,PM9,약국,"의료,건강 > 약국",,1879947825,02-451-7828,개포서울약국,http://place.map.kakao.com/1879947825,서울 강남구 영동대로3길 17,127.073671565145,37.487812322687
서울 강남구 역삼동 821,PM9,약국,"의료,건강 > 약국",,14970034,02-501-9478,이즈타워약국,http://place.map.kakao.com/14970034,서울 강남구 테헤란로 101,127.02806606668396,37.49862332097004
서울 강남구 역삼동 705-30,PM9,약국,"의료,건강 > 약국",,608192874,02-2039-9112,약사랑약국,http://place.map.kakao.com/608192874,서울 강남구 테헤란로 339,127.048595465036,37.5048110745737
서울 강남구 역삼동 646-9,PM9,약국,"의료,건강 > 약국",,13508532,02-555-7790,강남제일약국,http://place.map.kakao.com/13508532,서울 강남구 테헤란로 139,127.034356784643,37.50034528373279
서울 강남구 삼성동 159-6,PM9,약국,"의료,건강 > 약국",,22547729,02-554-4906,도심공항약국,http://place.map.kakao.com/22547729,서울 강남구 테헤란로87길 22,127.05917188654762,37.510039286413864
서울 강남구 역삼동 676,PM9,약국,"의료,건강 > 약국",,1359444964,02-6985-7252,역삼센터약국,http://place.map.kakao.com/1359444964,서울 강남구 테헤란로 231,127.04134714989391,37.50287487023109
서울 강남구 대치동 946,PM9,약국,"의료,건강 > 약국",,1038692105,02-553-0777,허지웅약국,http://place.map.kakao.com/1038692105,서울 강남구 테헤란로 532,127.06230216889006,37.50812844811193
서울 강남구 역삼동 642-19,PM9,약국,"의료,건강 > 약국",,1127149694,02-557-3005,역삼하이츠온누리약국,http://place.map.kakao.com/1127149694,서울 강남구 테헤란로 151,127.03613599878446,37.50098086310057
서울 강남구 대치동 946-1,PM9,약국,"의료,건강 > 약국",,59326591,02-566-0954,삼성온누리약국,http://place.map.kakao.com/59326591,서울 강남구 테헤란로 534,127.0627873590739,37.508108369106935
서울 강남구 삼성동 159,PM9,약국,"의료,건강 > 약국",,985460272,02-552-5612,삼성온누리약국,http://place.map.kakao.com/985460272,서울 강남구 테헤란로87길 58,127.05753790712579,37.51201329310048
서울 강남구 역삼동 719,PM9,약국,"의료,건강 > 약국",,27580394,02-553-6902,수온누리약국,http://place.map.kakao.com/27580394,서울 강남구 테헤란로 216,127.04018493883468,37.50150123756193
서울 강남구 역삼동 736-18,PM9,약국,"의료,건강 > 약국",,421280850,02-538-5257,올리브온누리약국,http://place.map.kakao.com/421280850,서울 강남구 테헤란로20길 11,127.03454049692823,37.49898921592883
서울 강남구 역삼동 822-2,PM9,약국,"의료,건강 > 약국",,20913424,070-4147-3039,뉴욕약국,http://place.map.kakao.com/20913424,서울 강남구 테헤란로 107,127.028751400268,37.4986835235844
서울 강남구 삼성동 142-46,PM9,약국,"의료,건강 > 약국",,9801605,02-538-1018,삼성일신약국,http://place.map.kakao.com/9801605,서울 강남구 테헤란로 421,127.05261684596383,37.50593290529401
서울 강남구 역삼동 719-4,PM9,약국,"의료,건강 > 약국",,25780144,02-3453-6795,행복한약국,http://place.map.kakao.com/25780144,서울 강남구 테헤란로 222,127.04069505988433,37.50164252084618
서울 강남구 역삼동 825-20,PM9,약국,"의료,건강 > 약국",,1708021893,02-6326-8908,강남역스타약국,http://place.map.kakao.com/1708021893,서울 강남구 테헤란로4길 6,127.02928480791127,37.49774634593719
서울 강남구 대치동 629-1,PM9,약국,"의료,건강 > 약국",,27293378,02-557-5888,우리온누리약국,http://place.map.kakao.com/27293378,서울 강남구 남부순환로397길 57,127.0583013428768,37.493052156555365
서울 강남구 대치동 606-4,PM9,약국,"의료,건강 > 약국",,7871554,02-566-2268,메타팜약국,http://place.map.kakao.com/7871554,서울 강남구 남부순환로 2941,127.062108603907,37.4942809918558
서울 강남구 도곡동 200-10,PM9,약국,"의료,건강 > 약국",,1563910712,,다나약국,http://place.map.kakao.com/1563910712,서울 강남구 남부순환로375길 5,127.04431178270225,37.486394379606
서울 강남구 도곡동 950-8,PM9,약국,"의료,건강 > 약국",,717110856,02-6401-9002,셀메드스토리약국,http://place.map.kakao.com/717110856,서울 강남구 남부순환로359길 27,127.03592548459473,37.4864720109638
서울 강남구 도곡동 920-2,PM9,약국,"의료,건강 > 약국",,14973687,02-571-9515,강남조은약국,http://place.map.kakao.com/14973687,서울 강남구 남부순환로361길 6,127.0375792352606,37.48556958730812
서울 강남구 도곡동 903-1,PM9,약국,"의료,건강 > 약국",,944994465,02-565-5646,이지약국,http://place.map.kakao.com/944994465,서울 강남구 남부순환로365길 26,127.039487446589,37.4870069739916
서울 강남구 도곡동 924-2,PM9,약국,"의료,건강 > 약국",,13510825,02-3463-1500,소화약국,http://place.map.kakao.com/13510825,서울 강남구 남부순환로363길 17,127.03776393358457,37.48635971262663
서울 강남구 대치동 500,PM9,약국,"의료,건강 > 약국",,16472200,02-564-5674,은혜온누리약국,http://place.map.kakao.com/16472200,서울 강남구 남부순환로 2912,127.056090016237,37.4906979941675
서울 강남구 도곡동 959-22,PM9,약국,"의료,건강 > 약국",,16879165,02-576-1149,샛별약국,http://place.map.kakao.com/16879165,서울 강남구 남부순환로359길 4,127.03711217058566,37.48537872118407
서울 강남구 대치동 507,PM9,약국,"의료,건강 > 약국",,152959694,02-569-8009,우리대치약국,http://place.map.kakao.com/152959694,서울 강남구 남부순환로 2936,127.061840894179,37.4932638954581
서울 강남구 도곡동 957-11,PM9,약국,"의료,건강 > 약국",,26416857,02-529-4155,강남굿모닝약국,http://place.map.kakao.com/26416857,서울 강남구 남부순환로 2615,127.03582868602018,37.48502772411959
서울 강남구 대치동 622,PM9,약국,"의료,건강 > 약국",,1025597781,02-501-5920,대치참약국,http://place.map.kakao.com/1025597781,서울 강남구 남부순환로 2927,127.060357623802,37.4936764227663
서울 강남구 도곡동 957-11,PM9,약국,"의료,건강 > 약국",,1713421290,02-577-1108,우리들약국,http://place.map.kakao.com/1713421290,서울 강남구 남부순환로 2615,127.03581173886815,37.48505475950861
서울 강남구 도곡동 924-5,PM9,약국,"의료,건강 > 약국",,9562623,02-571-0029,해맑은약국,http://place.map.kakao.com/9562623,서울 강남구 남부순환로363길 13,127.037701612951,37.486095737133
서울 강남구 대치동 626,PM9,약국,"의료,건강 > 약국",,9971302,02-568-3597,메디칼청실약국,http://place.map.kakao.com/9971302,서울 강남구 남부순환로 2917,127.05925360685913,37.49322647815014
서울 강남구 수서동 713,PM9,약국,"의료,건강 > 약국",,10282561,02-3411-3388,동인프라자온누리약국,http://place.map.kakao.com/10282561,서울 강남구 밤고개로1길 10,127.101828000769,37.488234705993
서울 강남구 수서동 713,PM9,약국,"의료,건강 > 약국",,13509932,02-2040-6799,수서메디칼약국,http://place.map.kakao.com/13509932,서울 강남구 밤고개로1길 10,127.10184580845392,37.488025656887714
서울 강남구 수서동 713,PM9,약국,"의료,건강 > 약국",,13513193,02-6289-8767,은혜약국,http://place.map.kakao.com/13513193,서울 강남구 밤고개로1길 10,127.101588103296,37.488097959364
서울 강남구 개포동 1184,PM9,약국,"의료,건강 > 약국",,10266019,02-576-2720,녹십자옵티마약국,http://place.map.kakao.com/10266019,서울 강남구 논현로10길 24,127.050506883137,37.4747022028123
서울 강남구 청담동 132-16,PM9,약국,"의료,건강 > 약국",,1924188326,02-512-0999,청담엘약국,http://place.map.kakao.com/1924188326,서울 강남구 학동로101길 11,127.05749740761271,37.52114498301215
서울 강남구 청담동 134-20,PM9,약국,"의료,건강 > 약국",,16271461,02-542-1910,새휘정약국,http://place.map.kakao.com/16271461,서울 강남구 학동로101길 26,127.05786286805184,37.522710747146185
서울 강남구 역삼동 810,PM9,약국,"의료,건강 > 약국",,597063002,070-4793-0315,성지약국,http://place.map.kakao.com/597063002,서울 강남구 강남대로106길 9,127.026346421511,37.5030269332017
서울 강남구 역삼동 681-3,PM9,약국,"의료,건강 > 약국",,16903874,02-567-5534,호원약국,http://place.map.kakao.com/16903874,서울 강남구 언주로108길 15,127.04050537234546,37.50849112726577
서울 강남구 대치동 997-11,PM9,약국,"의료,건강 > 약국",,16905833,02-567-3935,동호약국,http://place.map.kakao.com/16905833,서울 강남구 테헤란로114길 16,127.066694321761,37.5085864632956
서울 강남구 논현동 170,PM9,약국,"의료,건강 > 약국",,16791333,02-547-1696,유한약국,http://place.map.kakao.com/16791333,서울 강남구 논현로115길 71,127.02715584068781,37.50834628478098
서울 강남구 논현동 169-3,PM9,약국,"의료,건강 > 약국",,530128310,02-3443-7589,예주약국,http://place.map.kakao.com/530128310,서울 강남구 논현로115길 72,127.02713442889062,37.50856072884548
서울 강남구 논현동 180-18,PM9,약국,"의료,건강 > 약국",,1605451263,02-542-3696,노바약국,http://place.map.kakao.com/1605451263,서울 강남구 강남대로118길 51,127.027198505697,37.5074813102712
서울 강남구 논현동 185,PM9,약국,"의료,건강 > 약국",,10795122,02-548-8969,종원약국,http://place.map.kakao.com/10795122,서울 강남구 강남대로118길 38,127.02620305784285,37.5070238247453
서울 강남구 삼성동 20-5,PM9,약국,"의료,건강 > 약국",,1848401647,02-511-1500,청담사랑온누리약국,http://place.map.kakao.com/1848401647,서울 강남구 삼성로119길 8,127.050634405979,37.5162421623309
서울 강남구 논현동 4-20,PM9,약국,"의료,건강 > 약국",,164765538,02-511-8806,케이약국,http://place.map.kakao.com/164765538,서울 강남구 도산대로12길 6,127.023451089414,37.5171012348042
서울 강남구 논현동 166,PM9,약국,"의료,건강 > 약국",,1711590479,02-2135-2846,논현밝은약국,http://place.map.kakao.com/1711590479,서울 강남구 강남대로122길 10,127.024076973068,37.5076441686586
서울 강남구 논현동 159-23,PM9,약국,"의료,건강 > 약국",,1372472585,02-512-1777,봄봄약국,http://place.map.kakao.com/1372472585,서울 강남구 강남대로122길 47,127.02669234368284,37.50896988573171
서울 강남구 논현동 169,PM9,약국,"의료,건강 > 약국",,15292238,02-3446-2273,논현연세약국,http://place.map.kakao.com/15292238,서울 강남구 강남대로122길 50,127.027081384631,37.5088760926867
서울 강남구 논현동 211-11,PM9,약국,"의료,건강 > 약국",,16934776,02-547-7903,민생약국,http://place.map.kakao.com/16934776,서울 강남구 언주로125길 6,127.034747228159,37.5131556593393
서울 강남구 논현동 240-13,PM9,약국,"의료,건강 > 약국",,13513389,02-544-3922,논현약국,http://place.map.kakao.com/13513389,서울 강남구 선릉로129길 22,127.039666808041,37.5161418383826
서울 강남구 삼성동 7-3,PM9,약국,"의료,건강 > 약국",,16805850,02-545-2929,청담이화약국,http://place.map.kakao.com/16805850,서울 강남구 선릉로130길 20,127.042698493808,37.516548034949
서울 강남구 논현동 58,PM9,약국,"의료,건강 > 약국",,1712802746,02-511-7474,학동봄약국,http://place.map.kakao.com/1712802746,서울 강남구 논현로131길 23,127.0285480127468,37.5139808379786
서울 강남구 논현동 111-13,PM9,약국,"의료,건강 > 약국",,16415680,02-544-5070,노벨약국,http://place.map.kakao.com/16415680,서울 강남구 선릉로131길 8,127.040246890187,37.517889588872
서울 강남구 논현동 86-7,PM9,약국,"의료,건강 > 약국",,1598658844,,위례포레약국,http://place.map.kakao.com/1598658844,서울 강남구 논현로132길 5,127.030902289205,37.5150542421226
서울 강남구 청담동 9,PM9,약국,"의료,건강 > 약국",,1972310294,,청담한약국,http://place.map.kakao.com/1972310294,서울 강남구 삼성로145길 3,127.047887276122,37.5221971365586
서울 강남구 청담동 11-1,PM9,약국,"의료,건강 > 약국",,981434575,02-3013-1075,경옥채한약국,http://place.map.kakao.com/981434575,서울 강남구 삼성로145길 13,127.047005029167,37.5223776914994
서울 강남구 청담동 62-1,PM9,약국,"의료,건강 > 약국",,8363338,02-512-3389,새생명약국,http://place.map.kakao.com/8363338,서울 강남구 삼성로146길 8,127.04877363392278,37.52312480651047
서울 강남구 논현동 105,PM9,약국,"의료,건강 > 약국",,16792260,02-547-8207,동현당약국,http://place.map.kakao.com/16792260,서울 강남구 언주로146길 18,127.03752764823058,37.520310578620304
서울 강남구 논현동 63-21,PM9,약국,"의료,건강 > 약국",,16588250,02-541-4545,트리스약국,http://place.map.kakao.com/16588250,서울 강남구 언주로147길 6,127.03372443319832,37.52006214796404
서울 강남구 논현동 5-19,PM9,약국,"의료,건강 > 약국",,617987428,02-545-7789,서은약국,http://place.map.kakao.com/617987428,서울 강남구 논현로149길 50,127.024521247312,37.5173641104868
서울 강남구 청담동 5-29,PM9,약국,"의료,건강 > 약국",,10371464,02-549-4750,라이프약국,http://place.map.kakao.com/10371464,서울 강남구 삼성로149길 32,127.04489125466885,37.523214644211556
서울 강남구 논현동 63-6,PM9,약국,"의료,건강 > 약국",,1504340084,02-540-2282,도산튼튼약국,http://place.map.kakao.com/1504340084,서울 강남구 언주로149길 5,127.033707657742,37.5204901291704
서울 강남구 신사동 537-4,PM9,약국,"의료,건강 > 약국",,672027940,02-518-1374,세로수길약국,http://place.map.kakao.com/672027940,서울 강남구 강남대로152길 46,127.022980858645,37.5181753232949
서울 강남구 신사동 585-5,PM9,약국,"의료,건강 > 약국",,16043644,070-8657-3221,마리약국,http://place.map.kakao.com/16043644,서울 강남구 논현로155길 6,127.02779422208746,37.52185398510245
서울 강남구 신사동 567-23,PM9,약국,"의료,건강 > 약국",,9024278,02-515-7533,메디팜무지개약국,http://place.map.kakao.com/9024278,서울 강남구 논현로159길 10,127.02741459965002,37.523137101613955
서울 강남구 신사동 566-14,PM9,약국,"의료,건강 > 약국",,1809977502,02-6465-7075,늘봄약국,http://place.map.kakao.com/1809977502,서울 강남구 논현로159길 17,127.02662943348,37.5229066245929
서울 강남구 신사동 597-4,PM9,약국,"의료,건강 > 약국",,17232162,02-547-7585,메디팜압구정약국,http://place.map.kakao.com/17232162,서울 강남구 논현로160길 13,127.029122635632,37.5227654797365
서울 강남구 신사동 612-2,PM9,약국,"의료,건강 > 약국",,1177549358,02-543-3188,다현온누리약국,http://place.map.kakao.com/1177549358,서울 강남구 언주로167길 46,127.029402420876,37.5265883632655
서울 강남구 신사동 595-6,PM9,약국,"의료,건강 > 약국",,1342005348,02-516-8999,미소온누리약국,http://place.map.kakao.com/1342005348,서울 강남구 논현로168길 40,127.031327551549,37.523075761367
서울 강남구 역삼동 738-1,PM9,약국,"의료,건강 > 약국",,1653569267,02-2051-3300,역삼생생약국,http://place.map.kakao.com/1653569267,서울 강남구 역삼로17길 64,127.03658392371278,37.498835429728246
서울 강남구 신사동 577-6,PM9,약국,"의료,건강 > 약국",,1871205416,02-516-0954,구름약국,http://place.map.kakao.com/1871205416,서울 강남구 논현로171길 11,127.027408662589,37.52546168914
서울 강남구 신사동 577-5,PM9,약국,"의료,건강 > 약국",,26324138,02-514-7999,압구정제이약국,http://place.map.kakao.com/26324138,서울 강남구 논현로171길 15,127.02708287861,37.5255302404627
서울 강남구 신사동 619-6,PM9,약국,"의료,건강 > 약국",,13510585,02-518-7270,압구정소망약국,http://place.map.kakao.com/13510585,서울 강남구 언주로173길 19,127.031886155361,37.52784912151118
서울 강남구 신사동 549-6,PM9,약국,"의료,건강 > 약국",,576759043,02-548-5604,우리원약국,http://place.map.kakao.com/576759043,서울 강남구 논현로175길 58,127.024181922994,37.5244460633095
서울 강남구 신사동 581,PM9,약국,"의료,건강 > 약국",,1030394893,02-543-3022,다정약국,http://place.map.kakao.com/1030394893,서울 강남구 논현로175길 7,127.02800512822,37.5262129849955
서울 강남구 신사동 612-1,PM9,약국,"의료,건강 > 약국",,13512976,02-514-5665,한양약국,http://place.map.kakao.com/13512976,서울 강남구 논현로176길 14,127.02971708200879,37.526992834407
서울 강남구 수서동 746,PM9,약국,"의료,건강 > 약국",,12784569,02-451-7281,삼성약국,http://place.map.kakao.com/12784569,서울 강남구 광평로19길 10,127.086816302582,37.4840840338436
서울 강남구 일원동 716,PM9,약국,"의료,건강 > 약국",,9880742,02-2226-1141,SMP온누리약국,http://place.map.kakao.com/9880742,서울 강남구 광평로19길 15,127.085342535179,37.4846185044591
서울 강남구 역삼동 736-18,PM9,약국,"의료,건강 > 약국",,421280850,02-538-5257,올리브온누리약국,http://place.map.kakao.com/421280850,서울 강남구 테헤란로20길 11,127.03454049692823,37.49898921592883
서울 강남구 논현동 158,PM9,약국,"의료,건강 > 약국",,26347444,02-6227-5578,갤러리약국,http://place.map.kakao.com/26347444,서울 강남구 학동로20길 55,127.02708633752462,37.51006271467719
서울 강남구 율현동 434,PM9,약국,"의료,건강 > 약국",,26904400,02-459-6772,메디칼정성약국,http://place.map.kakao.com/26904400,서울 강남구 밤고개로21길 8,127.10793762789436,37.473548247620506
서울 강남구 역삼동 736-55,PM9,약국,"의료,건강 > 약국",,1462065369,02-554-1472,역삼오늘약국,http://place.map.kakao.com/1462065369,서울 강남구 테헤란로26길 10,127.03583905678562,37.49963485054787
서울 강남구 신사동 583-1,PM9,약국,"의료,건강 > 약국",,941274413,02-546-5369,여기애가까운약국,http://place.map.kakao.com/941274413,서울 강남구 압구정로28길 31,127.02774204463218,37.52452817294354
서울 강남구 신사동 584-1,PM9,약국,"의료,건강 > 약국",,1711116579,02-514-3011,압구정웰약국,http://place.map.kakao.com/1711116579,서울 강남구 압구정로28길 49,127.02771103122,37.5232595687825
서울 강남구 신사동 582-3,PM9,약국,"의료,건강 > 약국",,628478171,02-518-9555,압구정영약국,http://place.map.kakao.com/628478171,서울 강남구 압구정로28길 25,127.02781796994306,37.52487954598989
서울 강남구 신사동 576-7,PM9,약국,"의료,건강 > 약국",,24545962,02-542-8032,신사수약국,http://place.map.kakao.com/24545962,서울 강남구 압구정로28길 28,127.027467223575,37.5247372697178
서울 강남구 신사동 567-22,PM9,약국,"의료,건강 > 약국",,1199028036,02-511-8277,밝은온누리약국,http://place.map.kakao.com/1199028036,서울 강남구 압구정로28길 48,127.027453149146,37.5233749573309
서울 강남구 신사동 581-8,PM9,약국,"의료,건강 > 약국",,84389328,02-512-9900,압구정엘약국,http://place.map.kakao.com/84389328,서울 강남구 압구정로28길 13,127.027856731343,37.5256814288404
서울 강남구 도곡동 425-1,PM9,약국,"의료,건강 > 약국",,1049245973,02-6407-7656,도곡약국,http://place.map.kakao.com/1049245973,서울 강남구 논현로28길 2,127.04333686972117,37.48203386022502
서울 강남구 도곡동 422,PM9,약국,"의료,건강 > 약국",,9485613,02-573-6152,코코약국,http://place.map.kakao.com/9485613,서울 강남구 논현로28길 48,127.045665103113,37.48434497144
서울 강남구 도곡동 543-7,PM9,약국,"의료,건강 > 약국",,1655759481,02-6953-7755,도곡명약국,http://place.map.kakao.com/1655759481,서울 강남구 도곡로28길 8,127.04232952618169,37.4921309214691
서울 강남구 압구정동 442,PM9,약국,"의료,건강 > 약국",,265171768,02-545-3819,압구정예주약국,http://place.map.kakao.com/265171768,서울 강남구 압구정로29길 65,127.02700481598475,37.531794923272116
서울 강남구 압구정동 454,PM9,약국,"의료,건강 > 약국",,10386482,02-543-2251,봄약국,http://place.map.kakao.com/10386482,서울 강남구 압구정로29길 72-1,127.02837287206778,37.53238205529869
서울 강남구 압구정동 455,PM9,약국,"의료,건강 > 약국",,500606100,02-545-6601,새소망약국,http://place.map.kakao.com/500606100,서울 강남구 압구정로29길 68,127.027798053664,37.5321803677394
서울 강남구 개포동 189,PM9,약국,"의료,건강 > 약국",,818308032,02-6080-2349,자이1층엔약국,http://place.map.kakao.com/818308032,서울 강남구 영동대로3길 17,127.07373711541673,37.487780746521196
서울 강남구 개포동 189,PM9,약국,"의료,건강 > 약국",,1917914680,02-445-3414,3층바른약국,http://place.map.kakao.com/1917914680,서울 강남구 영동대로3길 17,127.07401052348875,37.48755352159661
서울 강남구 개포동 189,PM9,약국,"의료,건강 > 약국",,1879947825,02-451-7828,개포서울약국,http://place.map.kakao.com/1879947825,서울 강남구 영동대로3길 17,127.073671565145,37.487812322687
서울 강남구 자곡동 619,PM9,약국,"의료,건강 > 약국",,743834349,02-459-3005,더조은약국,http://place.map.kakao.com/743834349,서울 강남구 자곡로3길 21,127.08977066018727,37.471758723059324
서울 강남구 신사동 610,PM9,약국,"의료,건강 > 약국",,8837621,02-547-7411,굿윌압구정약국,http://place.map.kakao.com/8837621,서울 강남구 압구정로30길 12,127.02901782271346,37.52669928163518
서울 강남구 신사동 609-1,PM9,약국,"의료,건강 > 약국",,567290661,02-515-8715,압구정화이트약국,http://place.map.kakao.com/567290661,서울 강남구 압구정로30길 23,127.02950395837,37.5258792493045
서울 강남구 도곡동 467-6,PM9,약국,"의료,건강 > 약국",,9025347,02-529-2304,메트로약국,http://place.map.kakao.com/9025347,서울 강남구 언주로30길 13,127.05137446565773,37.48861070217947
서울 강남구 도곡동 467-7,PM9,약국,"의료,건강 > 약국",,13507773,02-529-2916,도곡타워약국,http://place.map.kakao.com/13507773,서울 강남구 언주로30길 21,127.052067766463,37.4888509677388
서울 강남구 도곡동 467-14,PM9,약국,"의료,건강 > 약국",,9481841,02-2057-4555,서이약국,http://place.map.kakao.com/9481841,서울 강남구 언주로30길 39,127.053211991249,37.4887495450591
서울 강남구 도곡동 467-20,PM9,약국,"의료,건강 > 약국",,16037893,070-7740-5462,솔빛동양약국,http://place.map.kakao.com/16037893,서울 강남구 언주로30길 10,127.05156365068366,37.48748075590842
서울 강남구 신사동 608-1,PM9,약국,"의료,건강 > 약국",,944431117,070-8835-7700,압구정수약국,http://place.map.kakao.com/944431117,서울 강남구 압구정로32길 23,127.030060685872,37.5262142817001
서울 강남구 세곡동 124-2,PM9,약국,"의료,건강 > 약국",,13506925,02-2226-4343,서울약국,http://place.map.kakao.com/13506925,서울 강남구 밤고개로34길 4,127.107442240498,37.4639096888757
서울 강남구 신사동 620,PM9,약국,"의료,건강 > 약국",,27389170,02-515-3893,채움약국,http://place.map.kakao.com/27389170,서울 강남구 압구정로34길 11,127.0309798312422,37.52751148703263
서울 강남구 신사동 620,PM9,약국,"의료,건강 > 약국",,1832507772,02-2268-4582,건강한온누리약국,http://place.map.kakao.com/1832507772,서울 강남구 압구정로34길 11,127.03089499367506,37.52753763831069
서울 강남구 도곡동 950-8,PM9,약국,"의료,건강 > 약국",,717110856,02-6401-9002,셀메드스토리약국,http://place.map.kakao.com/717110856,서울 강남구 남부순환로359길 27,127.03592548459473,37.4864720109638
서울 강남구 도곡동 959-22,PM9,약국,"의료,건강 > 약국",,16879165,02-576-1149,샛별약국,http://place.map.kakao.com/16879165,서울 강남구 남부순환로359길 4,127.03711217058566,37.48537872118407
서울 강남구 신사동 620-1,PM9,약국,"의료,건강 > 약국",,11368073,02-545-8548,세진약국,http://place.map.kakao.com/11368073,서울 강남구 압구정로36길 12,127.03131252073217,37.527712322712084
서울 강남구 도곡동 920-2,PM9,약국,"의료,건강 > 약국",,14973687,02-571-9515,강남조은약국,http://place.map.kakao.com/14973687,서울 강남구 남부순환로361길 6,127.0375792352606,37.48556958730812
서울 강남구 도곡동 924-2,PM9,약국,"의료,건강 > 약국",,13510825,02-3463-1500,소화약국,http://place.map.kakao.com/13510825,서울 강남구 남부순환로363길 17,127.03776393358457,37.48635971262663
서울 강남구 도곡동 924-5,PM9,약국,"의료,건강 > 약국",,9562623,02-571-0029,해맑은약국,http://place.map.kakao.com/9562623,서울 강남구 남부순환로363길 13,127.037701612951,37.486095737133
서울 강남구 도곡동 903-1,PM9,약국,"의료,건강 > 약국",,944994465,02-565-5646,이지약국,http://place.map.kakao.com/944994465,서울 강남구 남부순환로365길 26,127.039487446589,37.4870069739916
서울 강남구 도곡동 200-10,PM9,약국,"의료,건강 > 약국",,1563910712,,다나약국,http://place.map.kakao.com/1563910712,서울 강남구 남부순환로375길 5,127.04431178270225,37.486394379606
서울 강남구 대치동 629-1,PM9,약국,"의료,건강 > 약국",,27293378,02-557-5888,우리온누리약국,http://place.map.kakao.com/27293378,서울 강남구 남부순환로397길 57,127.0583013428768,37.493052156555365
서울 강남구 역삼동 825-20,PM9,약국,"의료,건강 > 약국",,1708021893,02-6326-8908,강남역스타약국,http://place.map.kakao.com/1708021893,서울 강남구 테헤란로4길 6,127.02928480791127,37.49774634593719
서울 강남구 역삼동 825-20,PM9,약국,"의료,건강 > 약국",,2125056727,,강남썬약국,http://place.map.kakao.com/2125056727,서울 강남구 테헤란로4길 6,127.02957770509835,37.49775618403799
서울 강남구 역삼동 826-37,PM9,약국,"의료,건강 > 약국",,1827452624,,이로운약국,http://place.map.kakao.com/1827452624,서울 강남구 테헤란로4길 46,127.03006420696,37.4955116537692
서울 강남구 논현동 144-20,PM9,약국,"의료,건강 > 약국",,1720656437,02-518-2338,연세팜약국,http://place.map.kakao.com/1720656437,서울 강남구 학동로4길 24,127.023331209953,37.5099076422793
서울 강남구 논현동 145-16,PM9,약국,"의료,건강 > 약국",,16036315,02-549-1771,중외약국,http://place.map.kakao.com/16036315,서울 강남구 학동로4길 35,127.02397228170338,37.50918490819087
서울 강남구 논현동 277,PM9,약국,"의료,건강 > 약국",,10964394,02-545-0429,희병약국,http://place.map.kakao.com/10964394,서울 강남구 봉은사로43길 8,127.03995976111895,37.50975452165192
서울 강남구 역삼동 686-3,PM9,약국,"의료,건강 > 약국",,457412737,02-567-7750,루이약국,http://place.map.kakao.com/457412737,서울 강남구 봉은사로44길 31,127.040922102934,37.5073602225392
서울 강남구 신사동 653-16,PM9,약국,"의료,건강 > 약국",,84022772,02-548-6612,청담라인약국,http://place.map.kakao.com/84022772,서울 강남구 도산대로49길 16,127.037372197002,37.5238912126244
서울 강남구 논현동 95,PM9,약국,"의료,건강 > 약국",,738836950,02-3443-5561,파크약국,http://place.map.kakao.com/738836950,서울 강남구 도산대로50길 9,127.03760303602685,37.5217620702478
서울 강남구 신사동 662,PM9,약국,"의료,건강 > 약국",,1537737042,02-6958-5937,샤인약국,http://place.map.kakao.com/1537737042,서울 강남구 압구정로50길 11,127.03812515280632,37.527431009414414
서울 강남구 수서동 714,PM9,약국,"의료,건강 > 약국",,20996098,02-3412-7430,수서옵티마약국,http://place.map.kakao.com/20996098,서울 강남구 광평로51길 8,127.10245330327885,37.48824587849679
서울 강남구 수서동 714-4,PM9,약국,"의료,건강 > 약국",,713423064,02-3411-9464,수서세종약국,http://place.map.kakao.com/713423064,서울 강남구 광평로51길 6-11,127.10323046553,37.4885064941828
서울 강남구 수서동 707,PM9,약국,"의료,건강 > 약국",,8824740,02-459-1445,국송약국,http://place.map.kakao.com/8824740,서울 강남구 광평로51길 49,127.10110365403165,37.490241871565566
서울 강남구 논현동 118-6,PM9,약국,"의료,건강 > 약국",,266566407,02-6956-2436,청담희망약국,http://place.map.kakao.com/266566407,서울 강남구 학동로53길 3-2,127.040133482149,37.5173454214231
서울 강남구 역삼동 682-17,PM9,약국,"의료,건강 > 약국",,17698242,070-8851-3202,싱싱약국,http://place.map.kakao.com/17698242,서울 강남구 봉은사로54길 9,127.04373157627509,37.50938737759257
서울 강남구 일원동 644-4,PM9,약국,"의료,건강 > 약국",,9809500,02-459-5511,삼성제일M약국,http://place.map.kakao.com/9809500,서울 강남구 양재대로55길 7,127.087756461172,37.49134906559
서울 강남구 일원동 643-5,PM9,약국,"의료,건강 > 약국",,11174950,02-459-4465,일원시장약국,http://place.map.kakao.com/11174950,서울 강남구 양재대로55길 19,127.08734240961422,37.492155773789584
서울 강남구 일원동 644-3,PM9,약국,"의료,건강 > 약국",,8997687,02-2226-2268,목화약국,http://place.map.kakao.com/8997687,서울 강남구 양재대로55길 11,127.0876662022,37.4915221259748
서울 강남구 일원동 711-1,PM9,약국,"의료,건강 > 약국",,8850683,02-459-3300,달구약국,http://place.map.kakao.com/8850683,서울 강남구 양재대로55길 6,127.08825167769031,37.49129914130885
서울 강남구 일원동 711-1,PM9,약국,"의료,건강 > 약국",,13500905,02-459-3312,명문약국,http://place.map.kakao.com/13500905,서울 강남구 양재대로55길 6,127.0883127633272,37.49131981882739
서울 강남구 수서동 725,PM9,약국,"의료,건강 > 약국",,1735519777,02-3412-7655,수서역정민아약국,http://place.map.kakao.com/1735519777,서울 강남구 광평로56길 8-13,127.10319393743815,37.48661170701587
서울 강남구 세곡동 594,PM9,약국,"의료,건강 > 약국",,966054801,070-8828-7963,세곡온누리약국,http://place.map.kakao.com/966054801,서울 강남구 헌릉로569길 27,127.09878190931964,37.4668103920608
서울 강남구 세곡동 515,PM9,약국,"의료,건강 > 약국",,19120358,02-445-8604,세곡리엔약국,http://place.map.kakao.com/19120358,서울 강남구 헌릉로570길 34,127.103430724225,37.463163626648
서울 강남구 세곡동 582,PM9,약국,"의료,건강 > 약국",,1962044687,02-445-1460,100세건강약국,http://place.map.kakao.com/1962044687,서울 강남구 헌릉로571길 7,127.10136722116,37.4660450463982
서울 강남구 대치동 935-36,PM9,약국,"의료,건강 > 약국",,11308765,02-508-6116,대치필리아약국,http://place.map.kakao.com/11308765,서울 강남구 도곡로63길 12,127.05438884030922,37.497778901801084
서울 강남구 역삼동 765-2,PM9,약국,"의료,건강 > 약국",,6729379,,팔래스약국,http://place.map.kakao.com/6729379,서울 강남구 선릉로63길 9,127.051440259701,37.4971639341257
서울 강남구 역삼동 765-2,PM9,약국,"의료,건강 > 약국",,16706619,02-553-8890,스카이약국,http://place.map.kakao.com/16706619,서울 강남구 선릉로63길 9,127.051444796711,37.4971837542922
서울 강남구 역삼동 787-1,PM9,약국,"의료,건강 > 약국",,283034544,02-501-4397,동의온누리약국,http://place.map.kakao.com/283034544,서울 강남구 논현로64길 22,127.04225569688107,37.49355453920534
서울 강남구 대치동 922-23,PM9,약국,"의료,건강 > 약국",,8258266,02-555-1950,동명온누리약국,http://place.map.kakao.com/8258266,서울 강남구 선릉로64길 5,127.05257721038626,37.49779594008995
서울 강남구 역삼동 757,PM9,약국,"의료,건강 > 약국",,9164754,02-563-1601,수약국,http://place.map.kakao.com/9164754,서울 강남구 선릉로69길 19,127.051141806678,37.4972992146733
서울 강남구 개포동 1283,PM9,약국,"의료,건강 > 약국",,1965723840,02-3462-3888,곰돌이약국,http://place.map.kakao.com/1965723840,서울 강남구 언주로7길 6,127.05562185521626,37.47845891777413
서울 강남구 개포동 1283,PM9,약국,"의료,건강 > 약국",,403897338,02-574-2229,참약사스마일약국,http://place.map.kakao.com/403897338,서울 강남구 언주로7길 6,127.05549755704114,37.47854637412414
서울 강남구 삼성동 49-7,PM9,약국,"의료,건강 > 약국",,16058294,02-545-7617,해오름약국,http://place.map.kakao.com/16058294,서울 강남구 봉은사로73길 5,127.050695428997,37.5128111136377
서울 강남구 대치동 901-67,PM9,약국,"의료,건강 > 약국",,9021939,02-3453-9557,서울온누리약국,http://place.map.kakao.com/9021939,서울 강남구 역삼로77길 23,127.05599929188102,37.50397436681256
서울 강남구 대치동 891-42,PM9,약국,"의료,건강 > 약국",,22790133,02-567-0409,7층애약국,http://place.map.kakao.com/22790133,서울 강남구 테헤란로78길 8,127.055255198674,37.5056118438096
서울 강남구 개포동 186-3,PM9,약국,"의료,건강 > 약국",,9098150,02-3411-0841,삼우약국,http://place.map.kakao.com/9098150,서울 강남구 개포로82길 11,127.067359410487,37.4884936479505
서울 강남구 개포동 186-5,PM9,약국,"의료,건강 > 약국",,10591637,02-2226-5987,양월약국,http://place.map.kakao.com/10591637,서울 강남구 개포로82길 13-11,127.06804706350758,37.48868516853157
서울 강남구 역삼동 824-11,PM9,약국,"의료,건강 > 약국",,16586085,02-567-2501,일번지약국,http://place.map.kakao.com/16586085,서울 강남구 강남대로84길 23,127.03021411734605,37.497102793281776
서울 강남구 역삼동 825-24,PM9,약국,"의료,건강 > 약국",,1967298906,,강남본약국,http://place.map.kakao.com/1967298906,서울 강남구 강남대로84길 15,127.029835242373,37.4970037788543
서울 강남구 역삼동 826-3,PM9,약국,"의료,건강 > 약국",,1240938960,02-552-9631,다이아약국,http://place.map.kakao.com/1240938960,서울 강남구 강남대로84길 6,127.029193822642,37.496420086828
서울 강남구 대치동 943-16,PM9,약국,"의료,건강 > 약국",,16618597,02-558-5476,장생당약국,http://place.map.kakao.com/16618597,서울 강남구 테헤란로84길 17,127.058969686607,37.5060533424248
서울 강남구 역삼동 738-6,PM9,약국,"의료,건강 > 약국",,13508859,,좋은아침약국,http://place.map.kakao.com/13508859,서울 강남구 논현로85길 7,127.0368101679498,37.49897501541588
서울 강남구 역삼동 719-24,PM9,약국,"의료,건강 > 약국",,503245349,02-566-8259,역삼우주약국,http://place.map.kakao.com/503245349,서울 강남구 언주로85길 32,127.0405883290223,37.50085868245409
서울 강남구 대치동 1001-6,PM9,약국,"의료,건강 > 약국",,16648496,02-558-6731,메디칼희민약국,http://place.map.kakao.com/16648496,서울 강남구 영동대로86길 10,127.06492926566685,37.507828800712964
서울 강남구 역삼동 725-15,PM9,약국,"의료,건강 > 약국",,386398722,02-555-5640,강남미소약국,http://place.map.kakao.com/386398722,서울 강남구 논현로86길 22,127.0392783268594,37.50007705208059
서울 강남구 대치동 896-36,PM9,약국,"의료,건강 > 약국",,1543014725,02-6954-1778,대치약국,http://place.map.kakao.com/1543014725,서울 강남구 선릉로86길 42,127.053124380262,37.5039441595035
서울 강남구 대치동 889-72,PM9,약국,"의료,건강 > 약국",,11495657,02-556-4166,테헤란건강약국,http://place.map.kakao.com/11495657,서울 강남구 선릉로86길 17,127.051096314706,37.5035594238137
서울 강남구 대치동 890-59,PM9,약국,"의료,건강 > 약국",,16706229,02-567-3609,골드로즈약국,http://place.map.kakao.com/16706229,서울 강남구 선릉로86길 31,127.05201066812543,37.5043465035079
서울 강남구 삼성동 159-6,PM9,약국,"의료,건강 > 약국",,22547729,02-554-4906,도심공항약국,http://place.map.kakao.com/22547729,서울 강남구 테헤란로87길 22,127.05917188654762,37.510039286413864
서울 강남구 삼성동 159,PM9,약국,"의료,건강 > 약국",,985460272,02-552-5612,삼성온누리약국,http://place.map.kakao.com/985460272,서울 강남구 테헤란로87길 58,127.05753790712579,37.51201329310048
서울 강남구 삼성동 154-11,PM9,약국,"의료,건강 > 약국",,12012062,02-564-3333,이도건강약국,http://place.map.kakao.com/12012062,서울 강남구 테헤란로87길 29,127.05807675375313,37.50967942813368
서울 강남구 삼성동 158-10,PM9,약국,"의료,건강 > 약국",,13508696,02-508-1363,참좋은약국,http://place.map.kakao.com/13508696,서울 강남구 테헤란로87길 17,127.05852732111232,37.508759280055614
서울 강남구 삼성동 158-12,PM9,약국,"의료,건강 > 약국",,16036410,02-555-6806,소망약국,http://place.map.kakao.com/16036410,서울 강남구 테헤란로87길 13,127.058632414374,37.5086411963255
서울 강남구 삼성동 158-14,PM9,약국,"의료,건강 > 약국",,1956474733,02-555-1130,사랑온누리약국,http://place.map.kakao.com/1956474733,서울 강남구 삼성로92길 27,127.05854963554441,37.508367331955526
서울 강남구 역삼동 696-18,PM9,약국,"의료,건강 > 약국",,9072387,02-554-0624,상지온누리약국,http://place.map.kakao.com/9072387,서울 강남구 선릉로93길 8,127.047749975835,37.5055574517145
서울 강남구 삼성동 155-11,PM9,약국,"의료,건강 > 약국",,16059439,02-555-5505,삼성수약국,http://place.map.kakao.com/16059439,서울 강남구 삼성로96길 11,127.05683429549198,37.50892228761633
서울 강남구 청담동 71-25,PM9,약국,"의료,건강 > 약국",,18268748,02-540-1038,청담본약국,http://place.map.kakao.com/18268748,서울 강남구 학동로97길 20,127.055520051603,37.5211558400942
서울 강남구 대치동 982-1,PM9,약국,"의료,건강 > 약국",,1684789609,02-2039-7862,만약국,http://place.map.kakao.com/1684789609,서울 강남구 도곡로99길 31,127.06502538069347,37.502588501728525
